[{"name":{"common":"Afghanistan","official":"Islamic Republic of Afghanistan","native":"ÿßŸÅÿ∫ÿßŸÜÿ≥ÿ™ÿßŸÜ"},"alpha2":"AF","alpha3":"AFG","capital":"Kabul","continent":"Asia","currencies":[{"name":"Afghan Afghani","code":"AFN"}],"dialingCodes":[93],"emoji":"üá¶üá´","flag":"https://commons.wikimedia.org/wiki/Special:FilePath/Flag_of_Afghanistan.svg","geo":{"latitude":33,"longitude":65,"area":652230},"languages":{"primaryLanguage":{"code":"ps","name":"Pashto","native_name":"Ÿæ⁄öÿ™Ÿà"},"spokenLanguages":[{"code":"ps","name":"Pashto","native_name":"Ÿæ⁄öÿ™Ÿà"},{"code":"uz","name":"Uzbek","native_name":"O ªzbek"},{"code":"tk","name":"Turkmen","native_name":"T√ºrkmen"}]},"locale":{"default":"ps-AF","locales":["ps-AF","uz-AF","tk-AF"]},"numeric":"004","region":"South Asia","tld":[".af"]},{"name":{"common":"Albania","official":"Republic of Albania","native":"Shqip√´ria"},"alpha2":"AL","alpha3":"ALB","capital":"Tirana","continent":"Europe","currencies":[{"name":"Albanian Lek","code":"ALL"}],"dialingCodes":[355],"emoji":"üá¶üá±","flag":"https://commons.wikimedia.org/wiki/Special:FilePath/Flag_of_Albania.svg","geo":{"latitude":41,"longitude":20,"area":28748},"languages":{"primaryLanguage":{"code":"sq","name":"Albanian","native_name":"Shqip"},"spokenLanguages":[{"code":"sq","name":"Albanian","native_name":"Shqip"}]},"locale":{"default":"sq-AL","locales":["sq-AL"]},"numeric":"008","region":"South East Europe","tld":[".al"]},{"name":{"common":"Algeria","official":"People's Democratic Republic of Algeria","native":"ÿßŸÑÿ¨ÿ≤ÿßÿ¶ÿ±"},"alpha2":"DZ","alpha3":"DZA","capital":"Algiers","continent":"Africa","currencies":[{"name":"Algerian Dinar","code":"DZD"}],"dialingCodes":[213],"emoji":"üá©üáø","flag":"https://commons.wikimedia.org/wiki/Special:FilePath/Flag_of_Algeria.svg","geo":{"latitude":28,"longitude":3,"area":2381741},"languages":{"primaryLanguage":{"code":"ar","name":"Arabic","native_name":"ÿßŸÑÿπÿ±ÿ®Ÿäÿ©"},"spokenLanguages":[{"code":"ar","name":"Arabic","native_name":"ÿßŸÑÿπÿ±ÿ®Ÿäÿ©"}]},"locale":{"default":"ar-DZ","locales":["ar-DZ"]},"numeric":"012","region":"Northern Africa","tld":[".dz","ÿßŸÑÿ¨ÿ≤ÿßÿ¶ÿ±."]},{"name":{"common":"American Samoa","official":"American Samoa","native":"American Samoa"},"alpha2":"AS","alpha3":"ASM","capital":"Pago Pago","continent":"Oceania","currencies":[{"name":"United States Dollar","code":"USD"}],"dialingCodes":[1684],"emoji":"üá¶üá∏","flag":"https://commons.wikimedia.org/wiki/Special:FilePath/Flag_of_American_Samoa.svg","geo":{"latitude":-14.33333333,"longitude":-170,"area":199},"languages":{"primaryLanguage":{"code":"en","name":"English","native_name":"English"},"spokenLanguages":[{"code":"en","name":"English","native_name":"English"},{"code":"sm","name":"Samoan","native_name":"gagana fa'a Samoa"}]},"locale":{"default":"en-AS","locales":["en-AS","sm-AS"]},"numeric":"016","region":"Pacific","tld":[".as"]},{"name":{"common":"Andorra","official":"Principality of Andorra","native":"Andorra"},"alpha2":"AD","alpha3":"AND","capital":"Andorra la Vella","continent":"Europe","currencies":[{"name":"Euro","code":"EUR"}],"dialingCodes":[376],"emoji":"üá¶üá©","flag":"https://commons.wikimedia.org/wiki/Special:FilePath/Flag_of_Andorra.svg","geo":{"latitude":42.5,"longitude":1.5,"area":468},"languages":{"primaryLanguage":{"code":"ca","name":"Catalan","native_name":"catal√†"},"spokenLanguages":[{"code":"ca","name":"Catalan","native_name":"catal√†"}]},"locale":{"default":"ca-AD","locales":["ca-AD"]},"numeric":"020","region":"South West Europe","tld":[".ad"]},{"name":{"common":"Angola","official":"Republic of Angola","native":"Angola"},"alpha2":"AO","alpha3":"AGO","capital":"Luanda","continent":"Africa","currencies":[{"name":"Angolan Kwanza","code":"AOA"}],"dialingCodes":[244],"emoji":"üá¶üá¥","flag":"https://commons.wikimedia.org/wiki/Special:FilePath/Flag_of_Angola.svg","geo":{"latitude":-12.5,"longitude":18.5,"area":1246700},"languages":{"primaryLanguage":{"code":"pt","name":"Portuguese","native_name":"Portugu√™s"},"spokenLanguages":[{"code":"pt","name":"Portuguese","native_name":"Portugu√™s"}]},"locale":{"default":"pt-AO","locales":["pt-AO"]},"numeric":"024","region":"Southern Africa","tld":[".ao"]},{"name":{"common":"Anguilla","official":"Anguilla","native":"Anguilla"},"alpha2":"AI","alpha3":"AIA","capital":"The Valley","continent":"Americas","currencies":[{"name":"Eastern Caribbean Dollar","code":"XCD"}],"dialingCodes":[1264],"emoji":"üá¶üáÆ","flag":"https://commons.wikimedia.org/wiki/Special:FilePath/Flag_of_Anguilla.svg","geo":{"latitude":18.25,"longitude":-63.16666666,"area":91},"languages":{"primaryLanguage":{"code":"en","name":"English","native_name":"English"},"spokenLanguages":[{"code":"en","name":"English","native_name":"English"}]},"locale":{"default":"en-AI","locales":["en-AI"]},"numeric":"660","region":"West Indies","tld":[".ai"]},{"name":{"common":"Antarctica","official":"Antarctica","native":"Antarctica"},"alpha2":"AQ","alpha3":"ATA","capital":"","continent":"Europe","currencies":[],"dialingCodes":[672],"emoji":"üá¶üá∂","flag":"https://commons.wikimedia.org/wiki/Special:FilePath/Flag_of_Kosovo.svg","geo":{"latitude":-90,"longitude":0,"area":14000000},"languages":{"primaryLanguage":{"code":"en","name":"English","native_name":"English"},"spokenLanguages":[{"code":"en","name":"English","native_name":"English"},{"code":"ru","name":"Russian","native_name":"–†—É—Å—Å–∫–∏–π"}]},"locale":{"default":"en-AQ","locales":["en-AQ","ru-AQ"]},"numeric":"010","region":"South East Europe","tld":[".aq"]},{"name":{"common":"Antigua and Barbuda","official":"Antigua and Barbuda","native":"Antigua and Barbuda"},"alpha2":"AG","alpha3":"ATG","capital":"Saint John's","continent":"Americas","currencies":[{"name":"Eastern Caribbean Dollar","code":"XCD"}],"dialingCodes":[1268],"emoji":"üá¶üá¨","flag":"https://commons.wikimedia.org/wiki/Special:FilePath/Flag_of_Antigua_and_Barbuda.svg","geo":{"latitude":17.05,"longitude":-61.8,"area":442},"languages":{"primaryLanguage":{"code":"en","name":"English","native_name":"English"},"spokenLanguages":[{"code":"en","name":"English","native_name":"English"}]},"locale":{"default":"en-AG","locales":["en-AG"]},"numeric":"028","region":"West Indies","tld":[".ag"]},{"name":{"common":"Argentina","official":"Argentine Republic","native":"Argentina"},"alpha2":"AR","alpha3":"ARG","capital":"Buenos Aires","continent":"Americas","currencies":[{"name":"Argentine Peso","code":"ARS"}],"dialingCodes":[54],"emoji":"üá¶üá∑","flag":"https://commons.wikimedia.org/wiki/Special:FilePath/Flag_of_Argentina.svg","geo":{"latitude":-34,"longitude":-64,"area":2780400},"languages":{"primaryLanguage":{"code":"es","name":"Spanish","native_name":"Espa√±ol"},"spokenLanguages":[{"code":"es","name":"Spanish","native_name":"Espa√±ol"},{"code":"gn","name":"Guaran√≠","native_name":"Ava√±e'·∫Ω"}]},"locale":{"default":"gn-AR","locales":["es-AR","gn-AR"]},"numeric":"032","region":"South America","tld":[".ar"]},{"name":{"common":"Armenia","official":"Republic of Armenia","native":"’Ä’°’µ’°’Ω’ø’°’∂"},"alpha2":"AM","alpha3":"ARM","capital":"Yerevan","continent":"Asia","currencies":[{"name":"Armenian Dram","code":"AMD"}],"dialingCodes":[374],"emoji":"üá¶üá≤","flag":"https://commons.wikimedia.org/wiki/Special:FilePath/Flag_of_Armenia.svg","geo":{"latitude":40,"longitude":45,"area":29743},"languages":{"primaryLanguage":{"code":"hy","name":"Armenian","native_name":"’Ä’°’µ’•÷Ä’•’∂"},"spokenLanguages":[{"code":"hy","name":"Armenian","native_name":"’Ä’°’µ’•÷Ä’•’∂"}]},"locale":{"default":"hy-AM","locales":["hy-AM"]},"numeric":"051","region":"South West Asia","tld":[".am"]},{"name":{"common":"Aruba","official":"Aruba","native":"Aruba"},"alpha2":"AW","alpha3":"ABW","capital":"Oranjestad","continent":"Americas","currencies":[{"name":"Aruban Florin","code":"AWG"}],"dialingCodes":[297],"emoji":"üá¶üáº","flag":"https://commons.wikimedia.org/wiki/Special:FilePath/Flag_of_Aruba.svg","geo":{"latitude":12.5,"longitude":-69.96666666,"area":180},"languages":{"primaryLanguage":{"code":"nl","name":"Dutch","native_name":"Nederlands"},"spokenLanguages":[{"code":"nl","name":"Dutch","native_name":"Nederlands"},{"code":"pa","name":"Punjabi","native_name":"‡®™‡©∞‡®ú‡®æ‡®¨‡©Ä"}]},"locale":{"default":"nl-AW","locales":["nl-AW","pa-AW"]},"numeric":"533","region":"West Indies","tld":[".aw"]},{"name":{"common":"Australia","official":"Commonwealth of Australia","native":"Australia"},"alpha2":"AU","alpha3":"AUS","capital":"Canberra","continent":"Oceania","currencies":[{"name":"Australian Dollar","code":"AUD"}],"dialingCodes":[61],"emoji":"üá¶üá∫","flag":"https://commons.wikimedia.org/wiki/Special:FilePath/Flag_of_Australia.svg","geo":{"latitude":-27,"longitude":133,"area":7692024},"languages":{"primaryLanguage":{"code":"en","name":"English","native_name":"English"},"spokenLanguages":[{"code":"en","name":"English","native_name":"English"}]},"locale":{"default":"en-AU","locales":["en-AU"]},"numeric":"036","region":"Pacific","tld":[".au"]},{"name":{"common":"Austria","official":"Republic of Austria","native":"√ñsterreich"},"alpha2":"AT","alpha3":"AUT","capital":"Vienna","continent":"Europe","currencies":[{"name":"Euro","code":"EUR"}],"dialingCodes":[43],"emoji":"üá¶üáπ","flag":"https://commons.wikimedia.org/wiki/Special:FilePath/Flag_of_Austria.svg","geo":{"latitude":47.33333333,"longitude":13.33333333,"area":83871},"languages":{"primaryLanguage":{"code":"de","name":"German","native_name":"Deutsch"},"spokenLanguages":[{"code":"de","name":"German","native_name":"Deutsch"}]},"locale":{"default":"de-AT","locales":["de-AT"]},"numeric":"040","region":"Central Europe","tld":[".at"]},{"name":{"common":"Azerbaijan","official":"Republic of Azerbaijan","native":"Az…ôrbaycan"},"alpha2":"AZ","alpha3":"AZE","capital":"Baku","continent":"Asia","currencies":[{"name":"Azerbaijani Manat","code":"AZN"}],"dialingCodes":[994],"emoji":"üá¶üáø","flag":"https://commons.wikimedia.org/wiki/Special:FilePath/Flag_of_Azerbaijan.svg","geo":{"latitude":40.5,"longitude":47.5,"area":86600},"languages":{"primaryLanguage":{"code":"az","name":"Azerbaijani","native_name":"az…ôrbaycan dili"},"spokenLanguages":[{"code":"az","name":"Azerbaijani","native_name":"az…ôrbaycan dili"}]},"locale":{"default":"az-AZ","locales":["az-AZ"]},"numeric":"031","region":"South West Asia","tld":[".az"]},{"name":{"common":"Bahamas","official":"Commonwealth of the Bahamas","native":"Bahamas"},"alpha2":"BS","alpha3":"BHS","capital":"Nassau","continent":"Americas","currencies":[{"name":"Bahamian Dollar","code":"BSD"},{"name":"United States Dollar","code":"USD"}],"dialingCodes":[1242],"emoji":"üáßüá∏","flag":"https://commons.wikimedia.org/wiki/Special:FilePath/Flag_of_the_Bahamas.svg","geo":{"latitude":24.25,"longitude":-76,"area":13943},"languages":{"primaryLanguage":{"code":"en","name":"English","native_name":"English"},"spokenLanguages":[{"code":"en","name":"English","native_name":"English"}]},"locale":{"default":"en-BS","locales":["en-BS"]},"numeric":"044","region":"West Indies","tld":[".bs"]},{"name":{"common":"Bahrain","official":"Kingdom of Bahrain","native":"‚ÄèÿßŸÑÿ®ÿ≠ÿ±ŸäŸÜ"},"alpha2":"BH","alpha3":"BHR","capital":"Manama","continent":"Asia","currencies":[{"name":"Bahraini Dinar","code":"BHD"}],"dialingCodes":[973],"emoji":"üáßüá≠","flag":"https://commons.wikimedia.org/wiki/Special:FilePath/Flag_of_Bahrain.svg","geo":{"latitude":26,"longitude":50.55,"area":765},"languages":{"primaryLanguage":{"code":"ar","name":"Arabic","native_name":"ÿßŸÑÿπÿ±ÿ®Ÿäÿ©"},"spokenLanguages":[{"code":"ar","name":"Arabic","native_name":"ÿßŸÑÿπÿ±ÿ®Ÿäÿ©"}]},"locale":{"default":"ar-BH","locales":["ar-BH"]},"numeric":"048","region":"South West Asia","tld":[".bh"]},{"name":{"common":"Bangladesh","official":"People's Republic of Bangladesh","native":"Bangladesh"},"alpha2":"BD","alpha3":"BGD","capital":"Dhaka","continent":"Asia","currencies":[{"name":"Bangladeshi Taka","code":"BDT"}],"dialingCodes":[880],"emoji":"üáßüá©","flag":"https://commons.wikimedia.org/wiki/Special:FilePath/Flag_of_Bangladesh.svg","geo":{"latitude":24,"longitude":90,"area":147570},"languages":{"primaryLanguage":{"code":"bn","name":"Bengali","native_name":"‡¶¨‡¶æ‡¶Ç‡¶≤‡¶æ"},"spokenLanguages":[{"code":"bn","name":"Bengali","native_name":"‡¶¨‡¶æ‡¶Ç‡¶≤‡¶æ"}]},"locale":{"default":"bn-BD","locales":["bn-BD"]},"numeric":"050","region":"South Asia","tld":[".bd"]},{"name":{"common":"Barbados","official":"Barbados","native":"Barbados"},"alpha2":"BB","alpha3":"BRB","capital":"Bridgetown","continent":"Americas","currencies":[{"name":"Barbadian Dollar","code":"BBD"}],"dialingCodes":[1246],"emoji":"üáßüáß","flag":"https://commons.wikimedia.org/wiki/Special:FilePath/Flag_of_Barbados.svg","geo":{"latitude":13.16666666,"longitude":-59.53333333,"area":430},"languages":{"primaryLanguage":{"code":"en","name":"English","native_name":"English"},"spokenLanguages":[{"code":"en","name":"English","native_name":"English"}]},"locale":{"default":"en-BB","locales":["en-BB"]},"numeric":"052","region":"West Indies","tld":[".bb"]},{"name":{"common":"Belarus","official":"Republic of Belarus","native":"–ë–µ–ª–∞—Ä—ÉÃÅ—Å—å"},"alpha2":"BY","alpha3":"BLR","capital":"Minsk","continent":"Europe","currencies":[{"name":"Belarusian Ruble","code":"BYN"}],"dialingCodes":[375],"emoji":"üáßüáæ","flag":"https://commons.wikimedia.org/wiki/Special:FilePath/Flag_of_Belarus.svg","geo":{"latitude":53,"longitude":28,"area":207600},"languages":{"primaryLanguage":{"code":"be","name":"Belarusian","native_name":"–±–µ–ª–∞—Ä—É—Å–∫–∞—è –º–æ–≤–∞"},"spokenLanguages":[{"code":"be","name":"Belarusian","native_name":"–±–µ–ª–∞—Ä—É—Å–∫–∞—è –º–æ–≤–∞"},{"code":"ru","name":"Russian","native_name":"–†—É—Å—Å–∫–∏–π"}]},"locale":{"default":"be-BY","locales":["be-BY","ru-BY"]},"numeric":"112","region":"Eastern Europe","tld":[".by"]},{"name":{"common":"Belgium","official":"Kingdom of Belgium","native":"Belgi√´"},"alpha2":"BE","alpha3":"BEL","capital":"Brussels","continent":"Europe","currencies":[{"name":"Euro","code":"EUR"}],"dialingCodes":[32],"emoji":"üáßüá™","flag":"https://commons.wikimedia.org/wiki/Special:FilePath/Flag_of_Belgium.svg","geo":{"latitude":50.83333333,"longitude":4,"area":30528},"languages":{"primaryLanguage":{"code":"nl","name":"Dutch","native_name":"Nederlands"},"spokenLanguages":[{"code":"nl","name":"Dutch","native_name":"Nederlands"},{"code":"fr","name":"French","native_name":"fran√ßais"},{"code":"de","name":"German","native_name":"Deutsch"}]},"locale":{"default":"de-BE","locales":["nl-BE","fr-BE","de-BE"]},"numeric":"056","region":"Western Europe","tld":[".be"]},{"name":{"common":"Belize","official":"Belize","native":"Belize"},"alpha2":"BZ","alpha3":"BLZ","capital":"Belmopan","continent":"Americas","currencies":[{"name":"Belize Dollar","code":"BZD"}],"dialingCodes":[501],"emoji":"üáßüáø","flag":"https://commons.wikimedia.org/wiki/Special:FilePath/Flag_of_Belize.svg","geo":{"latitude":17.25,"longitude":-88.75,"area":22966},"languages":{"primaryLanguage":{"code":"en","name":"English","native_name":"English"},"spokenLanguages":[{"code":"en","name":"English","native_name":"English"},{"code":"es","name":"Spanish","native_name":"Espa√±ol"}]},"locale":{"default":"en-BZ","locales":["en-BZ","es-BZ"]},"numeric":"084","region":"Central America","tld":[".bz"]},{"name":{"common":"Benin","official":"Republic of Benin","native":"B√©nin"},"alpha2":"BJ","alpha3":"BEN","capital":"Porto-Novo","continent":"Africa","currencies":[{"name":"West African CFA Franc","code":"XOF"}],"dialingCodes":[229],"emoji":"üáßüáØ","flag":"https://commons.wikimedia.org/wiki/Special:FilePath/Flag_of_Benin.svg","geo":{"latitude":9.5,"longitude":2.25,"area":112622},"languages":{"primaryLanguage":{"code":"fr","name":"French","native_name":"fran√ßais"},"spokenLanguages":[{"code":"fr","name":"French","native_name":"fran√ßais"}]},"locale":{"default":"fr-BJ","locales":["fr-BJ"]},"numeric":"204","region":"Western Africa","tld":[".bj"]},{"name":{"common":"Bermuda","official":"Bermuda","native":"Bermuda"},"alpha2":"BM","alpha3":"BMU","capital":"Hamilton","continent":"Americas","currencies":[{"name":"Bermudian Dollar","code":"BMD"}],"dialingCodes":[1441],"emoji":"üáßüá≤","flag":"https://commons.wikimedia.org/wiki/Special:FilePath/Flag_of_Bermuda.svg","geo":{"latitude":32.33333333,"longitude":-64.75,"area":54},"languages":{"primaryLanguage":{"code":"en","name":"English","native_name":"English"},"spokenLanguages":[{"code":"en","name":"English","native_name":"English"}]},"locale":{"default":"en-BM","locales":["en-BM"]},"numeric":"060","region":"West Indies","tld":[".bm"]},{"name":{"common":"Bhutan","official":"Kingdom of Bhutan","native":" ºbrug-yul"},"alpha2":"BT","alpha3":"BTN","capital":"Thimphu","continent":"Asia","currencies":[{"name":"Bhutanese Ngultrum","code":"BTN"},{"name":"Indian Rupee","code":"INR"}],"dialingCodes":[975],"emoji":"üáßüáπ","flag":"https://commons.wikimedia.org/wiki/Special:FilePath/Flag_of_Bhutan.svg","geo":{"latitude":27.5,"longitude":90.5,"area":38394},"languages":{"primaryLanguage":{"code":"dz","name":"Dzongkha","native_name":"‡Ω¢‡æ´‡Ωº‡ΩÑ‡ºã‡ΩÅ"},"spokenLanguages":[{"code":"dz","name":"Dzongkha","native_name":"‡Ω¢‡æ´‡Ωº‡ΩÑ‡ºã‡ΩÅ"}]},"locale":{"default":"dz-BT","locales":["dz-BT"]},"numeric":"064","region":"South Asia","tld":[".bt"]},{"name":{"common":"Bolivia","official":"Plurinational State of Bolivia","native":"Bolivia"},"alpha2":"BO","alpha3":"BOL","capital":"Sucre","continent":"Americas","currencies":[{"name":"Bolivian Boliviano","code":"BOB"}],"dialingCodes":[591],"emoji":"üáßüá¥","flag":"https://commons.wikimedia.org/wiki/Special:FilePath/Flag_of_Bolivia.svg","geo":{"latitude":-17,"longitude":-65,"area":1098581},"languages":{"primaryLanguage":{"code":"es","name":"Spanish","native_name":"Espa√±ol"},"spokenLanguages":[{"code":"es","name":"Spanish","native_name":"Espa√±ol"},{"code":"ay","name":"Aymara","native_name":"aymar aru"},{"code":"qu","name":"Quechua","native_name":"Runa Simi"}]},"locale":{"default":"ay-BO","locales":["es-BO","ay-BO","qu-BO"]},"numeric":"068","region":"South America","tld":[".bo"]},{"name":{"common":"Caribbean Netherlands","official":"Bonaire, Sint Eustatius and Saba","native":"Bonaire"},"alpha2":"BQ","alpha3":"BES","capital":"Kralendijk","continent":"Americas","currencies":[{"name":"United States Dollar","code":"USD"}],"dialingCodes":[5997],"emoji":"üáßüá∂","flag":"https://commons.wikimedia.org/wiki/Special:FilePath/Flag_of_Bonaire.svg","geo":{"latitude":12.18,"longitude":-68.25,"area":328},"languages":{"primaryLanguage":{"code":"nl","name":"Dutch","native_name":"Nederlands"},"spokenLanguages":[{"code":"nl","name":"Dutch","native_name":"Nederlands"}]},"locale":{"default":"nl-BQ","locales":["nl-BQ"]},"numeric":"535","region":"West Indies","tld":[".bq",".nl"]},{"name":{"common":"Bosnia and Herzegovina","official":"Bosnia and Herzegovina","native":"Bosna i Hercegovina"},"alpha2":"BA","alpha3":"BIH","capital":"Sarajevo","continent":"Europe","currencies":[{"name":"Bosnia And Herzegovina Convertible Mark","code":"BAM"}],"dialingCodes":[387],"emoji":"üáßüá¶","flag":"https://commons.wikimedia.org/wiki/Special:FilePath/Flag_of_Bosnia_and_Herzegovina.svg","geo":{"latitude":44,"longitude":18,"area":51209},"languages":{"primaryLanguage":{"code":"bs","name":"Bosnian","native_name":"bosanski jezik"},"spokenLanguages":[{"code":"bs","name":"Bosnian","native_name":"bosanski jezik"},{"code":"hr","name":"Croatian","native_name":"hrvatski jezik"},{"code":"sr","name":"Serbian","native_name":"—Å—Ä–ø—Å–∫–∏ —ò–µ–∑–∏–∫"}]},"locale":{"default":"bs-BA","locales":["bs-BA","hr-BA","sr-BA"]},"numeric":"070","region":"South East Europe","tld":[".ba"]},{"name":{"common":"Botswana","official":"Republic of Botswana","native":"Botswana"},"alpha2":"BW","alpha3":"BWA","capital":"Gaborone","continent":"Africa","currencies":[{"name":"Botswana Pula","code":"BWP"}],"dialingCodes":[267],"emoji":"üáßüáº","flag":"https://commons.wikimedia.org/wiki/Special:FilePath/Flag_of_Botswana.svg","geo":{"latitude":-22,"longitude":24,"area":582000},"languages":{"primaryLanguage":{"code":"en","name":"English","native_name":"English"},"spokenLanguages":[{"code":"en","name":"English","native_name":"English"},{"code":"tn","name":"Tswana","native_name":"Setswana"}]},"locale":{"default":"en-BW","locales":["en-BW","tn-BW"]},"numeric":"072","region":"Southern Africa","tld":[".bw"]},{"name":{"common":"Bouvet Island","official":"Bouvet Island","native":"Bouvet√∏ya"},"alpha2":"BV","alpha3":"BVT","capital":"","continent":"Atlantic Ocean","currencies":[],"dialingCodes":[47],"emoji":"üáßüáª","flag":"https://commons.wikimedia.org/wiki/Special:FilePath/Flag_of_Norway.svg","geo":{"latitude":-54.43333333,"longitude":3.4,"area":49},"languages":{"primaryLanguage":{"code":"no","name":"Norwegian","native_name":"Norsk"},"spokenLanguages":[{"code":"no","name":"Norwegian","native_name":"Norsk"},{"code":"nb","name":"Norwegian Bokm√•l","native_name":"Norsk bokm√•l"},{"code":"nn","name":"Norwegian Nynorsk","native_name":"Norsk nynorsk"}]},"locale":{"default":"nn-BV","locales":["no-BV","nb-BV","nn-BV"]},"numeric":"074","region":"South Atlantic Ocean","tld":[".bv"]},{"name":{"common":"Brazil","official":"Federative Republic of Brazil","native":"Brasil"},"alpha2":"BR","alpha3":"BRA","capital":"Bras√≠lia","continent":"Americas","currencies":[{"name":"Brazilian Real","code":"BRL"}],"dialingCodes":[55],"emoji":"üáßüá∑","flag":"https://commons.wikimedia.org/wiki/Special:FilePath/Flag_of_Brazil.svg","geo":{"latitude":-10,"longitude":-55,"area":8515767},"languages":{"primaryLanguage":{"code":"pt","name":"Portuguese","native_name":"Portugu√™s"},"spokenLanguages":[{"code":"pt","name":"Portuguese","native_name":"Portugu√™s"}]},"locale":{"default":"pt-BR","locales":["pt-BR"]},"numeric":"076","region":"South America","tld":[".br"]},{"name":{"common":"British Indian Ocean Territory","official":"British Indian Ocean Territory","native":"British Indian Ocean Territory"},"alpha2":"IO","alpha3":"IOT","capital":"Diego Garcia","continent":"Asia","currencies":[{"name":"United States Dollar","code":"USD"}],"dialingCodes":[246],"emoji":"üáÆüá¥","flag":"https://commons.wikimedia.org/wiki/Special:FilePath/Flag_of_the_British_Indian_Ocean_Territory.svg","geo":{"latitude":-6,"longitude":71.5,"area":60},"languages":{"primaryLanguage":{"code":"en","name":"English","native_name":"English"},"spokenLanguages":[{"code":"en","name":"English","native_name":"English"}]},"locale":{"default":"en-IO","locales":["en-IO"]},"numeric":"086","region":"South Asia","tld":[".io"]},{"name":{"common":"Brunei","official":"Nation of Brunei, Abode of Peace","native":"Negara Brunei Darussalam"},"alpha2":"BN","alpha3":"BRN","capital":"Bandar Seri Begawan","continent":"Asia","currencies":[{"name":"Brunei Dollar","code":"BND"},{"name":"Singapore Dollar","code":"SGD"}],"dialingCodes":[673],"emoji":"üáßüá≥","flag":"https://commons.wikimedia.org/wiki/Special:FilePath/Flag_of_Brunei.svg","geo":{"latitude":4.5,"longitude":114.66666666,"area":5765},"languages":{"primaryLanguage":{"code":"ms","name":"Malay","native_name":"bahasa Melayu"},"spokenLanguages":[{"code":"ms","name":"Malay","native_name":"bahasa Melayu"}]},"locale":{"default":"ms-BN","locales":["ms-BN"]},"numeric":"096","region":"South East Asia","tld":[".bn"]},{"name":{"common":"Bulgaria","official":"Republic of Bulgaria","native":"–ë—ä–ª–≥–∞—Ä–∏—è"},"alpha2":"BG","alpha3":"BGR","capital":"Sofia","continent":"Europe","currencies":[{"name":"Bulgarian Lev","code":"BGN"}],"dialingCodes":[359],"emoji":"üáßüá¨","flag":"https://commons.wikimedia.org/wiki/Special:FilePath/Flag_of_Bulgaria.svg","geo":{"latitude":43,"longitude":25,"area":110879},"languages":{"primaryLanguage":{"code":"bg","name":"Bulgarian","native_name":"–±—ä–ª–≥–∞—Ä—Å–∫–∏ –µ–∑–∏–∫"},"spokenLanguages":[{"code":"bg","name":"Bulgarian","native_name":"–±—ä–ª–≥–∞—Ä—Å–∫–∏ –µ–∑–∏–∫"}]},"locale":{"default":"bg-BG","locales":["bg-BG"]},"numeric":"100","region":"South East Europe","tld":[".bg"]},{"name":{"common":"Burkina Faso","official":"Burkina Faso","native":"Burkina Faso"},"alpha2":"BF","alpha3":"BFA","capital":"Ouagadougou","continent":"Africa","currencies":[{"name":"West African CFA Franc","code":"XOF"}],"dialingCodes":[226],"emoji":"üáßüá´","flag":"https://commons.wikimedia.org/wiki/Special:FilePath/Flag_of_Burkina_Faso.svg","geo":{"latitude":13,"longitude":-2,"area":272967},"languages":{"primaryLanguage":{"code":"fr","name":"French","native_name":"fran√ßais"},"spokenLanguages":[{"code":"fr","name":"French","native_name":"fran√ßais"},{"code":"ff","name":"Fula","native_name":"Fulfulde"}]},"locale":{"default":"fr-BF","locales":["fr-BF","ff-BF"]},"numeric":"854","region":"Western Africa","tld":[".bf"]},{"name":{"common":"Burundi","official":"Republic of Burundi","native":"Burundi"},"alpha2":"BI","alpha3":"BDI","capital":"Bujumbura","continent":"Africa","currencies":[{"name":"Burundian Franc","code":"BIF"}],"dialingCodes":[257],"emoji":"üáßüáÆ","flag":"https://commons.wikimedia.org/wiki/Special:FilePath/Flag_of_Burundi.svg","geo":{"latitude":-3.5,"longitude":30,"area":27834},"languages":{"primaryLanguage":{"code":"fr","name":"French","native_name":"fran√ßais"},"spokenLanguages":[{"code":"fr","name":"French","native_name":"fran√ßais"},{"code":"rn","name":"Kirundi","native_name":"Ikirundi"}]},"locale":{"default":"fr-BI","locales":["fr-BI","rn-BI"]},"numeric":"108","region":"Central Africa","tld":[".bi"]},{"name":{"common":"Cape Verde","official":"Republic of Cabo Verde","native":"Cabo Verde"},"alpha2":"CV","alpha3":"CPV","capital":"Praia","continent":"Africa","currencies":[{"name":"Cape Verdean Escudo","code":"CVE"}],"dialingCodes":[238],"emoji":"üá®üáª","flag":"https://commons.wikimedia.org/wiki/Special:FilePath/Flag_of_Cape_Verde.svg","geo":{"latitude":16,"longitude":-24,"area":4033},"languages":{"primaryLanguage":{"code":"pt","name":"Portuguese","native_name":"Portugu√™s"},"spokenLanguages":[{"code":"pt","name":"Portuguese","native_name":"Portugu√™s"}]},"locale":{"default":"pt-CV","locales":["pt-CV"]},"numeric":"132","region":"Western Africa","tld":[".cv"]},{"name":{"common":"Cambodia","official":"Kingdom of Cambodia","native":"K√¢mp≈≠ch√©a"},"alpha2":"KH","alpha3":"KHM","capital":"Phnom Penh","continent":"Asia","currencies":[{"name":"Cambodian Riel","code":"KHR"},{"name":"United States Dollar","code":"USD"}],"dialingCodes":[855],"emoji":"üá∞üá≠","flag":"https://commons.wikimedia.org/wiki/Special:FilePath/Flag_of_Cambodia.svg","geo":{"latitude":13,"longitude":105,"area":181035},"languages":{"primaryLanguage":{"code":"km","name":"Khmer","native_name":"·ûÅ·üí·ûò·üÇ·ûö"},"spokenLanguages":[{"code":"km","name":"Khmer","native_name":"·ûÅ·üí·ûò·üÇ·ûö"}]},"locale":{"default":"km-KH","locales":["km-KH"]},"numeric":"116","region":"South East Asia","tld":[".kh"]},{"name":{"common":"Cameroon","official":"Republic of Cameroon","native":"Cameroon"},"alpha2":"CM","alpha3":"CMR","capital":"Yaound√©","continent":"Africa","currencies":[{"name":"Central African CFA Franc","code":"XAF"}],"dialingCodes":[237],"emoji":"üá®üá≤","flag":"https://commons.wikimedia.org/wiki/Special:FilePath/Flag_of_Cameroon.svg","geo":{"latitude":6,"longitude":12,"area":475442},"languages":{"primaryLanguage":{"code":"en","name":"English","native_name":"English"},"spokenLanguages":[{"code":"en","name":"English","native_name":"English"},{"code":"fr","name":"French","native_name":"fran√ßais"}]},"locale":{"default":"en-CM","locales":["en-CM","fr-CM"]},"numeric":"120","region":"Western Africa","tld":[".cm"]},{"name":{"common":"Canada","official":"Canada","native":"Canada"},"alpha2":"CA","alpha3":"CAN","capital":"Ottawa","continent":"Americas","currencies":[{"name":"Canadian Dollar","code":"CAD"}],"dialingCodes":[1],"emoji":"üá®üá¶","flag":"https://commons.wikimedia.org/wiki/Special:FilePath/Flag_of_Canada.svg","geo":{"latitude":60,"longitude":-95,"area":9984670},"languages":{"primaryLanguage":{"code":"en","name":"English","native_name":"English"},"spokenLanguages":[{"code":"en","name":"English","native_name":"English"},{"code":"fr","name":"French","native_name":"fran√ßais"}]},"locale":{"default":"en-CA","locales":["en-CA","fr-CA"]},"numeric":"124","region":"North America","tld":[".ca"]},{"name":{"common":"Cayman Islands","official":"Cayman Islands","native":"Cayman Islands"},"alpha2":"KY","alpha3":"CYM","capital":"George Town","continent":"Americas","currencies":[{"name":"Cayman Islands Dollar","code":"KYD"}],"dialingCodes":[1345],"emoji":"üá∞üáæ","flag":"https://commons.wikimedia.org/wiki/Special:FilePath/Flag_of_the_Cayman_Islands.svg","geo":{"latitude":19.5,"longitude":-80.5,"area":264},"languages":{"primaryLanguage":{"code":"en","name":"English","native_name":"English"},"spokenLanguages":[{"code":"en","name":"English","native_name":"English"}]},"locale":{"default":"en-KY","locales":["en-KY"]},"numeric":"136","region":"West Indies","tld":[".ky"]},{"name":{"common":"Central African Republic","official":"Central African Republic","native":"K√∂d√∂r√∂s√™se t√Æ B√™afr√Æka"},"alpha2":"CF","alpha3":"CAF","capital":"Bangui","continent":"Africa","currencies":[{"name":"Central African CFA Franc","code":"XAF"}],"dialingCodes":[236],"emoji":"üá®üá´","flag":"https://commons.wikimedia.org/wiki/Special:FilePath/Flag_of_the_Central_African_Republic.svg","geo":{"latitude":7,"longitude":21,"area":622984},"languages":{"primaryLanguage":{"code":"fr","name":"French","native_name":"fran√ßais"},"spokenLanguages":[{"code":"fr","name":"French","native_name":"fran√ßais"},{"code":"sg","name":"Sango","native_name":"y√¢ng√¢ t√Æ s√§ng√∂"}]},"locale":{"default":"fr-CF","locales":["fr-CF","sg-CF"]},"numeric":"140","region":"Central Africa","tld":[".cf"]},{"name":{"common":"Chad","official":"Republic of Chad","native":"Tchad"},"alpha2":"TD","alpha3":"TCD","capital":"N'Djamena","continent":"Africa","currencies":[{"name":"Central African CFA Franc","code":"XAF"}],"dialingCodes":[235],"emoji":"üáπüá©","flag":"https://commons.wikimedia.org/wiki/Special:FilePath/Flag_of_Chad.svg","geo":{"latitude":15,"longitude":19,"area":1284000},"languages":{"primaryLanguage":{"code":"fr","name":"French","native_name":"fran√ßais"},"spokenLanguages":[{"code":"fr","name":"French","native_name":"fran√ßais"},{"code":"ar","name":"Arabic","native_name":"ÿßŸÑÿπÿ±ÿ®Ÿäÿ©"}]},"locale":{"default":"ar-TD","locales":["fr-TD","ar-TD"]},"numeric":"148","region":"Central Africa","tld":[".td"]},{"name":{"common":"Chile","official":"Republic of Chile","native":"Chile"},"alpha2":"CL","alpha3":"CHL","capital":"Santiago","continent":"Americas","currencies":[{"name":"Chilean Peso","code":"CLP"}],"dialingCodes":[56],"emoji":"üá®üá±","flag":"https://commons.wikimedia.org/wiki/Special:FilePath/Flag_of_Chile.svg","geo":{"latitude":-30,"longitude":-71,"area":756102},"languages":{"primaryLanguage":{"code":"es","name":"Spanish","native_name":"Espa√±ol"},"spokenLanguages":[{"code":"es","name":"Spanish","native_name":"Espa√±ol"}]},"locale":{"default":"es-CL","locales":["es-CL"]},"numeric":"152","region":"South America","tld":[".cl"]},{"name":{"common":"China","official":"People's Republic of China","native":"‰∏≠ÂõΩ"},"alpha2":"CN","alpha3":"CHN","capital":"Beijing","continent":"Asia","currencies":[{"name":"Chinese Yuan","code":"CNY"}],"dialingCodes":[86],"emoji":"üá®üá≥","flag":"https://commons.wikimedia.org/wiki/Special:FilePath/Flag_of_China.svg","geo":{"latitude":35,"longitude":105,"area":9706961},"languages":{"primaryLanguage":{"code":"zh","name":"Chinese","native_name":"‰∏≠Êñá (Zh≈çngw√©n)"},"spokenLanguages":[{"code":"zh","name":"Chinese","native_name":"‰∏≠Êñá (Zh≈çngw√©n)"}]},"locale":{"default":"zh-CN","locales":["zh-CN"]},"numeric":"156","region":"East Asia","tld":[".cn",".‰∏≠ÂõΩ",".‰∏≠Âúã",".ÂÖ¨Âè∏",".ÁΩëÁªú"]},{"name":{"common":"Christmas Island","official":"Territory of Christmas Island","native":"Christmas Island"},"alpha2":"CX","alpha3":"CXR","capital":"Flying Fish Cove","continent":"Asia","currencies":[{"name":"Australian Dollar","code":"AUD"}],"dialingCodes":[61],"emoji":"üá®üáΩ","flag":"https://commons.wikimedia.org/wiki/Special:FilePath/Flag_of_Christmas_Island.svg","geo":{"latitude":-10.5,"longitude":105.66666666,"area":135},"languages":{"primaryLanguage":{"code":"en","name":"English","native_name":"English"},"spokenLanguages":[{"code":"en","name":"English","native_name":"English"}]},"locale":{"default":"en-CX","locales":["en-CX"]},"numeric":"162","region":"South East Asia","tld":[".cx"]},{"name":{"common":"Cocos (Keeling) Islands","official":"Territory of the Cocos (Keeling) Islands","native":"Cocos (Keeling) Islands"},"alpha2":"CC","alpha3":"CCK","capital":"West Island","continent":"Asia","currencies":[{"name":"Australian Dollar","code":"AUD"}],"dialingCodes":[61],"emoji":"üá®üá®","flag":"https://commons.wikimedia.org/wiki/Special:FilePath/Flag_of_the_Cocos_(Keeling)_Islands.svg","geo":{"latitude":-12.5,"longitude":96.83333333,"area":14},"languages":{"primaryLanguage":{"code":"en","name":"English","native_name":"English"},"spokenLanguages":[{"code":"en","name":"English","native_name":"English"}]},"locale":{"default":"en-CC","locales":["en-CC"]},"numeric":"166","region":"South East Asia","tld":[".cc"]},{"name":{"common":"Colombia","official":"Republic of Colombia","native":"Colombia"},"alpha2":"CO","alpha3":"COL","capital":"Bogot√°","continent":"Americas","currencies":[{"name":"Colombian Peso","code":"COP"}],"dialingCodes":[57],"emoji":"üá®üá¥","flag":"https://commons.wikimedia.org/wiki/Special:FilePath/Flag_of_Colombia.svg","geo":{"latitude":4,"longitude":-72,"area":1141748},"languages":{"primaryLanguage":{"code":"es","name":"Spanish","native_name":"Espa√±ol"},"spokenLanguages":[{"code":"es","name":"Spanish","native_name":"Espa√±ol"}]},"locale":{"default":"es-CO","locales":["es-CO"]},"numeric":"170","region":"South America","tld":[".co"]},{"name":{"common":"Comoros","official":"Union of the Comoros","native":"Komori"},"alpha2":"KM","alpha3":"COM","capital":"Moroni","continent":"Africa","currencies":[{"name":"Comorian Franc","code":"KMF"}],"dialingCodes":[269],"emoji":"üá∞üá≤","flag":"https://commons.wikimedia.org/wiki/Special:FilePath/Flag_of_the_Comoros.svg","geo":{"latitude":-12.16666666,"longitude":44.25,"area":1862},"languages":{"primaryLanguage":{"code":"ar","name":"Arabic","native_name":"ÿßŸÑÿπÿ±ÿ®Ÿäÿ©"},"spokenLanguages":[{"code":"ar","name":"Arabic","native_name":"ÿßŸÑÿπÿ±ÿ®Ÿäÿ©"},{"code":"fr","name":"French","native_name":"fran√ßais"}]},"locale":{"default":"ar-KM","locales":["ar-KM","fr-KM"]},"numeric":"174","region":"Indian Ocean","tld":[".km"]},{"name":{"common":"DR Congo","official":"Democratic Republic of the Congo","native":"R√©publique d√©mocratique du Congo"},"alpha2":"CD","alpha3":"COD","capital":"Kinshasa","continent":"Africa","currencies":[{"name":"Congolese Franc","code":"CDF"}],"dialingCodes":[243],"emoji":"üá®üá©","flag":"https://commons.wikimedia.org/wiki/Special:FilePath/Flag_of_the_Democratic_Republic_of_the_Congo.svg","geo":{"latitude":0,"longitude":25,"area":2344858},"languages":{"primaryLanguage":{"code":"fr","name":"French","native_name":"fran√ßais"},"spokenLanguages":[{"code":"fr","name":"French","native_name":"fran√ßais"},{"code":"ln","name":"Lingala","native_name":"Ling√°la"},{"code":"kg","name":"Kongo","native_name":"Kikongo"},{"code":"sw","name":"Swahili","native_name":"Kiswahili"},{"code":"lu","name":"Luba-Katanga","native_name":"Tshiluba"}]},"locale":{"default":"fr-CD","locales":["fr-CD","ln-CD","kg-CD","sw-CD","lu-CD"]},"numeric":"180","region":"Central Africa","tld":[".cd"]},{"name":{"common":"Republic of the Congo","official":"Republic of the Congo","native":"R√©publique du Congo"},"alpha2":"CG","alpha3":"COG","capital":"Brazzaville","continent":"Africa","currencies":[{"name":"Central African CFA Franc","code":"XAF"}],"dialingCodes":[242],"emoji":"üá®üá¨","flag":"https://commons.wikimedia.org/wiki/Special:FilePath/Flag_of_the_Republic_of_the_Congo.svg","geo":{"latitude":-1,"longitude":15,"area":342000},"languages":{"primaryLanguage":{"code":"fr","name":"French","native_name":"fran√ßais"},"spokenLanguages":[{"code":"fr","name":"French","native_name":"fran√ßais"},{"code":"ln","name":"Lingala","native_name":"Ling√°la"}]},"locale":{"default":"fr-CG","locales":["fr-CG","ln-CG"]},"numeric":"178","region":"Central Africa","tld":[".cg"]},{"name":{"common":"Cook Islands","official":"Cook Islands","native":"Cook Islands"},"alpha2":"CK","alpha3":"COK","capital":"Avarua","continent":"Oceania","currencies":[{"name":"Cook Islands Dollar","code":"CKD"},{"name":"New Zealand Dollar","code":"NZD"}],"dialingCodes":[682],"emoji":"üá®üá∞","flag":"https://commons.wikimedia.org/wiki/Special:FilePath/Flag_of_the_Cook_Islands.svg","geo":{"latitude":-21.23333333,"longitude":-159.76666666,"area":236},"languages":{"primaryLanguage":{"code":"en","name":"English","native_name":"English"},"spokenLanguages":[{"code":"en","name":"English","native_name":"English"},{"name":"Cook Islands MƒÅori","native_name":"MƒÅori"}]},"locale":{"default":"en-CK","locales":["en-CK"]},"numeric":"184","region":"Pacific","tld":[".ck"]},{"name":{"common":"Costa Rica","official":"Republic of Costa Rica","native":"Costa Rica"},"alpha2":"CR","alpha3":"CRI","capital":"San Jos√©","continent":"Americas","currencies":[{"name":"Costa Rican Col√≥n","code":"CRC"}],"dialingCodes":[506],"emoji":"üá®üá∑","flag":"https://commons.wikimedia.org/wiki/Special:FilePath/Flag_of_Costa_Rica.svg","geo":{"latitude":10,"longitude":-84,"area":51100},"languages":{"primaryLanguage":{"code":"es","name":"Spanish","native_name":"Espa√±ol"},"spokenLanguages":[{"code":"es","name":"Spanish","native_name":"Espa√±ol"}]},"locale":{"default":"es-CR","locales":["es-CR"]},"numeric":"188","region":"Central America","tld":[".cr"]},{"name":{"common":"Croatia","official":"Republic of Croatia","native":"Hrvatska"},"alpha2":"HR","alpha3":"HRV","capital":"Zagreb","continent":"Europe","currencies":[{"name":"Euro","code":"EUR"}],"dialingCodes":[385],"emoji":"üá≠üá∑","flag":"https://commons.wikimedia.org/wiki/Special:FilePath/Flag_of_Croatia.svg","geo":{"latitude":45.16666666,"longitude":15.5,"area":56594},"languages":{"primaryLanguage":{"code":"hr","name":"Croatian","native_name":"hrvatski jezik"},"spokenLanguages":[{"code":"hr","name":"Croatian","native_name":"hrvatski jezik"}]},"locale":{"default":"hr-HR","locales":["hr-HR"]},"numeric":"191","region":"South East Europe","tld":[".hr"]},{"name":{"common":"Cuba","official":"Republic of Cuba","native":"Cuba"},"alpha2":"CU","alpha3":"CUB","capital":"Havana","continent":"Americas","currencies":[{"name":"Cuban Convertible Peso","code":"CUC"},{"name":"Cuban Peso","code":"CUP"}],"dialingCodes":[53],"emoji":" üá®üá∫","flag":"https://commons.wikimedia.org/wiki/Special:FilePath/Flag_of_Cuba.svg","geo":{"latitude":21.5,"longitude":-80,"area":109884},"languages":{"primaryLanguage":{"code":"es","name":"Spanish","native_name":"Espa√±ol"},"spokenLanguages":[{"code":"es","name":"Spanish","native_name":"Espa√±ol"}]},"locale":{"default":"es-CU","locales":["es-CU"]},"numeric":"192","region":"West Indies","tld":[".cu"]},{"name":{"common":"Cura√ßao","official":"Country of Cura√ßao","native":"Cura√ßao"},"alpha2":"CW","alpha3":"CUW","capital":"Willemstad","continent":"Americas","currencies":[{"name":"Netherlands Antillean Guilder","code":"ANG"}],"dialingCodes":[5999],"emoji":"üá®üáº","flag":"https://commons.wikimedia.org/wiki/Special:FilePath/Flag_of_Cura%C3%A7ao.svg","geo":{"latitude":12.116667,"longitude":-68.933333,"area":444},"languages":{"primaryLanguage":{"code":"nl","name":"Dutch","native_name":"Nederlands"},"spokenLanguages":[{"code":"nl","name":"Dutch","native_name":"Nederlands"},{"code":"pa","name":"Punjabi","native_name":"‡®™‡©∞‡®ú‡®æ‡®¨‡©Ä"},{"code":"en","name":"English","native_name":"English"}]},"locale":{"default":"en-CW","locales":["nl-CW","pa-CW","en-CW"]},"numeric":"531","region":"West Indies","tld":[".cw"]},{"name":{"common":"Cyprus","official":"Republic of Cyprus","native":"ŒöœçœÄœÅŒøœÇ"},"alpha2":"CY","alpha3":"CYP","capital":"Nicosia","continent":"Asia","currencies":[{"name":"Euro","code":"EUR"}],"dialingCodes":[357],"emoji":"üá®üáæ","flag":"https://commons.wikimedia.org/wiki/Special:FilePath/Flag_of_Cyprus.svg","geo":{"latitude":35,"longitude":33,"area":9251},"languages":{"primaryLanguage":{"code":"el","name":"Greek","native_name":"ŒµŒªŒªŒ∑ŒΩŒπŒ∫Œ¨"},"spokenLanguages":[{"code":"el","name":"Greek","native_name":"ŒµŒªŒªŒ∑ŒΩŒπŒ∫Œ¨"},{"code":"tr","name":"Turkish","native_name":"T√ºrk√ße"},{"code":"hy","name":"Armenian","native_name":"’Ä’°’µ’•÷Ä’•’∂"}]},"locale":{"default":"el-CY","locales":["el-CY","tr-CY","hy-CY"]},"numeric":"196","region":"South West Asia","tld":[".cy"]},{"name":{"common":"Czechia","official":"Czech Republic","native":"ƒåesk√° republika"},"alpha2":"CZ","alpha3":"CZE","capital":"Prague","continent":"Europe","currencies":[{"name":"Czech Koruna","code":"CZK"}],"dialingCodes":[420],"emoji":"üá®üáø","flag":"https://commons.wikimedia.org/wiki/Special:FilePath/Flag_of_the_Czech_Republic.svg","geo":{"latitude":49.75,"longitude":15.5,"area":78865},"languages":{"primaryLanguage":{"code":"cs","name":"Czech","native_name":"ƒçe≈°tina"},"spokenLanguages":[{"code":"cs","name":"Czech","native_name":"ƒçe≈°tina"},{"code":"sk","name":"Slovak","native_name":"slovenƒçina"}]},"locale":{"default":"cs-CZ","locales":["cs-CZ","sk-CZ"]},"numeric":"203","region":"Central Europe","tld":[".cz"]},{"name":{"common":"Ivory Coast","official":"Republic of C√¥te d'Ivoire","native":"C√¥te d'Ivoire"},"alpha2":"CI","alpha3":"CIV","capital":"Yamoussoukro","continent":"Africa","currencies":[{"name":"West African CFA Franc","code":"XOF"}],"dialingCodes":[225],"emoji":"üá®üáÆ","flag":"https://commons.wikimedia.org/wiki/Special:FilePath/Flag_of_C%C3%B4te_d'Ivoire.svg","geo":{"latitude":8,"longitude":-5,"area":322463},"languages":{"primaryLanguage":{"code":"fr","name":"French","native_name":"fran√ßais"},"spokenLanguages":[{"code":"fr","name":"French","native_name":"fran√ßais"}]},"locale":{"default":"fr-CI","locales":["fr-CI"]},"numeric":"384","region":"Western Africa","tld":[".ci"]},{"name":{"common":"Denmark","official":"Kingdom of Denmark","native":"Danmark"},"alpha2":"DK","alpha3":"DNK","capital":"Copenhagen","continent":"Europe","currencies":[{"name":"Danish Krone","code":"DKK"}],"dialingCodes":[45],"emoji":"üá©üá∞","flag":"https://commons.wikimedia.org/wiki/Special:FilePath/Flag_of_Denmark.svg","geo":{"latitude":56,"longitude":10,"area":43094},"languages":{"primaryLanguage":{"code":"da","name":"Danish","native_name":"dansk"},"spokenLanguages":[{"code":"da","name":"Danish","native_name":"dansk"}]},"locale":{"default":"da-DK","locales":["da-DK"]},"numeric":"208","region":"Northern Europe","tld":[".dk"]},{"name":{"common":"Djibouti","official":"Republic of Djibouti","native":"Djibouti"},"alpha2":"DJ","alpha3":"DJI","capital":"Djibouti","continent":"Africa","currencies":[{"name":"Djiboutian Franc","code":"DJF"}],"dialingCodes":[253],"emoji":"üá©üáØ","flag":"https://commons.wikimedia.org/wiki/Special:FilePath/Flag_of_Djibouti.svg","geo":{"latitude":11.5,"longitude":43,"area":23200},"languages":{"primaryLanguage":{"code":"fr","name":"French","native_name":"fran√ßais"},"spokenLanguages":[{"code":"fr","name":"French","native_name":"fran√ßais"},{"code":"ar","name":"Arabic","native_name":"ÿßŸÑÿπÿ±ÿ®Ÿäÿ©"}]},"locale":{"default":"ar-DJ","locales":["fr-DJ","ar-DJ"]},"numeric":"262","region":"Eastern Africa","tld":[".dj"]},{"name":{"common":"Dominica","official":"Commonwealth of Dominica","native":"Dominica"},"alpha2":"DM","alpha3":"DMA","capital":"Roseau","continent":"Americas","currencies":[{"name":"Eastern Caribbean Dollar","code":"XCD"}],"dialingCodes":[1767],"emoji":"üá©üá≤","flag":"https://commons.wikimedia.org/wiki/Special:FilePath/Flag_of_Dominica.svg","geo":{"latitude":15.41666666,"longitude":-61.33333333,"area":751},"languages":{"primaryLanguage":{"code":"en","name":"English","native_name":"English"},"spokenLanguages":[{"code":"en","name":"English","native_name":"English"}]},"locale":{"default":"en-DM","locales":["en-DM"]},"numeric":"212","region":"West Indies","tld":[".dm"]},{"name":{"common":"Dominican Republic","official":"Dominican Republic","native":"Rep√∫blica Dominicana"},"alpha2":"DO","alpha3":"DOM","capital":"Santo Domingo","continent":"Americas","currencies":[{"name":"Dominican Peso","code":"DOP"}],"dialingCodes":[1809,1829,1849],"emoji":"üá©üá¥","flag":"https://commons.wikimedia.org/wiki/Special:FilePath/Flag_of_the_Dominican_Republic.svg","geo":{"latitude":19,"longitude":-70.66666666,"area":48671},"languages":{"primaryLanguage":{"code":"es","name":"Spanish","native_name":"Espa√±ol"},"spokenLanguages":[{"code":"es","name":"Spanish","native_name":"Espa√±ol"}]},"locale":{"default":"es-DO","locales":["es-DO"]},"numeric":"214","region":"West Indies","tld":[".do"]},{"name":{"common":"Ecuador","official":"Republic of Ecuador","native":"Ecuador"},"alpha2":"EC","alpha3":"ECU","capital":"Quito","continent":"Americas","currencies":[{"name":"United States Dollar","code":"USD"}],"dialingCodes":[593],"emoji":"üá™üá®","flag":"https://commons.wikimedia.org/wiki/Special:FilePath/Flag_of_Ecuador.svg","geo":{"latitude":-2,"longitude":-77.5,"area":276841},"languages":{"primaryLanguage":{"code":"es","name":"Spanish","native_name":"Espa√±ol"},"spokenLanguages":[{"code":"es","name":"Spanish","native_name":"Espa√±ol"}]},"locale":{"default":"es-EC","locales":["es-EC"]},"numeric":"218","region":"South America","tld":[".ec"]},{"name":{"common":"Egypt","official":"Arab Republic of Egypt","native":"ŸÖÿµÿ±‚Äé"},"alpha2":"EG","alpha3":"EGY","capital":"Cairo","continent":"Africa","currencies":[{"name":"Egyptian Pound","code":"EGP"}],"dialingCodes":[20],"emoji":"üá™üá¨","flag":"https://commons.wikimedia.org/wiki/Special:FilePath/Flag_of_Egypt.svg","geo":{"latitude":27,"longitude":30,"area":1002450},"languages":{"primaryLanguage":{"code":"ar","name":"Arabic","native_name":"ÿßŸÑÿπÿ±ÿ®Ÿäÿ©"},"spokenLanguages":[{"code":"ar","name":"Arabic","native_name":"ÿßŸÑÿπÿ±ÿ®Ÿäÿ©"}]},"locale":{"default":"ar-EG","locales":["ar-EG"]},"numeric":"818","region":"Northern Africa","tld":[".eg",".ŸÖÿµÿ±"]},{"name":{"common":"El Salvador","official":"Republic of El Salvador","native":"El Salvador"},"alpha2":"SV","alpha3":"SLV","capital":"San Salvador","continent":"Americas","currencies":[{"name":"United States Dollar","code":"USD"}],"dialingCodes":[503],"emoji":"üá∏üáª","flag":"https://commons.wikimedia.org/wiki/Special:FilePath/Flag_of_El_Salvador.svg","geo":{"latitude":13.83333333,"longitude":-88.91666666,"area":21041},"languages":{"primaryLanguage":{"code":"es","name":"Spanish","native_name":"Espa√±ol"},"spokenLanguages":[{"code":"es","name":"Spanish","native_name":"Espa√±ol"}]},"locale":{"default":"es-SV","locales":["es-SV"]},"numeric":"222","region":"Central America","tld":[".sv"]},{"name":{"common":"Equatorial Guinea","official":"Republic of Equatorial Guinea","native":"Guinea Ecuatorial"},"alpha2":"GQ","alpha3":"GNQ","capital":"Malabo","continent":"Africa","currencies":[{"name":"Central African CFA Franc","code":"XAF"}],"dialingCodes":[240],"emoji":"üá¨üá∂","flag":"https://commons.wikimedia.org/wiki/Special:FilePath/Flag_of_Equatorial_Guinea.svg","geo":{"latitude":2,"longitude":10,"area":28051},"languages":{"primaryLanguage":{"code":"es","name":"Spanish","native_name":"Espa√±ol"},"spokenLanguages":[{"code":"es","name":"Spanish","native_name":"Espa√±ol"},{"code":"fr","name":"French","native_name":"fran√ßais"},{"code":"pt","name":"Portuguese","native_name":"Portugu√™s"},{"name":"Fang","native_name":"Fang"}]},"locale":{"default":"fan-GQ","locales":["es-GQ","fr-GQ","pt-GQ"]},"numeric":"226","region":"Western Africa","tld":[".gq"]},{"name":{"common":"Eritrea","official":"State of Eritrea","native":"·ä§·à≠·âµ·à´"},"alpha2":"ER","alpha3":"ERI","capital":"Asmara","continent":"Africa","currencies":[{"name":"Eritrean Nakfa","code":"ERN"}],"dialingCodes":[291],"emoji":"üá™üá∑","flag":"https://commons.wikimedia.org/wiki/Special:FilePath/Flag_of_Eritrea.svg","geo":{"latitude":15,"longitude":39,"area":117600},"languages":{"primaryLanguage":{"code":"ti","name":"Tigrinya","native_name":"·âµ·åç·à≠·äõ"},"spokenLanguages":[{"code":"ti","name":"Tigrinya","native_name":"·âµ·åç·à≠·äõ"},{"code":"ar","name":"Arabic","native_name":"ÿßŸÑÿπÿ±ÿ®Ÿäÿ©"},{"code":"en","name":"English","native_name":"English"},{"name":"Tigre","native_name":"·âµ·åç·à®"},{"name":"Kunama","native_name":"Kunama"},{"name":"Saho","native_name":"Saho"},{"name":"Bilen","native_name":"·â•·àä·äì"},{"name":"Nara","native_name":"Nara"},{"code":"aa","name":"Afar","native_name":"Afar"}]},"locale":{"default":"aa-ER","locales":["ti-ER","ar-ER","en-ER","aa-ER"]},"numeric":"232","region":"Eastern Africa","tld":[".er"]},{"name":{"common":"Estonia","official":"Republic of Estonia","native":"Eesti"},"alpha2":"EE","alpha3":"EST","capital":"Tallinn","continent":"Europe","currencies":[{"name":"Euro","code":"EUR"}],"dialingCodes":[372],"emoji":"üá™üá™","flag":"https://commons.wikimedia.org/wiki/Special:FilePath/Flag_of_Estonia.svg","geo":{"latitude":59,"longitude":26,"area":45227},"languages":{"primaryLanguage":{"code":"et","name":"Estonian","native_name":"eesti"},"spokenLanguages":[{"code":"et","name":"Estonian","native_name":"eesti"}]},"locale":{"default":"et-EE","locales":["et-EE"]},"numeric":"233","region":"Eastern Europe","tld":[".ee"]},{"name":{"common":"Eswatini","official":"Kingdom of Eswatini","native":"Eswatini"},"alpha2":"SZ","alpha3":"SWZ","capital":"Lobamba","continent":"Africa","currencies":[{"name":"Swazi Lilangeni","code":"SZL"},{"name":"South African Rand","code":"ZAR"}],"dialingCodes":[268],"emoji":"üá∏üáø","flag":"https://commons.wikimedia.org/wiki/Special:FilePath/Flag_of_Eswatini.svg","geo":{"latitude":-26.5,"longitude":31.5,"area":17364},"languages":{"primaryLanguage":{"code":"en","name":"English","native_name":"English"},"spokenLanguages":[{"code":"en","name":"English","native_name":"English"},{"code":"ss","name":"Swati","native_name":"SiSwati"}]},"locale":{"default":"en-SZ","locales":["en-SZ","ss-SZ"]},"numeric":"748","region":"Southern Africa","tld":[".sz"]},{"name":{"common":"Ethiopia","official":"Federal Democratic Republic of Ethiopia","native":"·ä¢·âµ·ãÆ·åµ·ã´"},"alpha2":"ET","alpha3":"ETH","capital":"Addis Ababa","continent":"Africa","currencies":[{"name":"Ethiopian Birr","code":"ETB"}],"dialingCodes":[251],"emoji":"üá™üáπ","flag":"https://commons.wikimedia.org/wiki/Special:FilePath/Flag_of_Ethiopia.svg","geo":{"latitude":8,"longitude":38,"area":1104300},"languages":{"primaryLanguage":{"code":"am","name":"Amharic","native_name":"·ä†·àõ·à≠·äõ"},"spokenLanguages":[{"code":"am","name":"Amharic","native_name":"·ä†·àõ·à≠·äõ"}]},"locale":{"default":"am-ET","locales":["am-ET"]},"numeric":"231","region":"Eastern Africa","tld":[".et"]},{"name":{"common":"Falkland Islands","official":"Falkland Islands","native":"Falkland Islands"},"alpha2":"FK","alpha3":"FLK","capital":"Stanley","continent":"Americas","currencies":[{"name":"Falkland Islands Pound","code":"FKP"}],"dialingCodes":[500],"emoji":"üá´üá∞","flag":"https://commons.wikimedia.org/wiki/Special:FilePath/Flag_of_the_Falkland_Islands.svg","geo":{"latitude":-51.75,"longitude":-59,"area":12173},"languages":{"primaryLanguage":{"code":"en","name":"English","native_name":"English"},"spokenLanguages":[{"code":"en","name":"English","native_name":"English"}]},"locale":{"default":"en-FK","locales":["en-FK"]},"numeric":"238","region":"South America","tld":[".fk"]},{"name":{"common":"Faroe Islands","official":"Faroe Islands","native":"F√∏royar"},"alpha2":"FO","alpha3":"FRO","capital":"T√≥rshavn","continent":"Europe","currencies":[{"name":"Danish Krone","code":"DKK"},{"name":"Faroese Kr√≥na","code":"FOK"}],"dialingCodes":[298],"emoji":"üá´üá¥","flag":"https://commons.wikimedia.org/wiki/Special:FilePath/Flag_of_the_Faroe_Islands.svg","geo":{"latitude":62,"longitude":-7,"area":1393},"languages":{"primaryLanguage":{"code":"fo","name":"Faroese","native_name":"f√∏royskt"},"spokenLanguages":[{"code":"fo","name":"Faroese","native_name":"f√∏royskt"}]},"locale":{"default":"fo-FO","locales":["fo-FO"]},"numeric":"234","region":"Northern Europe","tld":[".fo"]},{"name":{"common":"Fiji","official":"Republic of Fiji","native":"Fiji"},"alpha2":"FJ","alpha3":"FJI","capital":"Suva","continent":"Oceania","currencies":[{"name":"Fijian Dollar","code":"FJD"}],"dialingCodes":[679],"emoji":"üá´üáØ","flag":"https://commons.wikimedia.org/wiki/Special:FilePath/Flag_of_Fiji.svg","geo":{"latitude":-18,"longitude":175,"area":18272},"languages":{"primaryLanguage":{"code":"en","name":"English","native_name":"English"},"spokenLanguages":[{"code":"en","name":"English","native_name":"English"},{"code":"fj","name":"Fijian","native_name":"vosa Vakaviti"},{"name":"Fiji Hindi","native_name":"‡§´‡§º‡§ø‡§ú‡•Ä ‡§¨‡§æ‡§§"},{"name":"Rotuman","native_name":"F√§eag Rotuma"}]},"locale":{"default":"en-FJ","locales":["en-FJ","fj-FJ"]},"numeric":"242","region":"Pacific","tld":[".fj"]},{"name":{"common":"Finland","official":"Republic of Finland","native":"Suomi"},"alpha2":"FI","alpha3":"FIN","capital":"Helsinki","continent":"Europe","currencies":[{"name":"Euro","code":"EUR"}],"dialingCodes":[358],"emoji":"üá´üáÆ","flag":"https://commons.wikimedia.org/wiki/Special:FilePath/Flag_of_Finland.svg","geo":{"latitude":64,"longitude":26,"area":338424},"languages":{"primaryLanguage":{"code":"fi","name":"Finnish","native_name":"suomi"},"spokenLanguages":[{"code":"fi","name":"Finnish","native_name":"suomi"},{"code":"sv","name":"Swedish","native_name":"svenska"}]},"locale":{"default":"fi-FI","locales":["fi-FI","sv-FI"]},"numeric":"246","region":"Northern Europe","tld":[".fi"]},{"name":{"common":"France","official":"French Republic","native":"France"},"alpha2":"FR","alpha3":"FRA","capital":"Paris","continent":"Europe","currencies":[{"name":"Euro","code":"EUR"}],"dialingCodes":[33],"emoji":"üá´üá∑","flag":"https://commons.wikimedia.org/wiki/Special:FilePath/Flag_of_France.svg","geo":{"latitude":46,"longitude":2,"area":551695},"languages":{"primaryLanguage":{"code":"fr","name":"French","native_name":"fran√ßais"},"spokenLanguages":[{"code":"fr","name":"French","native_name":"fran√ßais"}]},"locale":{"default":"fr-FR","locales":["fr-FR"]},"numeric":"250","region":"Western Europe","tld":[".fr"]},{"name":{"common":"French Guiana","official":"Guiana","native":"Guyane fran√ßaise"},"alpha2":"GF","alpha3":"GUF","capital":"Cayenne","continent":"Americas","currencies":[{"name":"Euro","code":"EUR"}],"dialingCodes":[594],"emoji":"üá¨üá´","flag":"https://commons.wikimedia.org/wiki/Special:FilePath/Flag_of_French_Guiana.svg","geo":{"latitude":4,"longitude":-53,"area":83534},"languages":{"primaryLanguage":{"code":"fr","name":"French","native_name":"fran√ßais"},"spokenLanguages":[{"code":"fr","name":"French","native_name":"fran√ßais"}]},"locale":{"default":"fr-GF","locales":["fr-GF"]},"numeric":"254","region":"South America","tld":[".gf"]},{"name":{"common":"French Polynesia","official":"French Polynesia","native":"Polyn√©sie fran√ßaise"},"alpha2":"PF","alpha3":"PYF","capital":"Papeetƒì","continent":"Oceania","currencies":[{"name":"CFP Franc","code":"XPF"}],"dialingCodes":[689],"emoji":"üáµüá´","flag":"https://commons.wikimedia.org/wiki/Special:FilePath/Flag_of_French_Polynesia.svg","geo":{"latitude":-15,"longitude":-140,"area":4167},"languages":{"primaryLanguage":{"code":"fr","name":"French","native_name":"fran√ßais"},"spokenLanguages":[{"code":"fr","name":"French","native_name":"fran√ßais"}]},"locale":{"default":"fr-PF","locales":["fr-PF"]},"numeric":"258","region":"Pacific","tld":[".pf"]},{"name":{"common":"French Southern and Antarctic Lands","official":"Territory of the French Southern and Antarctic Lands","native":"Territoire des Terres australes et antarctiques fr"},"alpha2":"TF","alpha3":"ATF","capital":"Port-aux-Fran√ßais","continent":"Indian Ocean","currencies":[{"name":"Euro","code":"EUR"}],"dialingCodes":[262],"emoji":"üáπüá´","flag":"https://commons.wikimedia.org/wiki/Special:FilePath/Flag_of_the_French_Southern_and_Antarctic_Lands.svg","geo":{"latitude":-49.25,"longitude":69.167,"area":7747},"languages":{"primaryLanguage":{"code":"fr","name":"French","native_name":"fran√ßais"},"spokenLanguages":[{"code":"fr","name":"French","native_name":"fran√ßais"}]},"locale":{"default":"fr-TF","locales":["fr-TF"]},"numeric":"260","region":"Southern Indian Ocean","tld":[".tf"]},{"name":{"common":"Gabon","official":"Gabonese Republic","native":"Gabon"},"alpha2":"GA","alpha3":"GAB","capital":"Libreville","continent":"Africa","currencies":[{"name":"Central African CFA Franc","code":"XAF"}],"dialingCodes":[241],"emoji":"üá¨üá¶","flag":"https://commons.wikimedia.org/wiki/Special:FilePath/Flag_of_Gabon.svg","geo":{"latitude":-1,"longitude":11.75,"area":267668},"languages":{"primaryLanguage":{"code":"fr","name":"French","native_name":"fran√ßais"},"spokenLanguages":[{"code":"fr","name":"French","native_name":"fran√ßais"}]},"locale":{"default":"fr-GA","locales":["fr-GA"]},"numeric":"266","region":"Western Africa","tld":[".ga"]},{"name":{"common":"Gambia","official":"Republic of the Gambia","native":"Gambia"},"alpha2":"GM","alpha3":"GMB","capital":"Banjul","continent":"Africa","currencies":[{"name":"Dalasi","code":"GMD"}],"dialingCodes":[220],"emoji":"üá¨üá≤","flag":"https://commons.wikimedia.org/wiki/Special:FilePath/Flag_of_The_Gambia.svg","geo":{"latitude":13.46666666,"longitude":-16.56666666,"area":10689},"languages":{"primaryLanguage":{"code":"en","name":"English","native_name":"English"},"spokenLanguages":[{"code":"en","name":"English","native_name":"English"}]},"locale":{"default":"en-GM","locales":["en-GM"]},"numeric":"270","region":"Western Africa","tld":[".gm"]},{"name":{"common":"Georgia","official":"Georgia","native":"·É°·Éê·É•·Éê·É†·Éó·Éï·Éî·Éö·Éù"},"alpha2":"GE","alpha3":"GEO","capital":"Tbilisi","continent":"Asia","currencies":[{"name":"Lari","code":"GEL"}],"dialingCodes":[995],"emoji":"üá¨üá™","flag":"https://commons.wikimedia.org/wiki/Special:FilePath/Flag_of_Georgia.svg","geo":{"latitude":42,"longitude":43.5,"area":69700},"languages":{"primaryLanguage":{"code":"ka","name":"Georgian","native_name":"·É•·Éê·É†·Éó·É£·Éö·Éò"},"spokenLanguages":[{"code":"ka","name":"Georgian","native_name":"·É•·Éê·É†·Éó·É£·Éö·Éò"}]},"locale":{"default":"ka-GE","locales":["ka-GE"]},"numeric":"268","region":"South West Asia","tld":[".ge"]},{"name":{"common":"Germany","official":"Federal Republic of Germany","native":"Deutschland"},"alpha2":"DE","alpha3":"DEU","capital":"Berlin","continent":"Europe","currencies":[{"name":"Euro","code":"EUR"}],"dialingCodes":[49],"emoji":"üá©üá™","flag":"https://commons.wikimedia.org/wiki/Special:FilePath/Flag_of_Germany.svg","geo":{"latitude":51,"longitude":9,"area":357114},"languages":{"primaryLanguage":{"code":"de","name":"German","native_name":"Deutsch"},"spokenLanguages":[{"code":"de","name":"German","native_name":"Deutsch"}]},"locale":{"default":"de-DE","locales":["de-DE"]},"numeric":"276","region":"Western Europe","tld":[".de"]},{"name":{"common":"Ghana","official":"Republic of Ghana","native":"Ghana"},"alpha2":"GH","alpha3":"GHA","capital":"Accra","continent":"Africa","currencies":[{"name":"Ghanaian Cedi","code":"GHS"}],"dialingCodes":[233],"emoji":"üá¨üá≠","flag":"https://commons.wikimedia.org/wiki/Special:FilePath/Flag_of_Ghana.svg","geo":{"latitude":8,"longitude":-2,"area":238533},"languages":{"primaryLanguage":{"code":"en","name":"English","native_name":"English"},"spokenLanguages":[{"code":"en","name":"English","native_name":"English"}]},"locale":{"default":"en-GH","locales":["en-GH"]},"numeric":"288","region":"Western Africa","tld":[".gh"]},{"name":{"common":"Gibraltar","official":"Gibraltar","native":"Gibraltar"},"alpha2":"GI","alpha3":"GIB","capital":"Gibraltar","continent":"Europe","currencies":[{"name":"Gibraltar Pound","code":"GIP"}],"dialingCodes":[350],"emoji":"üá¨üáÆ","flag":"https://commons.wikimedia.org/wiki/Special:FilePath/Flag_of_Gibraltar.svg","geo":{"latitude":36.13333333,"longitude":-5.35,"area":6},"languages":{"primaryLanguage":{"code":"en","name":"English","native_name":"English"},"spokenLanguages":[{"code":"en","name":"English","native_name":"English"}]},"locale":{"default":"en-GI","locales":["en-GI"]},"numeric":"292","region":"South West Europe","tld":[".gi"]},{"name":{"common":"Greece","official":"Hellenic Republic","native":"ŒïŒªŒªŒ¨Œ¥Œ±"},"alpha2":"GR","alpha3":"GRC","capital":"Athens","continent":"Europe","currencies":[{"name":"Euro","code":"EUR"}],"dialingCodes":[30],"emoji":"üá¨üá∑","flag":"https://commons.wikimedia.org/wiki/Special:FilePath/Flag_of_Greece.svg","geo":{"latitude":39,"longitude":22,"area":131990},"languages":{"primaryLanguage":{"code":"el","name":"Greek","native_name":"ŒµŒªŒªŒ∑ŒΩŒπŒ∫Œ¨"},"spokenLanguages":[{"code":"el","name":"Greek","native_name":"ŒµŒªŒªŒ∑ŒΩŒπŒ∫Œ¨"}]},"locale":{"default":"el-GR","locales":["el-GR"]},"numeric":"300","region":"South East Europe","tld":[".gr"]},{"name":{"common":"Greenland","official":"Greenland","native":"Kalaallit Nunaat"},"alpha2":"GL","alpha3":"GRL","capital":"Nuuk","continent":"Americas","currencies":[{"name":"Krone","code":"DKK"}],"dialingCodes":[299],"emoji":"üá¨üá±","flag":"https://commons.wikimedia.org/wiki/Special:FilePath/Flag_of_Greenland.svg","geo":{"latitude":72,"longitude":-40,"area":2166086},"languages":{"primaryLanguage":{"code":"kl","name":"Greenlandic","native_name":"kalaallisut"},"spokenLanguages":[{"code":"kl","name":"Greenlandic","native_name":"kalaallisut"}]},"locale":{"default":"kl-GL","locales":["kl-GL"]},"numeric":"304","region":"North America","tld":[".gl"]},{"name":{"common":"Grenada","official":"Grenada","native":"Grenada"},"alpha2":"GD","alpha3":"GRD","capital":"St. George's","continent":"Americas","currencies":[{"name":"Eastern Caribbean Dollar","code":"XCD"}],"dialingCodes":[1473],"emoji":"üá¨üá©","flag":"https://commons.wikimedia.org/wiki/Special:FilePath/Flag_of_Grenada.svg","geo":{"latitude":12.11666666,"longitude":-61.66666666,"area":344},"languages":{"primaryLanguage":{"code":"en","name":"English","native_name":"English"},"spokenLanguages":[{"code":"en","name":"English","native_name":"English"}]},"locale":{"default":"en-GD","locales":["en-GD"]},"numeric":"308","region":"West Indies","tld":[".gd"]},{"name":{"common":"Guadeloupe","official":"Guadeloupe","native":"Guadeloupe"},"alpha2":"GP","alpha3":"GLP","capital":"Basse-Terre","continent":"Americas","currencies":[{"name":"Euro","code":"EUR"}],"dialingCodes":[590],"emoji":"üá¨üáµ","flag":"https://commons.wikimedia.org/wiki/Special:FilePath/Flag_of_Guadeloupe_(local).svg","geo":{"latitude":16.25,"longitude":-61.583333,"area":1628},"languages":{"primaryLanguage":{"code":"fr","name":"French","native_name":"fran√ßais"},"spokenLanguages":[{"code":"fr","name":"French","native_name":"fran√ßais"}]},"locale":{"default":"fr-GP","locales":["fr-GP"]},"numeric":"312","region":"West Indies","tld":[".gp"]},{"name":{"common":"Guam","official":"Guam","native":"Guam"},"alpha2":"GU","alpha3":"GUM","capital":"Hag√•t√±a","continent":"Oceania","currencies":[{"name":"United States Dollar","code":"USD"}],"dialingCodes":[1671],"emoji":"üá¨üá∫","flag":"https://commons.wikimedia.org/wiki/Special:FilePath/Flag_of_Guam.svg","geo":{"latitude":13.46666666,"longitude":144.78333333,"area":549},"languages":{"primaryLanguage":{"code":"en","name":"English","native_name":"English"},"spokenLanguages":[{"code":"en","name":"English","native_name":"English"},{"code":"ch","name":"Chamorro","native_name":"Chamoru"},{"code":"es","name":"Spanish","native_name":"Espa√±ol"}]},"locale":{"default":"ch-GU","locales":["en-GU","ch-GU","es-GU"]},"numeric":"316","region":"Pacific","tld":[".gu"]},{"name":{"common":"Guatemala","official":"Republic of Guatemala","native":"Guatemala"},"alpha2":"GT","alpha3":"GTM","capital":"Guatemala City","continent":"Americas","currencies":[{"name":"Guatemalan Quetzal","code":"GTQ"}],"dialingCodes":[502],"emoji":"üá¨üáπ","flag":"https://commons.wikimedia.org/wiki/Special:FilePath/Flag_of_Guatemala.svg","geo":{"latitude":15.5,"longitude":-90.25,"area":108889},"languages":{"primaryLanguage":{"code":"es","name":"Spanish","native_name":"Espa√±ol"},"spokenLanguages":[{"code":"es","name":"Spanish","native_name":"Espa√±ol"}]},"locale":{"default":"es-GT","locales":["es-GT"]},"numeric":"320","region":"Central America","tld":[".gt"]},{"name":{"common":"Guernsey","official":"Bailiwick of Guernsey","native":"Guernsey"},"alpha2":"GG","alpha3":"GGY","capital":"St. Peter Port","continent":"Europe","currencies":[{"name":"British Pound","code":"GBP"},{"name":"Guernsey Pound","code":"GGP"}],"dialingCodes":[44],"emoji":"üá¨üá¨","flag":"https://commons.wikimedia.org/wiki/Special:FilePath/Flag_of_Guernsey.svg","geo":{"latitude":49.46666666,"longitude":-2.58333333,"area":78},"languages":{"primaryLanguage":{"code":"en","name":"English","native_name":"English"},"spokenLanguages":[{"code":"en","name":"English","native_name":"English"},{"code":"fr","name":"French","native_name":"fran√ßais"}]},"locale":{"default":"en-GG","locales":["en-GG","fr-GG"]},"numeric":"831","region":"Western Europe","tld":[".gg"]},{"name":{"common":"Guinea","official":"Republic of Guinea","native":"Guin√©e"},"alpha2":"GN","alpha3":"GIN","capital":"Conakry","continent":"Africa","currencies":[{"name":"Guinean Franc","code":"GNF"}],"dialingCodes":[224],"emoji":"üá¨üá≥","flag":"https://commons.wikimedia.org/wiki/Special:FilePath/Flag_of_Guinea.svg","geo":{"latitude":11,"longitude":-10,"area":245857},"languages":{"primaryLanguage":{"code":"fr","name":"French","native_name":"fran√ßais"},"spokenLanguages":[{"code":"fr","name":"French","native_name":"fran√ßais"},{"code":"ff","name":"Fula","native_name":"Fulfulde"}]},"locale":{"default":"fr-GN","locales":["fr-GN","ff-GN"]},"numeric":"324","region":"Western Africa","tld":[".gn"]},{"name":{"common":"Guinea-Bissau","official":"Republic of Guinea-Bissau","native":"Guin√©-Bissau"},"alpha2":"GW","alpha3":"GNB","capital":"Bissau","continent":"Africa","currencies":[{"name":"West African CFA Franc","code":"XOF"}],"dialingCodes":[245],"emoji":"üá¨üáº","flag":"https://commons.wikimedia.org/wiki/Special:FilePath/Flag_of_Guinea-Bissau.svg","geo":{"latitude":12,"longitude":-15,"area":36125},"languages":{"primaryLanguage":{"code":"pt","name":"Portuguese","native_name":"Portugu√™s"},"spokenLanguages":[{"code":"pt","name":"Portuguese","native_name":"Portugu√™s"}]},"locale":{"default":"pt-GW","locales":["pt-GW"]},"numeric":"624","region":"Western Africa","tld":[".gw"]},{"name":{"common":"Guyana","official":"Co-operative Republic of Guyana","native":"Guyana"},"alpha2":"GY","alpha3":"GUY","capital":"Georgetown","continent":"Americas","currencies":[{"name":"Guyanese Dollar","code":"GYD"}],"dialingCodes":[592],"emoji":"üá¨üáæ","flag":"https://commons.wikimedia.org/wiki/Special:FilePath/Flag_of_Guyana.svg","geo":{"latitude":5,"longitude":-59,"area":214969},"languages":{"primaryLanguage":{"code":"en","name":"English","native_name":"English"},"spokenLanguages":[{"code":"en","name":"English","native_name":"English"}]},"locale":{"default":"en-GY","locales":["en-GY"]},"numeric":"328","region":"South America","tld":[".gy"]},{"name":{"common":"Haiti","official":"Republic of Haiti","native":"Ha√Øti"},"alpha2":"HT","alpha3":"HTI","capital":"Port-au-Prince","continent":"Americas","currencies":[{"name":"Haitian Gourde","code":"HTG"}],"dialingCodes":[509],"emoji":"üá≠üáπ","flag":"https://commons.wikimedia.org/wiki/Special:FilePath/Flag_of_Haiti.svg","geo":{"latitude":19,"longitude":-72.41666666,"area":27750},"languages":{"primaryLanguage":{"code":"fr","name":"French","native_name":"fran√ßais"},"spokenLanguages":[{"code":"fr","name":"French","native_name":"fran√ßais"},{"code":"ht","name":"Haitian","native_name":"Krey√≤l ayisyen"}]},"locale":{"default":"fr-HT","locales":["fr-HT","ht-HT"]},"numeric":"332","region":"West Indies","tld":[".ht"]},{"name":{"common":"Heard Island and McDonald Islands","official":"Heard Island and McDonald Islands","native":"Heard Island and McDonald Islands"},"alpha2":"HM","alpha3":"HMD","capital":"","continent":"Indian Ocean","currencies":[],"dialingCodes":[61],"emoji":"üá≠üá≤","flag":"https://commons.wikimedia.org/wiki/Special:FilePath/Flag_of_Australia.svg","geo":{"latitude":-53.1,"longitude":72.51666666,"area":412},"languages":{"primaryLanguage":{"code":"en","name":"English","native_name":"English"},"spokenLanguages":[{"code":"en","name":"English","native_name":"English"}]},"locale":{"default":"en-HM","locales":["en-HM"]},"numeric":"334","region":"Southern Indian Ocean","tld":[".hm",".aq"]},{"name":{"common":"Vatican City","official":"Vatican City State","native":"Vaticano"},"alpha2":"VA","alpha3":"VAT","capital":"Vatican City","continent":"Europe","currencies":[{"name":"Euro","code":"EUR"}],"dialingCodes":[379],"emoji":"üáªüá¶","flag":"https://commons.wikimedia.org/wiki/Special:FilePath/Flag_of_the_Vatican_City.svg","geo":{"latitude":41.9,"longitude":12.45,"area":0.44},"languages":{"primaryLanguage":{"code":"la","name":"Latin","native_name":"latine"},"spokenLanguages":[{"code":"la","name":"Latin","native_name":"latine"},{"code":"it","name":"Italian","native_name":"Italiano"},{"code":"fr","name":"French","native_name":"Fran√ßais"},{"code":"de","name":"German","native_name":"Deutsch"}]},"locale":{"default":"de-VA","locales":["la-VA","it-VA","fr-VA","de-VA"]},"numeric":"336","region":"Southern Europe","tld":[".va"]},{"name":{"common":"Honduras","official":"Republic of Honduras","native":"Honduras"},"alpha2":"HN","alpha3":"HND","capital":"Tegucigalpa","continent":"Americas","currencies":[{"name":"Honduran Lempira","code":"HNL"}],"dialingCodes":[504],"emoji":"üá≠üá≥","flag":"https://commons.wikimedia.org/wiki/Special:FilePath/Flag_of_Honduras.svg","geo":{"latitude":15,"longitude":-86.5,"area":112492},"languages":{"primaryLanguage":{"code":"es","name":"Spanish","native_name":"Espa√±ol"},"spokenLanguages":[{"code":"es","name":"Spanish","native_name":"Espa√±ol"}]},"locale":{"default":"es-HN","locales":["es-HN"]},"numeric":"340","region":"Central America","tld":[".hn"]},{"name":{"common":"Hong Kong","official":"Hong Kong Special Administrative Region of the People's Republic of China","native":"È¶ôÊ∏Ø"},"alpha2":"HK","alpha3":"HKG","capital":"City of Victoria","continent":"Asia","currencies":[{"name":"Hong Kong Dollar","code":"HKD"}],"dialingCodes":[852],"emoji":"üá≠üá∞","flag":"https://commons.wikimedia.org/wiki/Special:FilePath/Flag_of_Hong_Kong.svg","geo":{"latitude":22.267,"longitude":114.188,"area":1104},"languages":{"primaryLanguage":{"code":"en","name":"English","native_name":"English"},"spokenLanguages":[{"code":"en","name":"English","native_name":"English"},{"code":"zh","name":"Chinese","native_name":"‰∏≠Êñá (Zh≈çngw√©n)"}]},"locale":{"default":"en-HK","locales":["en-HK","zh-HK"]},"numeric":"344","region":"East Asia","tld":[".hk",".È¶ôÊ∏Ø"]},{"name":{"common":"Hungary","official":"Hungary","native":"Magyarorsz√°g"},"alpha2":"HU","alpha3":"HUN","capital":"Budapest","continent":"Europe","currencies":[{"name":"Hungarian Forint","code":"HUF"}],"dialingCodes":[36],"emoji":"üá≠üá∫","flag":"https://commons.wikimedia.org/wiki/Special:FilePath/Flag_of_Hungary.svg","geo":{"latitude":47,"longitude":20,"area":93028},"languages":{"primaryLanguage":{"code":"hu","name":"Hungarian","native_name":"magyar"},"spokenLanguages":[{"code":"hu","name":"Hungarian","native_name":"magyar"}]},"locale":{"default":"hu-HU","locales":["hu-HU"]},"numeric":"348","region":"Central Europe","tld":[".hu"]},{"name":{"common":"Iceland","official":"Iceland","native":"√çsland"},"alpha2":"IS","alpha3":"ISL","capital":"Reykjavik","continent":"Europe","currencies":[{"name":"Icelandic Kr√≥na","code":"ISK"}],"dialingCodes":[354],"emoji":"üáÆüá∏","flag":"https://commons.wikimedia.org/wiki/Special:FilePath/Flag_of_Iceland.svg","geo":{"latitude":65,"longitude":-18,"area":103000},"languages":{"primaryLanguage":{"code":"is","name":"Icelandic","native_name":"√çslenska"},"spokenLanguages":[{"code":"is","name":"Icelandic","native_name":"√çslenska"}]},"locale":{"default":"is-IS","locales":["is-IS"]},"numeric":"352","region":"Northern Europe","tld":[".is"]},{"name":{"common":"India","official":"Republic of India","native":"‡§≠‡§æ‡§∞‡§§"},"alpha2":"IN","alpha3":"IND","capital":"New Delhi","continent":"Asia","currencies":[{"name":"Indian Rupee","code":"INR"}],"dialingCodes":[91],"emoji":"üáÆüá≥","flag":"https://commons.wikimedia.org/wiki/Special:FilePath/Flag_of_India.svg","geo":{"latitude":20,"longitude":77,"area":3287590},"languages":{"primaryLanguage":{"code":"hi","name":"Hindi","native_name":"‡§π‡§ø‡§®‡•ç‡§¶‡•Ä"},"spokenLanguages":[{"code":"hi","name":"Hindi","native_name":"‡§π‡§ø‡§®‡•ç‡§¶‡•Ä"},{"code":"en","name":"English","native_name":"English"}]},"locale":{"default":"en-IN","locales":["hi-IN","en-IN"]},"numeric":"356","region":"South Asia","tld":[".in"]},{"name":{"common":"Indonesia","official":"Republic of Indonesia","native":"Indonesia"},"alpha2":"ID","alpha3":"IDN","capital":"Jakarta","continent":"Asia","currencies":[{"name":"Indonesian Rupiah","code":"IDR"}],"dialingCodes":[62],"emoji":"üáÆüá©","flag":"https://commons.wikimedia.org/wiki/Special:FilePath/Flag_of_Indonesia.svg","geo":{"latitude":-5,"longitude":120,"area":1904569},"languages":{"primaryLanguage":{"code":"id","name":"Indonesian","native_name":"Bahasa Indonesia"},"spokenLanguages":[{"code":"id","name":"Indonesian","native_name":"Bahasa Indonesia"}]},"locale":{"default":"id-ID","locales":["id-ID"]},"numeric":"360","region":"South East Asia","tld":[".id"]},{"name":{"common":"Iran","official":"Islamic Republic of Iran","native":"ÿß€åÿ±ÿßŸÜ"},"alpha2":"IR","alpha3":"IRN","capital":"Tehran","continent":"Asia","currencies":[{"name":"Iranian Rial","code":"IRR"}],"dialingCodes":[98],"emoji":"üáÆüá∑","flag":"https://commons.wikimedia.org/wiki/Special:FilePath/Flag_of_Iran.svg","geo":{"latitude":32,"longitude":53,"area":1648195},"languages":{"primaryLanguage":{"code":"fa","name":"Persian","native_name":"ŸÅÿßÿ±ÿ≥€å"},"spokenLanguages":[{"code":"fa","name":"Persian","native_name":"ŸÅÿßÿ±ÿ≥€å"}]},"locale":{"default":"fa-IR","locales":["fa-IR"]},"numeric":"364","region":"South West Asia","tld":[".ir","ÿß€åÿ±ÿßŸÜ."]},{"name":{"common":"Iraq","official":"Republic of Iraq","native":"ÿßŸÑÿπÿ±ÿßŸÇ"},"alpha2":"IQ","alpha3":"IRQ","capital":"Baghdad","continent":"Asia","currencies":[{"name":"Iraqi Dinar","code":"IQD"}],"dialingCodes":[964],"emoji":"üáÆüá∂","flag":"https://commons.wikimedia.org/wiki/Special:FilePath/Flag_of_Iraq.svg","geo":{"latitude":33,"longitude":44,"area":438317},"languages":{"primaryLanguage":{"code":"ar","name":"Arabic","native_name":"ÿßŸÑÿπÿ±ÿ®Ÿäÿ©"},"spokenLanguages":[{"code":"ar","name":"Arabic","native_name":"ÿßŸÑÿπÿ±ÿ®Ÿäÿ©"},{"code":"ku","name":"Kurdish","native_name":"Kurd√Æ"}]},"locale":{"default":"ar-IQ","locales":["ar-IQ","ku-IQ"]},"numeric":"368","region":"South West Asia","tld":[".iq"]},{"name":{"common":"Ireland","official":"Republic of Ireland","native":"√âire"},"alpha2":"IE","alpha3":"IRL","capital":"Dublin","continent":"Europe","currencies":[{"name":"Euro","code":"EUR"}],"dialingCodes":[353],"emoji":"üáÆüá™","flag":"https://commons.wikimedia.org/wiki/Special:FilePath/Flag_of_Ireland.svg","geo":{"latitude":53,"longitude":-8,"area":70273},"languages":{"primaryLanguage":{"code":"ga","name":"Irish","native_name":"Gaeilge"},"spokenLanguages":[{"code":"ga","name":"Irish","native_name":"Gaeilge"},{"code":"en","name":"English","native_name":"English"}]},"locale":{"default":"en-IE","locales":["ga-IE","en-IE"]},"numeric":"372","region":"Western Europe","tld":[".ie"]},{"name":{"common":"Isle of Man","official":"Isle of Man","native":"Isle of Man"},"alpha2":"IM","alpha3":"IMN","capital":"Douglas","continent":"Europe","currencies":[{"name":"British Pound","code":"GBP"},{"name":"Manx Pound","code":"IMP"}],"dialingCodes":[44],"emoji":"üáÆüá≤","flag":"https://commons.wikimedia.org/wiki/Special:FilePath/Flag_of_the_Isle_of_Man.svg","geo":{"latitude":54.25,"longitude":-4.5,"area":572},"languages":{"primaryLanguage":{"code":"en","name":"English","native_name":"English"},"spokenLanguages":[{"code":"en","name":"English","native_name":"English"},{"code":"gv","name":"Manx","native_name":"Gaelg"}]},"locale":{"default":"en-IM","locales":["en-IM","gv-IM"]},"numeric":"833","region":"Western Europe","tld":[".im"]},{"name":{"common":"Israel","official":"State of Israel","native":"◊ô÷¥◊©÷∞◊Ç◊®÷∏◊ê÷µ◊ú"},"alpha2":"IL","alpha3":"ISR","capital":"Jerusalem","continent":"Asia","currencies":[{"name":"Israeli New Shekel","code":"ILS"}],"dialingCodes":[972],"emoji":"üáÆüá±","flag":"https://commons.wikimedia.org/wiki/Special:FilePath/Flag_of_Israel.svg","geo":{"latitude":31.47,"longitude":35.13,"area":20770},"languages":{"primaryLanguage":{"code":"he","name":"Hebrew","native_name":"◊¢◊ë◊®◊ô◊™"},"spokenLanguages":[{"code":"he","name":"Hebrew","native_name":"◊¢◊ë◊®◊ô◊™"},{"code":"ar","name":"Arabic","native_name":"ÿßŸÑÿπÿ±ÿ®Ÿäÿ©"}]},"locale":{"default":"ar-IL","locales":["he-IL","ar-IL"]},"numeric":"376","region":"South West Asia","tld":[".il"]},{"name":{"common":"Italy","official":"Italian Republic","native":"Italia"},"alpha2":"IT","alpha3":"ITA","capital":"Rome","continent":"Europe","currencies":[{"name":"Euro","code":"EUR"}],"dialingCodes":[39],"emoji":"üáÆüáπ","flag":"https://commons.wikimedia.org/wiki/Special:FilePath/Flag_of_Italy.svg","geo":{"latitude":42.83333333,"longitude":12.83333333,"area":301336},"languages":{"primaryLanguage":{"code":"it","name":"Italian","native_name":"Italiano"},"spokenLanguages":[{"code":"it","name":"Italian","native_name":"Italiano"}]},"locale":{"default":"it-IT","locales":["it-IT"]},"numeric":"380","region":"Southern Europe","tld":[".it"]},{"name":{"common":"Jamaica","official":"Jamaica","native":"Jamaica"},"alpha2":"JM","alpha3":"JAM","capital":"Kingston","continent":"Americas","currencies":[{"name":"Jamaican Dollar","code":"JMD"}],"dialingCodes":[1876],"emoji":"üáØüá≤","flag":"https://commons.wikimedia.org/wiki/Special:FilePath/Flag_of_Jamaica.svg","geo":{"latitude":18.25,"longitude":-77.5,"area":10991},"languages":{"primaryLanguage":{"code":"en","name":"English","native_name":"English"},"spokenLanguages":[{"code":"en","name":"English","native_name":"English"}]},"locale":{"default":"en-JM","locales":["en-JM"]},"numeric":"388","region":"West Indies","tld":[".jm"]},{"name":{"common":"Japan","official":"Japan","native":"Êó•Êú¨"},"alpha2":"JP","alpha3":"JPN","capital":"Tokyo","continent":"Asia","currencies":[{"name":"Japanese Yen","code":"JPY"}],"dialingCodes":[81],"emoji":"üáØüáµ","flag":"https://commons.wikimedia.org/wiki/Special:FilePath/Flag_of_Japan.svg","geo":{"latitude":36,"longitude":138,"area":377930},"languages":{"primaryLanguage":{"code":"ja","name":"Japanese","native_name":"Êó•Êú¨Ë™û („Å´„Åª„Çì„Åî)"},"spokenLanguages":[{"code":"ja","name":"Japanese","native_name":"Êó•Êú¨ Ë™û („Å´„Åª„Çì„Åî)"}]},"locale":{"default":"ja-JP","locales":["ja-JP"]},"numeric":"392","region":"East Asia","tld":[".jp",".„Åø„Çì„Å™"]},{"name":{"common":"Jersey","official":"Bailiwick of Jersey","native":"Jersey"},"alpha2":"JE","alpha3":"JEY","capital":"Saint Helier","continent":"Europe","currencies":[{"name":"British Pound","code":"GBP"},{"name":"Jersey Pound","code":"JEP"}],"dialingCodes":[44],"emoji":"üáØüá™","flag":"https://commons.wikimedia.org/wiki/Special:FilePath/Flag_of_Jersey.svg","geo":{"latitude":49.25,"longitude":-2.16666666,"area":116},"languages":{"primaryLanguage":{"code":"en","name":"English","native_name":"English"},"spokenLanguages":[{"code":"en","name":"English","native_name":"English"},{"code":"fr","name":"French","native_name":"fran√ßais"}]},"locale":{"default":"en-JE","locales":["en-JE","fr-JE"]},"numeric":"832","region":"Western Europe","tld":[".je"]},{"name":{"common":"Jordan","official":"Hashemite Kingdom of Jordan","native":"ÿßŸÑÿ£ÿ±ÿØŸÜ"},"alpha2":"JO","alpha3":"JOR","capital":"Amman","continent":"Asia","currencies":[{"name":"Jordanian Dinar","code":"JOD"}],"dialingCodes":[962],"emoji":"üáØüá¥","flag":"https://commons.wikimedia.org/wiki/Special:FilePath/Flag_of_Jordan.svg","geo":{"latitude":31,"longitude":36,"area":89342},"languages":{"primaryLanguage":{"code":"ar","name":"Arabic","native_name":"ÿßŸÑÿπÿ±ÿ®Ÿäÿ©"},"spokenLanguages":[{"code":"ar","name":"Arabic","native_name":"ÿßŸÑÿπÿ±ÿ®Ÿäÿ©"}]},"locale":{"default":"ar-JO","locales":["ar-JO"]},"numeric":"400","region":"South West Asia","tld":[".jo","ÿßŸÑÿßÿ±ÿØŸÜ."]},{"name":{"common":"Kazakhstan","official":"Republic of Kazakhstan","native":"“ö–∞–∑–∞“õ—Å—Ç–∞–Ω"},"alpha2":"KZ","alpha3":"KAZ","capital":"Astana","continent":"Asia","currencies":[{"name":"Kazakhstani Tenge","code":"KZT"}],"dialingCodes":[7],"emoji":"üá∞üáø","flag":"https://commons.wikimedia.org/wiki/Special:FilePath/Flag_of_Kazakhstan.svg","geo":{"latitude":48,"longitude":68,"area":2724900},"languages":{"primaryLanguage":{"code":"kk","name":"Kazakh","native_name":"“õ–∞–∑–∞“õ —Ç—ñ–ª—ñ"},"spokenLanguages":[{"code":"kk","name":"Kazakh","native_name":"“õ–∞–∑–∞“õ —Ç—ñ–ª—ñ"},{"code":"ru","name":"Russian","native_name":"–†—É—Å—Å–∫–∏–π"}]},"locale":{"default":"kk-KZ","locales":["kk-KZ","ru-KZ"]},"numeric":"398","region":"Central Asia","tld":[".kz",".“õ–∞–∑"]},{"name":{"common":"Kenya","official":"Republic of Kenya","native":"Kenya"},"alpha2":"KE","alpha3":"KEN","capital":"Nairobi","continent":"Africa","currencies":[{"name":"Kenyan Shilling","code":"KES"}],"dialingCodes":[254],"emoji":"üá∞üá™","flag":"https://commons.wikimedia.org/wiki/Special:FilePath/Flag_of_Kenya.svg","geo":{"latitude":1,"longitude":38,"area":580367},"languages":{"primaryLanguage":{"code":"en","name":"English","native_name":"English"},"spokenLanguages":[{"code":"en","name":"English","native_name":"English"},{"code":"sw","name":"Swahili","native_name":"Kiswahili"}]},"locale":{"default":"en-KE","locales":["en-KE","sw-KE"]},"numeric":"404","region":"Eastern Africa","tld":[".ke"]},{"name":{"common":"Kiribati","official":"Independent and Sovereign Republic of Kiribati","native":"Kiribati"},"alpha2":"KI","alpha3":"KIR","capital":"South Tarawa","continent":"Oceania","currencies":[{"name":"Australian Dollar","code":"AUD"},{"name":"Kiribati Dollar","code":"KID"}],"dialingCodes":[686],"emoji":"üá∞üáÆ","flag":"https://commons.wikimedia.org/wiki/Special:FilePath/Flag_of_Kiribati.svg","geo":{"latitude":1.41666666,"longitude":173,"area":811},"languages":{"primaryLanguage":{"code":"en","name":"English","native_name":"English"},"spokenLanguages":[{"code":"en","name":"English","native_name":"English"}]},"locale":{"default":"en-KI","locales":["en-KI"]},"numeric":"296","region":"Pacific","tld":[".ki"]},{"name":{"common":"North Korea","official":"Democratic People's Republic of Korea","native":"Î∂ÅÌïú"},"alpha2":"KP","alpha3":"PRK","capital":"Pyongyang","continent":"Asia","currencies":[{"name":"North Korean Won","code":"KPW"}],"dialingCodes":[850],"emoji":"üá∞üáµ","flag":"https://commons.wikimedia.org/wiki/Special:FilePath/Flag_of_North_Korea.svg","geo":{"latitude":40,"longitude":127,"area":120538},"languages":{"primaryLanguage":{"code":"ko","name":"Korean","native_name":"ÌïúÍµ≠Ïñ¥"},"spokenLanguages":[{"code":"ko","name":"Korean","native_name":"ÌïúÍµ≠Ïñ¥"}]},"locale":{"default":"ko-KP","locales":["ko-KP"]},"numeric":"408","region":"East Asia","tld":[".kp"]},{"name":{"common":"South Korea","official":"Republic of Korea","native":"ÎåÄÌïúÎØºÍµ≠"},"alpha2":"KR","alpha3":"KOR","capital":"Seoul","continent":"Asia","currencies":[{"name":"South Korean Won","code":"KRW"}],"dialingCodes":[82],"emoji":"üá∞üá∑","flag":"https://commons.wikimedia.org/wiki/Special:FilePath/Flag_of_South_Korea.svg","geo":{"latitude":37,"longitude":127.5,"area":100210},"languages":{"primaryLanguage":{"code":"ko","name":"Korean","native_name":"ÌïúÍµ≠Ïñ¥"},"spokenLanguages":[{"code":"ko","name":"Korean","native_name":"ÌïúÍµ≠Ïñ¥"}]},"locale":{"default":"ko-KR","locales":["ko-KR"]},"numeric":"410","region":"East Asia","tld":[".kr",".ÌïúÍµ≠"]},{"name":{"common":"Kuwait","official":"State of Kuwait","native":"ÿßŸÑŸÉŸàŸäÿ™"},"alpha2":"KW","alpha3":"KWT","capital":"Kuwait City","continent":"Asia","currencies":[{"name":"Kuwaiti Dinar","code":"KWD"}],"dialingCodes":[965],"emoji":"üá∞üáº","flag":"https://commons.wikimedia.org/wiki/Special:FilePath/Flag_of_Kuwait.svg","geo":{"latitude":29.5,"longitude":45.75,"area":17818},"languages":{"primaryLanguage":{"code":"ar","name":"Arabic","native_name":"ÿßŸÑÿπÿ±ÿ®Ÿäÿ©"},"spokenLanguages":[{"code":"ar","name":"Arabic","native_name":"ÿßŸÑÿπÿ±ÿ®Ÿäÿ©"}]},"locale":{"default":"ar-KW","locales":["ar-KW"]},"numeric":"414","region":"South West Asia","tld":[".kw"]},{"name":{"common":"Kyrgyzstan","official":"Kyrgyz Republic","native":"–ö—ã—Ä–≥—ã–∑—Å—Ç–∞–Ω"},"alpha2":"KG","alpha3":"KGZ","capital":"Bishkek","continent":"Asia","currencies":[{"name":"Kyrgyzstani Som","code":"KGS"}],"dialingCodes":[996],"emoji":"üá∞üá¨","flag":"https://commons.wikimedia.org/wiki/Special:FilePath/Flag_of_Kyrgyzstan.svg","geo":{"latitude":41,"longitude":75,"area":199951},"languages":{"primaryLanguage":{"code":"ky","name":"Kyrgyz","native_name":"–ö—ã—Ä–≥—ã–∑—á–∞"},"spokenLanguages":[{"code":"ky","name":"Kyrgyz","native_name":"–ö—ã—Ä–≥—ã–∑—á–∞"},{"code":"ru","name":"Russian","native_name":"–†—É—Å—Å–∫–∏–π"}]},"locale":{"default":"ky-KG","locales":["ky-KG","ru-KG"]},"numeric":"417","region":"Central Asia","tld":[".kg"]},{"name":{"common":"Laos","official":"Lao People's Democratic Republic","native":"‡∫™‡∫õ‡∫õ‡∫•‡∫≤‡∫ß"},"alpha2":"LA","alpha3":"LAO","capital":"Vientiane","continent":"Asia","currencies":[{"name":"Lao Kip","code":"LAK"}],"dialingCodes":[856],"emoji":"üá±üá¶","flag":"https://commons.wikimedia.org/wiki/Special:FilePath/Flag_of_Laos.svg","geo":{"latitude":18,"longitude":105,"area":236800},"languages":{"primaryLanguage":{"code":"lo","name":"Lao","native_name":"‡∫û‡∫≤‡∫™‡∫≤‡∫•‡∫≤‡∫ß"},"spokenLanguages":[{"code":"lo","name":"Lao","native_name":"‡∫û‡∫≤‡∫™‡∫≤‡∫•‡∫≤‡∫ß"}]},"locale":{"default":"lo-LA","locales":["lo-LA"]},"numeric":"418","region":"South East Asia","tld":[".la"]},{"name":{"common":"Latvia","official":"Republic of Latvia","native":"Latvija"},"alpha2":"LV","alpha3":"LVA","capital":"Riga","continent":"Europe","currencies":[{"name":"Euro","code":"EUR"}],"dialingCodes":[371],"emoji":"üá±üáª","flag":"https://commons.wikimedia.org/wiki/Special:FilePath/Flag_of_Latvia.svg","geo":{"latitude":57,"longitude":25,"area":64559},"languages":{"primaryLanguage":{"code":"lv","name":"Latvian","native_name":"latvie≈°u valoda"},"spokenLanguages":[{"code":"lv","name":"Latvian","native_name":"latvie≈°u valoda"}]},"locale":{"default":"lv-LV","locales":["lv-LV"]},"numeric":"428","region":"Eastern Europe","tld":[".lv"]},{"name":{"common":"Lebanon","official":"Lebanese Republic","native":"ŸÑÿ®ŸÜÿßŸÜ"},"alpha2":"LB","alpha3":"LBN","capital":"Beirut","continent":"Asia","currencies":[{"name":"Lebanese Pound","code":"LBP"}],"dialingCodes":[961],"emoji":"üá±üáß","flag":"https://commons.wikimedia.org/wiki/Special:FilePath/Flag_of_Lebanon.svg","geo":{"latitude":33.83333333,"longitude":35.83333333,"area":10452},"languages":{"primaryLanguage":{"code":"ar","name":"Arabic","native_name":"ÿßŸÑÿπÿ±ÿ®Ÿäÿ©"},"spokenLanguages":[{"code":"ar","name":"Arabic","native_name":"ÿßŸÑÿπÿ±ÿ®Ÿäÿ©"},{"code":"fr","name":"French","native_name":"fran√ßais"}]},"locale":{"default":"ar-LB","locales":["ar-LB","fr-LB"]},"numeric":"422","region":"South West Asia","tld":[".lb"]},{"name":{"common":"Lesotho","official":"Kingdom of Lesotho","native":"Lesotho"},"alpha2":"LS","alpha3":"LSO","capital":"Maseru","continent":"Africa","currencies":[{"name":"Lesotho Loti","code":"LSL"},{"name":"South African Rand","code":"ZAR"}],"dialingCodes":[266],"emoji":"üá±üá∏","flag":"https://commons.wikimedia.org/wiki/Special:FilePath/Flag_of_Lesotho.svg","geo":{"latitude":-29.5,"longitude":28.5,"area":30355},"languages":{"primaryLanguage":{"code":"en","name":"English","native_name":"English"},"spokenLanguages":[{"code":"en","name":"English","native_name":"English"},{"code":"st","name":"Southern Sotho","native_name":"Sesotho"}]},"locale":{"default":"en-LS","locales":["en-LS","st-LS"]},"numeric":"426","region":"Southern Africa","tld":[".ls"]},{"name":{"common":"Liberia","official":"Republic of Liberia","native":"Liberia"},"alpha2":"LR","alpha3":"LBR","capital":"Monrovia","continent":"Africa","currencies":[{"name":"Liberian Dollar","code":"LRD"}],"dialingCodes":[231],"emoji":"üá±üá∑","flag":"https://commons.wikimedia.org/wiki/Special:FilePath/Flag_of_Liberia.svg","geo":{"latitude":6.5,"longitude":-9.5,"area":111369},"languages":{"primaryLanguage":{"code":"en","name":"English","native_name":"English"},"spokenLanguages":[{"code":"en","name":"English","native_name":"English"}]},"locale":{"default":"en-LR","locales":["en-LR"]},"numeric":"430","region":"Western Africa","tld":[".lr"]},{"name":{"common":"Libya","official":"State of Libya","native":"‚ÄèŸÑŸäÿ®Ÿäÿß"},"alpha2":"LY","alpha3":"LBY","capital":"Tripoli","continent":"Africa","currencies":[{"name":"Libyan Dinar","code":"LYD"}],"dialingCodes":[218],"emoji":"üá±üáæ","flag":"https://commons.wikimedia.org/wiki/Special:FilePath/Flag_of_Libya.svg","geo":{"latitude":25,"longitude":17,"area":1759540},"languages":{"primaryLanguage":{"code":"ar","name":"Arabic","native_name":"ÿßŸÑÿπÿ±ÿ®Ÿäÿ©"},"spokenLanguages":[{"code":"ar","name":"Arabic","native_name":"ÿßŸÑÿπÿ±ÿ®Ÿäÿ©"}]},"locale":{"default":"ar-LY","locales":["ar-LY"]},"numeric":"434","region":"Northern Africa","tld":[".ly"]},{"name":{"common":"Liechtenstein","official":"Principality of Liechtenstein","native":"Liechtenstein"},"alpha2":"LI","alpha3":"LIE","capital":"Vaduz","continent":"Europe","currencies":[{"name":"Swiss Franc","code":"CHF"}],"dialingCodes":[423],"emoji":"üá±üáÆ","flag":"https://commons.wikimedia.org/wiki/Special:FilePath/Flag_of_Liechtenstein.svg","geo":{"latitude":47.26666666,"longitude":9.53333333,"area":160},"languages":{"primaryLanguage":{"code":"de","name":"German","native_name":"Deutsch"},"spokenLanguages":[{"code":"de","name":"German","native_name":"Deutsch"}]},"locale":{"default":"de-LI","locales":["de-LI"]},"numeric":"438","region":"Central Europe","tld":[".li"]},{"name":{"common":"Lithuania","official":"Republic of Lithuania","native":"Lietuva"},"alpha2":"LT","alpha3":"LTU","capital":"Vilnius","continent":"Europe","currencies":[{"name":"Euro","code":"EUR"}],"dialingCodes":[370],"emoji":"üá±üáπ","flag":"https://commons.wikimedia.org/wiki/Special:FilePath/Flag_of_Lithuania.svg","geo":{"latitude":56,"longitude":24,"area":65300},"languages":{"primaryLanguage":{"code":"lt","name":"Lithuanian","native_name":"lietuvi≈≥ kalba"},"spokenLanguages":[{"code":"lt","name":"Lithuanian","native_name":"lietuvi≈≥ kalba"}]},"locale":{"default":"lt-LT","locales":["lt-LT"]},"numeric":"440","region":"Eastern Europe","tld":[".lt"]},{"name":{"common":"Luxembourg","official":"Grand Duchy of Luxembourg","native":"Luxembourg"},"alpha2":"LU","alpha3":"LUX","capital":"Luxembourg","continent":"Europe","currencies":[{"name":"Euro","code":"EUR"}],"dialingCodes":[352],"emoji":"üá±üá∫","flag":"https://commons.wikimedia.org/wiki/Special:FilePath/Flag_of_Luxembourg.svg","geo":{"latitude":49.75,"longitude":6.16666666,"area":2586},"languages":{"primaryLanguage":{"code":"fr","name":"French","native_name":"fran√ßais"},"spokenLanguages":[{"code":"fr","name":"French","native_name":"fran√ßais"},{"code":"de","name":"German","native_name":"Deutsch"},{"code":"lb","name":"Luxembourgish","native_name":"L√´tzebuergesch"}]},"locale":{"default":"de-LU","locales":["fr-LU","de-LU","lb-LU"]},"numeric":"442","region":"Western Europe","tld":[".lu"]},{"name":{"common":"Macau","official":"Macao Special Administrative Region of the People's Republic of China","native":"Êæ≥ÈñÄ"},"alpha2":"MO","alpha3":"MAC","capital":"","continent":"Asia","currencies":[{"name":"Macanese Pataca","code":"MOP"}],"dialingCodes":[853],"emoji":"üá≤üá¥","flag":"https://commons.wikimedia.org/wiki/Special:FilePath/Flag_of_Macau.svg","geo":{"latitude":22.16666666,"longitude":113.55,"area":30},"languages":{"primaryLanguage":{"code":"zh","name":"Chinese","native_name":"‰∏≠Êñá (Zh≈çngw√©n)"},"spokenLanguages":[{"code":"zh","name":"Chinese","native_name":"‰∏≠Êñá (Zh≈çngw√©n)"},{"code":"pt","name":"Portuguese","native_name":"Portugu√™s"}]},"locale":{"default":"pt-MO","locales":["zh-MO","pt-MO"]},"numeric":"446","region":"East Asia","tld":[".mo"]},{"name":{"common":"Madagascar","official":"Republic of Madagascar","native":"Madagasikara"},"alpha2":"MG","alpha3":"MDG","capital":"Antananarivo","continent":"Africa","currencies":[{"name":"Malagasy Ariary","code":"MGA"}],"dialingCodes":[261],"emoji":"üá≤üá¨","flag":"https://commons.wikimedia.org/wiki/Special:FilePath/Flag_of_Madagascar.svg","geo":{"latitude":-20,"longitude":47,"area":587041},"languages":{"primaryLanguage":{"code":"fr","name":"French","native_name":"fran√ßais"},"spokenLanguages":[{"code":"fr","name":"French","native_name":"fran√ßais"},{"code":"mg","name":"Malagasy","native_name":"fiteny malagasy"}]},"locale":{"default":"fr-MG","locales":["fr-MG","mg-MG"]},"numeric":"450","region":"Indian Ocean","tld":[".mg"]},{"name":{"common":"Malawi","official":"Republic of Malawi","native":"Malawi"},"alpha2":"MW","alpha3":"MWI","capital":"Lilongwe","continent":"Africa","currencies":[{"name":"Malawian Kwacha","code":"MWK"}],"dialingCodes":[265],"emoji":"üá≤üáº","flag":"https://commons.wikimedia.org/wiki/Special:FilePath/Flag_of_Malawi.svg","geo":{"latitude":-13.5,"longitude":34,"area":118484},"languages":{"primaryLanguage":{"code":"en","name":"English","native_name":"English"},"spokenLanguages":[{"code":"en","name":"English","native_name":"English"},{"code":"ny","name":"Chichewa","native_name":"chiChe≈µa"}]},"locale":{"default":"en-MW","locales":["en-MW","ny-MW"]},"numeric":"454","region":"Southern Africa","tld":[".mw"]},{"name":{"common":"Malaysia","official":"Malaysia","native":"Malaysia"},"alpha2":"MY","alpha3":"MYS","capital":"Kuala Lumpur","continent":"Asia","currencies":[{"name":"Malaysian Ringgit","code":"MYR"}],"dialingCodes":[60],"emoji":"üá≤üáæ","flag":"https://commons.wikimedia.org/wiki/Special:FilePath/Flag_of_Malaysia.svg","geo":{"latitude":2.5,"longitude":112.5,"area":330803},"languages":{"primaryLanguage":{"code":"ms","name":"Malaysian","native_name":"ÿ®Ÿáÿßÿ≥ ŸÖŸÑŸäÿ≥Ÿäÿß"},"spokenLanguages":[{"code":"ms","name":"Malaysian","native_name":"ÿ®Ÿáÿßÿ≥ ŸÖŸÑŸäÿ≥Ÿäÿß"}]},"locale":{"default":"ms-MY","locales":["ms-MY"]},"numeric":"458","region":"South East Asia","tld":[".my"]},{"name":{"common":"Maldives","official":"Republic of the Maldives","native":"Maldives"},"alpha2":"MV","alpha3":"MDV","capital":"Mal√©","continent":"Asia","currencies":[{"name":"Maldivian Rufiyaa","code":"MVR"}],"dialingCodes":[960],"emoji":"üá≤üáª","flag":"https://commons.wikimedia.org/wiki/Special:FilePath/Flag_of_the_Maldives.svg","geo":{"latitude":3.25,"longitude":73,"area":300},"languages":{"primaryLanguage":{"code":"dv","name":"Divehi","native_name":"ﬁãﬁ®ﬁàﬁ¨ﬁÄﬁ®"},"spokenLanguages":[{"code":"dv","name":"Divehi","native_name":"ﬁãﬁ®ﬁàﬁ¨ﬁÄﬁ®"}]},"locale":{"default":"dv-MV","locales":["dv-MV"]},"numeric":"462","region":"South Asia","tld":[".mv"]},{"name":{"common":"Mali","official":"Republic of Mali","native":"Mali"},"alpha2":"ML","alpha3":"MLI","capital":"Bamako","continent":"Africa","currencies":[{"name":"West African CFA Franc","code":"XOF"}],"dialingCodes":[223],"emoji":"üá≤üá±","flag":"https://commons.wikimedia.org/wiki/Special:FilePath/Flag_of_Mali.svg","geo":{"latitude":17,"longitude":-4,"area":1240192},"languages":{"primaryLanguage":{"code":"fr","name":"French","native_name":"fran√ßais"},"spokenLanguages":[{"code":"fr","name":"French","native_name":"fran√ßais"}]},"locale":{"default":"fr-ML","locales":["fr-ML"]},"numeric":"466","region":"Western Africa","tld":[".ml"]},{"name":{"common":"Malta","official":"Republic of Malta","native":"Malta"},"alpha2":"MT","alpha3":"MLT","capital":"Valletta","continent":"Europe","currencies":[{"name":"Euro","code":"EUR"}],"dialingCodes":[356],"emoji":"üá≤üáπ","flag":"https://commons.wikimedia.org/wiki/Special:FilePath/Flag_of_Malta.svg","geo":{"latitude":35.83333333,"longitude":14.58333333,"area":316},"languages":{"primaryLanguage":{"code":"mt","name":"Maltese","native_name":"Malti"},"spokenLanguages":[{"code":"mt","name":"Maltese","native_name":"Malti"},{"code":"en","name":"English","native_name":"English"}]},"locale":{"default":"en-MT","locales":["mt-MT","en-MT"]},"numeric":"470","region":"Southern Europe","tld":[".mt"]},{"name":{"common":"Marshall Islands","official":"Republic of the Marshall Islands","native":"MÃßajeƒº"},"alpha2":"MH","alpha3":"MHL","capital":"Majuro","continent":"Oceania","currencies":[{"name":"United States Dollar","code":"USD"}],"dialingCodes":[692],"emoji":"üá≤üá≠","flag":"https://commons.wikimedia.org/wiki/Special:FilePath/Flag_of_the_Marshall_Islands.svg","geo":{"latitude":9,"longitude":168,"area":181},"languages":{"primaryLanguage":{"code":"en","name":"English","native_name":"English"},"spokenLanguages":[{"code":"en","name":"English","native_name":"English"},{"code":"mh","name":"Marshallese","native_name":"Kajin MÃßajeƒº"}]},"locale":{"default":"en-MH","locales":["en-MH","mh-MH"]},"numeric":"584","region":"Pacific","tld":[".mh"]},{"name":{"common":"Martinique","official":"Martinique","native":"Martinique"},"alpha2":"MQ","alpha3":"MTQ","capital":"Fort-de-France","continent":"Americas","currencies":[{"name":"Euro","code":"EUR"}],"dialingCodes":[596],"emoji":"üá≤üá∂","flag":"https://commons.wikimedia.org/wiki/Special:FilePath/Flag_of_Martinique.svg","geo":{"latitude":14.666667,"longitude":-61,"area":1128},"languages":{"primaryLanguage":{"code":"fr","name":"French","native_name":"fran√ßais"},"spokenLanguages":[{"code":"fr","name":"French","native_name":"fran√ßais"}]},"locale":{"default":"fr-MQ","locales":["fr-MQ"]},"numeric":"474","region":"West Indies","tld":[".mq"]},{"name":{"common":"Mauritania","official":"Islamic Republic of Mauritania","native":"ŸÖŸàÿ±Ÿäÿ™ÿßŸÜŸäÿß"},"alpha2":"MR","alpha3":"MRT","capital":"Nouakchott","continent":"Africa","currencies":[{"name":"Mauritanian Ouguiya","code":"MRU"}],"dialingCodes":[222],"emoji":"üá≤üá∑","flag":"https://commons.wikimedia.org/wiki/Special:FilePath/Flag_of_Mauritania.svg","geo":{"latitude":20,"longitude":-12,"area":1030700},"languages":{"primaryLanguage":{"code":"ar","name":"Arabic","native_name":"ÿßŸÑÿπÿ±ÿ®Ÿäÿ©"},"spokenLanguages":[{"code":"ar","name":"Arabic","native_name":"ÿßŸÑÿπÿ±ÿ®Ÿäÿ©"}]},"locale":{"default":"ar-MR","locales":["ar-MR"]},"numeric":"478","region":"Western Africa","tld":[".mr"]},{"name":{"common":"Mauritius","official":"Republic of Mauritius","native":"Maurice"},"alpha2":"MU","alpha3":"MUS","capital":"Port Louis","continent":"Africa","currencies":[{"name":"Mauritian Rupee","code":"MUR"}],"dialingCodes":[230],"emoji":"üá≤üá∫","flag":"https://commons.wikimedia.org/wiki/Special:FilePath/Flag_of_Mauritius.svg","geo":{"latitude":-20.28333333,"longitude":57.55,"area":2040},"languages":{"primaryLanguage":{"code":"en","name":"English","native_name":"English"},"spokenLanguages":[{"code":"en","name":"English","native_name":"English"}]},"locale":{"default":"en-MU","locales":["en-MU"]},"numeric":"480","region":"Indian Ocean","tld":[".mu"]},{"name":{"common":"Mayotte","official":"Department of Mayotte","native":"Mayotte"},"alpha2":"YT","alpha3":"MYT","capital":"Mamoudzou","continent":"Africa","currencies":[{"name":"Euro","code":"EUR"}],"dialingCodes":[262],"emoji":"üáæüáπ","flag":"https://commons.wikimedia.org/wiki/Special:FilePath/Flag_of_Mayotte_(local).svg","geo":{"latitude":-12.83333333,"longitude":45.16666666,"area":374},"languages":{"primaryLanguage":{"code":"fr","name":"French","native_name":"fran√ßais"},"spokenLanguages":[{"code":"fr","name":"French","native_name":"fran√ßais"}]},"locale":{"default":"fr-YT","locales":["fr-YT"]},"numeric":"175","region":"Indian Ocean","tld":[".yt"]},{"name":{"common":"Mexico","official":"United Mexican States","native":"M√©xico"},"alpha2":"MX","alpha3":"MEX","capital":"Mexico City","continent":"Americas","currencies":[{"name":"Mexican Peso","code":"MXN"}],"dialingCodes":[52],"emoji":"üá≤üáΩ","flag":"https://commons.wikimedia.org/wiki/Special:FilePath/Flag_of_Mexico.svg","geo":{"latitude":23,"longitude":-102,"area":1964375},"languages":{"primaryLanguage":{"code":"es","name":"Spanish","native_name":"Espa√±ol"},"spokenLanguages":[{"code":"es","name":"Spanish","native_name":"Espa√±ol"}]},"locale":{"default":"es-MX","locales":["es-MX"]},"numeric":"484","region":"Central America","tld":[".mx"]},{"name":{"common":"Micronesia","official":"Federated States of Micronesia","native":"Micronesia"},"alpha2":"FM","alpha3":"FSM","capital":"Palikir","continent":"Oceania","currencies":[],"dialingCodes":[691],"emoji":"üá´üá≤","flag":"https://commons.wikimedia.org/wiki/Special:FilePath/Flag_of_Micronesia.svg","geo":{"latitude":6.91666666,"longitude":158.25,"area":702},"languages":{"primaryLanguage":{"code":"en","name":"English","native_name":"English"},"spokenLanguages":[{"code":"en","name":"English","native_name":"English"}]},"locale":{"default":"en-FM","locales":["en-FM"]},"numeric":"583","region":"Pacific","tld":[".fm"]},{"name":{"common":"Moldova","official":"Republic of Moldova","native":"Moldova"},"alpha2":"MD","alpha3":"MDA","capital":"Chi»ôinƒÉu","continent":"Europe","currencies":[{"name":"Moldovan Leu","code":"MDL"}],"dialingCodes":[373],"emoji":"üá≤üá©","flag":"https://commons.wikimedia.org/wiki/Special:FilePath/Flag_of_Moldova.svg","geo":{"latitude":47,"longitude":29,"area":33846},"languages":{"primaryLanguage":{"code":"ro","name":"Romanian","native_name":"Rom√¢nƒÉ"},"spokenLanguages":[{"code":"ro","name":"Romanian","native_name":"Rom√¢nƒÉ"}]},"locale":{"default":"ro-MD","locales":["ro-MD"]},"numeric":"498","region":"Eastern Europe","tld":[".md"]},{"name":{"common":"Monaco","official":"Principality of Monaco","native":"Monaco"},"alpha2":"MC","alpha3":"MCO","capital":"Monaco","continent":"Europe","currencies":[{"name":"Euro","code":"EUR"}],"dialingCodes":[377],"emoji":"üá≤üá®","flag":"https://commons.wikimedia.org/wiki/Special:FilePath/Flag_of_Monaco.svg","geo":{"latitude":43.73333333,"longitude":7.4,"area":2.02},"languages":{"primaryLanguage":{"code":"fr","name":"French","native_name":"fran√ßais"},"spokenLanguages":[{"code":"fr","name":"French","native_name":"fran√ßais"}]},"locale":{"default":"fr-MC","locales":["fr-MC"]},"numeric":"492","region":"Western Europe","tld":[".mc"]},{"name":{"common":"Mongolia","official":"Mongolia","native":"–ú–æ–Ω–≥–æ–ª —É–ª—Å"},"alpha2":"MN","alpha3":"MNG","capital":"Ulan Bator","continent":"Asia","currencies":[{"name":"Mongolian T√∂gr√∂g","code":"MNT"}],"dialingCodes":[976],"emoji":"üá≤üá≥","flag":"https://commons.wikimedia.org/wiki/Special:FilePath/Flag_of_Mongolia.svg","geo":{"latitude":46,"longitude":105,"area":1564110},"languages":{"primaryLanguage":{"code":"mn","name":"Mongolian","native_name":"–ú–æ–Ω–≥–æ–ª —Ö—ç–ª"},"spokenLanguages":[{"code":"mn","name":"Mongolian","native_name":"–ú–æ–Ω–≥–æ–ª —Ö—ç–ª"}]},"locale":{"default":"mn-MN","locales":["mn-MN"]},"numeric":"496","region":"Northern Asia","tld":[".mn"]},{"name":{"common":"Montenegro","official":"Montenegro","native":"–¶—Ä–Ω–∞ –ì–æ—Ä–∞"},"alpha2":"ME","alpha3":"MNE","capital":"Podgorica","continent":"Europe","currencies":[{"name":"Euro","code":"EUR"}],"dialingCodes":[382],"emoji":"üá≤üá™","flag":"https://commons.wikimedia.org/wiki/Special:FilePath/Flag_of_Montenegro.svg","geo":{"latitude":42.5,"longitude":19.3,"area":13812},"languages":{"primaryLanguage":{"code":"sr","name":"Serbian","native_name":"—Å—Ä–ø—Å–∫–∏ —ò–µ–∑–∏–∫"},"spokenLanguages":[{"code":"sr","name":"Serbian","native_name":"—Å—Ä–ø—Å–∫–∏ —ò–µ–∑–∏–∫"},{"code":"bs","name":"Bosnian","native_name":"bosanski jezik"},{"code":"sq","name":"Albanian","native_name":"Shqip"},{"code":"hr","name":"Croatian","native_name":"hrvatski jezik"}]},"locale":{"default":"bs-ME","locales":["sr-ME","bs-ME","sq-ME","hr-ME"]},"numeric":"499","region":"South East Europe","tld":[".me"]},{"name":{"common":"Montserrat","official":"Montserrat","native":"Montserrat"},"alpha2":"MS","alpha3":"MSR","capital":"Plymouth","continent":"Americas","currencies":[{"name":"Eastern Caribbean Dollar","code":"XCD"}],"dialingCodes":[1664],"emoji":"üá≤üá∏","flag":"https://commons.wikimedia.org/wiki/Special:FilePath/Flag_of_Montserrat.svg","geo":{"latitude":16.75,"longitude":-62.2,"area":102},"languages":{"primaryLanguage":{"code":"en","name":"English","native_name":"English"},"spokenLanguages":[{"code":"en","name":"English","native_name":"English"}]},"locale":{"default":"en-MS","locales":["en-MS"]},"numeric":"500","region":"West Indies","tld":[".ms"]},{"name":{"common":"Morocco","official":"Kingdom of Morocco","native":"ÿßŸÑŸÖÿ∫ÿ±ÿ®"},"alpha2":"MA","alpha3":"MAR","capital":"Rabat","continent":"Africa","currencies":[{"name":"Moroccan Dirham","code":"MAD"}],"dialingCodes":[212],"emoji":"üá≤üá¶","flag":"https://commons.wikimedia.org/wiki/Special:FilePath/Flag_of_Morocco.svg","geo":{"latitude":32,"longitude":-5,"area":446550},"languages":{"primaryLanguage":{"code":"ar","name":"Arabic","native_name":"ÿßŸÑÿπÿ±ÿ®Ÿäÿ©"},"spokenLanguages":[{"code":"ar","name":"Arabic","native_name":"ÿßŸÑÿπÿ±ÿ®Ÿäÿ©"}]},"locale":{"default":"ar-MA","locales":["ar-MA"]},"numeric":"504","region":"Northern Africa","tld":[".ma","ÿßŸÑŸÖÿ∫ÿ±ÿ®."]},{"name":{"common":"Mozambique","official":"Republic of Mozambique","native":"Mo√ßambique"},"alpha2":"MZ","alpha3":"MOZ","capital":"Maputo","continent":"Africa","currencies":[{"name":"Mozambican Metical","code":"MZN"}],"dialingCodes":[258],"emoji":"üá≤üáø","flag":"https://commons.wikimedia.org/wiki/Special:FilePath/Flag_of_Mozambique.svg","geo":{"latitude":-18.25,"longitude":35,"area":801590},"languages":{"primaryLanguage":{"code":"pt","name":"Portuguese","native_name":"Portugu√™s"},"spokenLanguages":[{"code":"pt","name":"Portuguese","native_name":"Portugu√™s"}]},"locale":{"default":"pt-MZ","locales":["pt-MZ"]},"numeric":"508","region":"Southern Africa","tld":[".mz"]},{"name":{"common":"Myanmar","official":"Republic of the Union of Myanmar","native":"·Äô·Äº·Äî·Ä∫·Äô·Ä¨"},"alpha2":"MM","alpha3":"MMR","capital":"Naypyidaw","continent":"Asia","currencies":[{"name":"Burmese Kyat","code":"MMK"}],"dialingCodes":[95],"emoji":"üá≤üá≤","flag":"https://commons.wikimedia.org/wiki/Special:FilePath/Flag_of_Myanmar.svg","geo":{"latitude":22,"longitude":98,"area":676578},"languages":{"primaryLanguage":{"code":"my","name":"Burmese","native_name":"·Äó·Äô·Ä¨·ÄÖ·Ä¨"},"spokenLanguages":[{"code":"my","name":"Burmese","native_name":"·Äó·Äô·Ä¨·ÄÖ·Ä¨"}]},"locale":{"default":"my-MM","locales":["my-MM"]},"numeric":"104","region":"South East Asia","tld":[".mm"]},{"name":{"common":"Namibia","official":"Republic of Namibia","native":"Namibia"},"alpha2":"NA","alpha3":"NAM","capital":"Windhoek","continent":"Africa","currencies":[{"name":"Namibian Dollar","code":"NAD"},{"name":"South African Rand","code":"ZAR"}],"dialingCodes":[264],"emoji":"üá≥üá¶","flag":"https://commons.wikimedia.org/wiki/Special:FilePath/Flag_of_Namibia.svg","geo":{"latitude":-22,"longitude":17,"area":825615},"languages":{"primaryLanguage":{"code":"en","name":"English","native_name":"English"},"spokenLanguages":[{"code":"en","name":"English","native_name":"English"},{"code":"af","name":"Afrikaans","native_name":"Afrikaans"}]},"locale":{"default":"af-NA","locales":["en-NA","af-NA"]},"numeric":"516","region":"Southern Africa","tld":[".na"]},{"name":{"common":"Nauru","official":"Republic of Nauru","native":"Nauru"},"alpha2":"NR","alpha3":"NRU","capital":"Yaren","continent":"Oceania","currencies":[{"name":"Australian Dollar","code":"AUD"}],"dialingCodes":[674],"emoji":"üá≥üá∑","flag":"https://commons.wikimedia.org/wiki/Special:FilePath/Flag_of_Nauru.svg","geo":{"latitude":-0.53333333,"longitude":166.91666666,"area":21},"languages":{"primaryLanguage":{"code":"en","name":"English","native_name":"English"},"spokenLanguages":[{"code":"en","name":"English","native_name":"English"},{"code":"na","name":"Nauruan","native_name":"Dorerin Naoero"}]},"locale":{"default":"en-NR","locales":["en-NR","na-NR"]},"numeric":"520","region":"Pacific","tld":[".nr"]},{"name":{"common":"Nepal","official":"Federal Democratic Republic of Nepal","native":"‡§®‡•á‡§™‡§æ‡§≤"},"alpha2":"NP","alpha3":"NPL","capital":"Kathmandu","continent":"Asia","currencies":[{"name":"Nepalese Rupee","code":"NPR"}],"dialingCodes":[977],"emoji":"üá≥üáµ","flag":"https://commons.wikimedia.org/wiki/Special:FilePath/Flag_of_Nepal.svg","geo":{"latitude":28,"longitude":84,"area":147181},"languages":{"primaryLanguage":{"code":"ne","name":"Nepali","native_name":"‡§®‡•á‡§™‡§æ‡§≤‡•Ä"},"spokenLanguages":[{"code":"ne","name":"Nepali","native_name":"‡§®‡•á‡§™‡§æ‡§≤‡•Ä"}]},"locale":{"default":"ne-NP","locales":["ne-NP"]},"numeric":"524","region":"South Asia","tld":[".np"]},{"name":{"common":"Netherlands","official":"Kingdom of the Netherlands","native":"Nederland"},"alpha2":"NL","alpha3":"NLD","capital":"Amsterdam","continent":"Europe","currencies":[{"name":"Euro","code":"EUR"}],"dialingCodes":[31],"emoji":"üá≥üá±","flag":"https://commons.wikimedia.org/wiki/Special:FilePath/Flag_of_the_Netherlands.svg","geo":{"latitude":52.5,"longitude":5.75,"area":41850},"languages":{"primaryLanguage":{"code":"nl","name":"Dutch","native_name":"Nederlands"},"spokenLanguages":[{"code":"nl","name":"Dutch","native_name":"Nederlands"}]},"locale":{"default":"nl-NL","locales":["nl-NL"]},"numeric":"528","region":"Western Europe","tld":[".nl"]},{"name":{"common":"New Caledonia","official":"New Caledonia","native":"Nouvelle-Cal√©donie"},"alpha2":"NC","alpha3":"NCL","capital":"Noum√©a","continent":"Oceania","currencies":[{"name":"CFP Franc","code":"XPF"}],"dialingCodes":[687],"emoji":"üá≥üá®","flag":"https://commons.wikimedia.org/wiki/Special:FilePath/Flag_of_New_Caledonia.svg","geo":{"latitude":-21.5,"longitude":165.5,"area":18575},"languages":{"primaryLanguage":{"code":"fr","name":"French","native_name":"fran√ßais"},"spokenLanguages":[{"code":"fr","name":"French","native_name":"fran√ßais"}]},"locale":{"default":"fr-NC","locales":["fr-NC"]},"numeric":"540","region":"Pacific","tld":[".nc"]},{"name":{"common":"New Zealand","official":"New Zealand","native":"New Zealand"},"alpha2":"NZ","alpha3":"NZL","capital":"Wellington","continent":"Oceania","currencies":[{"name":"New Zealand Dollar","code":"NZD"}],"dialingCodes":[64],"emoji":"üá≥üáø","flag":"https://commons.wikimedia.org/wiki/Special:FilePath/Flag_of_New_Zealand.svg","geo":{"latitude":-41,"longitude":174,"area":270467},"languages":{"primaryLanguage":{"code":"en","name":"English","native_name":"English"},"spokenLanguages":[{"code":"en","name":"English","native_name":"English"},{"code":"mi","name":"MƒÅori","native_name":"te reo MƒÅori"}]},"locale":{"default":"en-NZ","locales":["en-NZ","mi-NZ"]},"numeric":"554","region":"Pacific","tld":[".nz"]},{"name":{"common":"Nicaragua","official":"Republic of Nicaragua","native":"Nicaragua"},"alpha2":"NI","alpha3":"NIC","capital":"Managua","continent":"Americas","currencies":[{"name":"Nicaraguan C√≥rdoba","code":"NIO"}],"dialingCodes":[505],"emoji":"üá≥üáÆ","flag":"https://commons.wikimedia.org/wiki/Special:FilePath/Flag_of_Nicaragua.svg","geo":{"latitude":13,"longitude":-85,"area":130373},"languages":{"primaryLanguage":{"code":"es","name":"Spanish","native_name":"Espa√±ol"},"spokenLanguages":[{"code":"es","name":"Spanish","native_name":"Espa√±ol"}]},"locale":{"default":"es-NI","locales":["es-NI"]},"numeric":"558","region":"Central America","tld":[".ni"]},{"name":{"common":"Niger","official":"Republic of Niger","native":"Niger"},"alpha2":"NE","alpha3":"NER","capital":"Niamey","continent":"Africa","currencies":[{"name":"West African CFA Franc","code":"XOF"}],"dialingCodes":[227],"emoji":"üá≥üá™","flag":"https://commons.wikimedia.org/wiki/Special:FilePath/Flag_of_Niger.svg","geo":{"latitude":16,"longitude":8,"area":1267000},"languages":{"primaryLanguage":{"code":"fr","name":"French","native_name":"fran√ßais"},"spokenLanguages":[{"code":"fr","name":"French","native_name":"fran√ßais"}]},"locale":{"default":"fr-NE","locales":["fr-NE"]},"numeric":"562","region":"Western Africa","tld":[".ne"]},{"name":{"common":"Nigeria","official":"Federal Republic of Nigeria","native":"Nigeria"},"alpha2":"NG","alpha3":"NGA","capital":"Abuja","continent":"Africa","currencies":[{"name":"Nigerian Naira","code":"NGN"}],"dialingCodes":[234],"emoji":"üá≥üá¨","flag":"https://commons.wikimedia.org/wiki/Special:FilePath/Flag_of_Nigeria.svg","geo":{"latitude":10,"longitude":8,"area":923768},"languages":{"primaryLanguage":{"code":"en","name":"English","native_name":"English"},"spokenLanguages":[{"code":"en","name":"English","native_name":"English"}]},"locale":{"default":"en-NG","locales":["en-NG"]},"numeric":"566","region":"Western Africa","tld":[".ng"]},{"name":{"common":"Niue","official":"Niue","native":"Niuƒì"},"alpha2":"NU","alpha3":"NIU","capital":"Alofi","continent":"Oceania","currencies":[{"name":"New Zealand Dollar","code":"NZD"}],"dialingCodes":[683],"emoji":"üá≥üá∫","flag":"https://commons.wikimedia.org/wiki/Special:FilePath/Flag_of_Niue.svg","geo":{"latitude":-19.03333333,"longitude":-169.86666666,"area":260},"languages":{"primaryLanguage":{"code":"en","name":"English","native_name":"English"},"spokenLanguages":[{"code":"en","name":"English","native_name":"English"}]},"locale":{"default":"en-NU","locales":["en-NU"]},"numeric":"570","region":"Pacific","tld":[".nu"]},{"name":{"common":"Norfolk Island","official":"Territory of Norfolk Island","native":"Norfolk Island"},"alpha2":"NF","alpha3":"NFK","capital":"Kingston","continent":"Oceania","currencies":[{"name":"Australian Dollar","code":"AUD"}],"dialingCodes":[672],"emoji":"üá≥üá´","flag":"https://commons.wikimedia.org/wiki/Special:FilePath/Flag_of_Norfolk_Island.svg","geo":{"latitude":-29.03333333,"longitude":167.95,"area":36},"languages":{"primaryLanguage":{"code":"en","name":"English","native_name":"English"},"spokenLanguages":[{"code":"en","name":"English","native_name":"English"}]},"locale":{"default":"en-NF","locales":["en-NF"]},"numeric":"574","region":"Pacific","tld":[".nf"]},{"name":{"common":"North Macedonia","official":"Republic of North Macedonia","native":"–°–µ–≤–µ—Ä–Ω–∞ –ú–∞–∫–µ–¥–æ–Ω–∏—ò–∞"},"alpha2":"MK","alpha3":"MKD","capital":"Skopje","continent":"Europe","currencies":[{"name":"Denar","code":"MKD"}],"dialingCodes":[389],"emoji":"üá≤üá∞","flag":"https://commons.wikimedia.org/wiki/Special:FilePath/Flag_of_North_Macedonia.svg","geo":{"latitude":41.83333333,"longitude":22,"area":25713},"languages":{"primaryLanguage":{"code":"mk","name":"Macedonian","native_name":"–º–∞–∫–µ–¥–æ–Ω—Å–∫–∏ —ò–∞–∑–∏–∫"},"spokenLanguages":[{"code":"mk","name":"Macedonian","native_name":"–º–∞–∫–µ–¥–æ–Ω—Å–∫–∏ —ò–∞–∑–∏–∫"}]},"locale":{"default":"mk-MK","locales":["mk-MK"]},"numeric":"807","region":"South East Europe","tld":[".mk"]},{"name":{"common":"Northern Mariana Islands","official":"Commonwealth of the Northern Mariana Islands","native":"Northern Mariana Islands"},"alpha2":"MP","alpha3":"MNP","capital":"Saipan","continent":"Oceania","currencies":[{"name":"United States Dollar","code":"USD"}],"dialingCodes":[1670],"emoji":"üá≤üáµ","flag":"https://commons.wikimedia.org/wiki/Special:FilePath/Flag_of_the_Northern_Mariana_Islands.svg","geo":{"latitude":15.2,"longitude":145.75,"area":464},"languages":{"primaryLanguage":{"code":"en","name":"English","native_name":"English"},"spokenLanguages":[{"code":"en","name":"English","native_name":"English"},{"code":"ch","name":"Chamorro","native_name":"Chamoru"}]},"locale":{"default":"ch-MP","locales":["en-MP","ch-MP"]},"numeric":"580","region":"Pacific","tld":[".mp"]},{"name":{"common":"Norway","official":"Kingdom of Norway","native":"Norge"},"alpha2":"NO","alpha3":"NOR","capital":"Oslo","continent":"Europe","currencies":[{"name":"Norwegian Krone","code":"NOK"}],"dialingCodes":[47],"emoji":"üá≥üá¥","flag":"https://commons.wikimedia.org/wiki/Special:FilePath/Flag_of_Norway.svg","geo":{"latitude":62,"longitude":10,"area":323802},"languages":{"primaryLanguage":{"code":"no","name":"Norwegian","native_name":"Norsk"},"spokenLanguages":[{"code":"no","name":"Norwegian","native_name":"Norsk"},{"code":"nb","name":"Norwegian Bokm√•l","native_name":"Norsk bokm√•l"},{"code":"nn","name":"Norwegian Nynorsk","native_name":"Norsk nynorsk"}]},"locale":{"default":"nn-NO","locales":["no-NO","nb-NO","nn-NO"]},"numeric":"578","region":"Northern Europe","tld":[".no"]},{"name":{"common":"Oman","official":"Sultanate of Oman","native":"ÿπŸÖÿßŸÜ"},"alpha2":"OM","alpha3":"OMN","capital":"Muscat","continent":"Asia","currencies":[{"name":"Omani Rial","code":"OMR"}],"dialingCodes":[968],"emoji":"üá¥üá≤","flag":"https://commons.wikimedia.org/wiki/Special:FilePath/Flag_of_Oman.svg","geo":{"latitude":21,"longitude":57,"area":309500},"languages":{"primaryLanguage":{"code":"ar","name":"Arabic","native_name":"ÿßŸÑÿπÿ±ÿ®Ÿäÿ©"},"spokenLanguages":[{"code":"ar","name":"Arabic","native_name":"ÿßŸÑÿπÿ±ÿ®Ÿäÿ©"}]},"locale":{"default":"ar-OM","locales":["ar-OM"]},"numeric":"512","region":"South West Asia","tld":[".om"]},{"name":{"common":"Pakistan","official":"Islamic Republic of Pakistan","native":"Pakistan"},"alpha2":"PK","alpha3":"PAK","capital":"Islamabad","continent":"Asia","currencies":[{"name":"Pakistani Rupee","code":"PKR"}],"dialingCodes":[92],"emoji":"üáµüá∞","flag":"https://commons.wikimedia.org/wiki/Special:FilePath/Flag_of_Pakistan.svg","geo":{"latitude":30,"longitude":70,"area":881912},"languages":{"primaryLanguage":{"code":"ur","name":"Urdu","native_name":"ÿßÿ±ÿØŸà"},"spokenLanguages":[{"code":"ur","name":"Urdu","native_name":"ÿßÿ±ÿØŸà"},{"code":"en","name":"English","native_name":"English"}]},"locale":{"default":"en-PK","locales":["ur-PK","en-PK"]},"numeric":"586","region":"South Asia","tld":[".pk"]},{"name":{"common":"Palau","official":"Republic of Palau","native":"Palau"},"alpha2":"PW","alpha3":"PLW","capital":"Ngerulmud","continent":"Oceania","currencies":[{"name":"United States Dollar","code":"USD"}],"dialingCodes":[680],"emoji":"üáµüáº","flag":"https://commons.wikimedia.org/wiki/Special:FilePath/Flag_of_Palau.svg","geo":{"latitude":7.5,"longitude":134.5,"area":459},"languages":{"primaryLanguage":{"code":"en","name":"English","native_name":"English"},"spokenLanguages":[{"code":"en","name":"English","native_name":"English"}]},"locale":{"default":"en-PW","locales":["en-PW"]},"numeric":"585","region":"Pacific","tld":[".pw"]},{"name":{"common":"Palestine","official":"State of Palestine","native":"ŸÅŸÑÿ≥ÿ∑ŸäŸÜ"},"alpha2":"PS","alpha3":"PSE","capital":"Ramallah","continent":"Asia","currencies":[{"name":"Egyptian Pound","code":"EGP"},{"name":"Israeli New Shekel","code":"ILS"},{"name":"Jordanian Dinar","code":"JOD"}],"dialingCodes":[970],"emoji":"üáµüá∏","flag":"https://commons.wikimedia.org/wiki/Special:FilePath/Flag_of_Palestine.svg","geo":{"latitude":31.9,"longitude":35.2,"area":6220},"languages":{"primaryLanguage":{"code":"ar","name":"Arabic","native_name":"ÿßŸÑÿπÿ±ÿ®Ÿäÿ©"},"spokenLanguages":[{"code":"ar","name":"Arabic","native_name":"ÿßŸÑÿπÿ±ÿ®Ÿäÿ©"}]},"locale":{"default":"ar-PS","locales":["ar-PS"]},"numeric":"275","region":"South West Asia","tld":[".ps","ŸÅŸÑÿ≥ÿ∑ŸäŸÜ."]},{"name":{"common":"Panama","official":"Republic of Panama","native":"Panam√°"},"alpha2":"PA","alpha3":"PAN","capital":"Panama City","continent":"Americas","currencies":[{"name":"Panamanian Balboa","code":"PAB"},{"name":"United States Dollar","code":"USD"}],"dialingCodes":[507],"emoji":"üáµüá¶","flag":"https://commons.wikimedia.org/wiki/Special:FilePath/Flag_of_Panama.svg","geo":{"latitude":9,"longitude":-80,"area":75417},"languages":{"primaryLanguage":{"code":"es","name":"Spanish","native_name":"Espa√±ol"},"spokenLanguages":[{"code":"es","name":"Spanish","native_name":"Espa√±ol"}]},"locale":{"default":"es-PA","locales":["es-PA"]},"numeric":"591","region":"Central America","tld":[".pa"]},{"name":{"common":"Papua New Guinea","official":"Independent State of Papua New Guinea","native":"Papua Niugini"},"alpha2":"PG","alpha3":"PNG","capital":"Port Moresby","continent":"Oceania","currencies":[{"name":"Papua New Guinean Kina","code":"PGK"}],"dialingCodes":[675],"emoji":"üáµüá¨","flag":"https://commons.wikimedia.org/wiki/Special:FilePath/Flag_of_Papua_New_Guinea.svg","geo":{"latitude":-6,"longitude":147,"area":462840},"languages":{"primaryLanguage":{"code":"en","name":"English","native_name":"English"},"spokenLanguages":[{"code":"en","name":"English","native_name":"English"}]},"locale":{"default":"en-PG","locales":["en-PG"]},"numeric":"598","region":"Pacific","tld":[".pg"]},{"name":{"common":"Paraguay","official":"Republic of Paraguay","native":"Paraguay"},"alpha2":"PY","alpha3":"PRY","capital":"Asunci√≥n","continent":"Americas","currencies":[{"name":"Paraguayan Guaran√≠","code":"PYG"}],"dialingCodes":[595],"emoji":"üáµüáæ","flag":"https://commons.wikimedia.org/wiki/Special:FilePath/Flag_of_Paraguay.svg","geo":{"latitude":-23,"longitude":-58,"area":406752},"languages":{"primaryLanguage":{"code":"es","name":"Spanish","native_name":"Espa√±ol"},"spokenLanguages":[{"code":"es","name":"Spanish","native_name":"Espa√±ol"},{"code":"gn","name":"Guaran√≠","native_name":"Ava√±e'·∫Ω"}]},"locale":{"default":"gn-PY","locales":["es-PY","gn-PY"]},"numeric":"600","region":"South America","tld":[".py"]},{"name":{"common":"Peru","official":"Republic of Peru","native":"Per√∫"},"alpha2":"PE","alpha3":"PER","capital":"Lima","continent":"Americas","currencies":[{"name":"Peruvian Sol","code":"PEN"}],"dialingCodes":[51],"emoji":"üáµüá™","flag":"https://commons.wikimedia.org/wiki/Special:FilePath/Flag_of_Peru.svg","geo":{"latitude":-10,"longitude":-76,"area":1285216},"languages":{"primaryLanguage":{"code":"es","name":"Spanish","native_name":"Espa√±ol"},"spokenLanguages":[{"code":"es","name":"Spanish","native_name":"Espa√±ol"}]},"locale":{"default":"es-PE","locales":["es-PE"]},"numeric":"604","region":"South America","tld":[".pe"]},{"name":{"common":"Philippines","official":"Republic of the Philippines","native":"Pilipinas"},"alpha2":"PH","alpha3":"PHL","capital":"Manila","continent":"Asia","currencies":[{"name":"Philippine Peso","code":"PHP"}],"dialingCodes":[63],"emoji":"üáµüá≠","flag":"https://commons.wikimedia.org/wiki/Special:FilePath/Flag_of_the_Philippines.svg","geo":{"latitude":13,"longitude":122,"area":342353},"languages":{"primaryLanguage":{"code":"en","name":"English","native_name":"English"},"spokenLanguages":[{"code":"en","name":"English","native_name":"English"}]},"locale":{"default":"en-PH","locales":["en-PH"]},"numeric":"608","region":"South East Asia","tld":[".ph"]},{"name":{"common":"Pitcairn Islands","official":"Pitcairn Group of Islands","native":"Pitcairn Islands"},"alpha2":"PN","alpha3":"PCN","capital":"Adamstown","continent":"Oceania","currencies":[{"name":"New Zealand Dollar","code":"NZD"}],"dialingCodes":[64],"emoji":"üáµüá≥","flag":"https://commons.wikimedia.org/wiki/Special:FilePath/Flag_of_the_Pitcairn_Islands.svg","geo":{"latitude":-25.06666666,"longitude":-130.1,"area":47},"languages":{"primaryLanguage":{"code":"en","name":"English","native_name":"English"},"spokenLanguages":[{"code":"en","name":"English","native_name":"English"}]},"locale":{"default":"en-PN","locales":["en-PN"]},"numeric":"612","region":"Pacific","tld":[".pn"]},{"name":{"common":"Poland","official":"Republic of Poland","native":"Polska"},"alpha2":"PL","alpha3":"POL","capital":"Warsaw","continent":"Europe","currencies":[{"name":"Polish Z≈Çoty","code":"PLN"}],"dialingCodes":[48],"emoji":"üáµüá±","flag":"https://commons.wikimedia.org/wiki/Special:FilePath/Flag_of_Poland.svg","geo":{"latitude":52,"longitude":20,"area":312679},"languages":{"primaryLanguage":{"code":"pl","name":"Polish","native_name":"polski"},"spokenLanguages":[{"code":"pl","name":"Polish","native_name":"polski"}]},"locale":{"default":"pl-PL","locales":["pl-PL"]},"numeric":"616","region":"Eastern Europe","tld":[".pl"]},{"name":{"common":"Portugal","official":"Portuguese Republic","native":"Portugal"},"alpha2":"PT","alpha3":"PRT","capital":"Lisbon","continent":"Europe","currencies":[{"name":"Euro","code":"EUR"}],"dialingCodes":[351],"emoji":"üáµüáπ","flag":"https://commons.wikimedia.org/wiki/Special:FilePath/Flag_of_Portugal.svg","geo":{"latitude":39.5,"longitude":-8,"area":92090},"languages":{"primaryLanguage":{"code":"pt","name":"Portuguese","native_name":"Portugu√™s"},"spokenLanguages":[{"code":"pt","name":"Portuguese","native_name":"Portugu√™s"}]},"locale":{"default":"pt-PT","locales":["pt-PT"]},"numeric":"620","region":"South West Europe","tld":[".pt"]},{"name":{"common":"Puerto Rico","official":"Commonwealth of Puerto Rico","native":"Puerto Rico"},"alpha2":"PR","alpha3":"PRI","capital":"San Juan","continent":"Americas","currencies":[{"name":"United States Dollar","code":"USD"}],"dialingCodes":[1787,1939],"emoji":"üáµüá∑","flag":"https://commons.wikimedia.org/wiki/Special:FilePath/Flag_of_Puerto_Rico.svg","geo":{"latitude":18.25,"longitude":-66.5,"area":8870},"languages":{"primaryLanguage":{"code":"es","name":"Spanish","native_name":"Espa√±ol"},"spokenLanguages":[{"code":"es","name":"Spanish","native_name":"Espa√±ol"},{"code":"en","name":"English","native_name":"English"}]},"locale":{"default":"en-PR","locales":["es-PR","en-PR"]},"numeric":"630","region":"West Indies","tld":[".pr"]},{"name":{"common":"Qatar","official":"State of Qatar","native":"ŸÇÿ∑ÿ±"},"alpha2":"QA","alpha3":"QAT","capital":"Doha","continent":"Asia","currencies":[{"name":"Qatari Riyal","code":"QAR"}],"dialingCodes":[974],"emoji":"üá∂üá¶","flag":"https://commons.wikimedia.org/wiki/Special:FilePath/Flag_of_Qatar.svg","geo":{"latitude":25.5,"longitude":51.25,"area":11586},"languages":{"primaryLanguage":{"code":"ar","name":"Arabic","native_name":"ÿßŸÑÿπÿ±ÿ®Ÿäÿ©"},"spokenLanguages":[{"code":"ar","name":"Arabic","native_name":"ÿßŸÑÿπÿ±ÿ®Ÿäÿ©"}]},"locale":{"default":"ar-QA","locales":["ar-QA"]},"numeric":"634","region":"South West Asia","tld":[".qa","ŸÇÿ∑ÿ±."]},{"name":{"common":"Romania","official":"Romania","native":"Rom√¢nia"},"alpha2":"RO","alpha3":"ROU","capital":"Bucharest","continent":"Europe","currencies":[{"name":"Romanian Leu","code":"RON"}],"dialingCodes":[40],"emoji":"üá∑üá¥","flag":"https://commons.wikimedia.org/wiki/Special:FilePath/Flag_of_Romania.svg","geo":{"latitude":46,"longitude":25,"area":238391},"languages":{"primaryLanguage":{"code":"ro","name":"Romanian","native_name":"Rom√¢nƒÉ"},"spokenLanguages":[{"code":"ro","name":"Romanian","native_name":"Rom√¢nƒÉ"}]},"locale":{"default":"ro-RO","locales":["ro-RO"]},"numeric":"642","region":"South East Europe","tld":[".ro"]},{"name":{"common":"Russia","official":"Russian Federation","native":"–†–æ—Å—Å–∏—è"},"alpha2":"RU","alpha3":"RUS","capital":"Moscow","continent":"Asia","currencies":[{"name":"Russian Ruble","code":"RUB"}],"dialingCodes":[7],"emoji":"üá∑üá∫","flag":"https://commons.wikimedia.org/wiki/Special:FilePath/Flag_of_Russia.svg","geo":{"latitude":60,"longitude":100,"area":17098242},"languages":{"primaryLanguage":{"code":"ru","name":"Russian","native_name":"–†—É—Å—Å–∫–∏–π"},"spokenLanguages":[{"code":"ru","name":"Russian","native_name":"–†—É—Å—Å–∫–∏–π"}]},"locale":{"default":"ru-RU","locales":["ru-RU"]},"numeric":"643","region":"Northern Asia","tld":[".ru",".su",".—Ä—Ñ"]},{"name":{"common":"Rwanda","official":"Republic of Rwanda","native":"Rwanda"},"alpha2":"RW","alpha3":"RWA","capital":"Kigali","continent":"Africa","currencies":[{"name":"Rwandan Franc","code":"RWF"}],"dialingCodes":[250],"emoji":"üá∑üáº","flag":"https://commons.wikimedia.org/wiki/Special:FilePath/Flag_of_Rwanda.svg","geo":{"latitude":-2,"longitude":30,"area":26338},"languages":{"primaryLanguage":{"code":"rw","name":"Kinyarwanda","native_name":"Ikinyarwanda"},"spokenLanguages":[{"code":"rw","name":"Kinyarwanda","native_name":"Ikinyarwanda"},{"code":"en","name":"English","native_name":"English"},{"code":"fr","name":"French","native_name":"fran√ßais"}]},"locale":{"default":"en-RW","locales":["rw-RW","en-RW","fr-RW"]},"numeric":"646","region":"Central Africa","tld":[".rw"]},{"name":{"common":"R√©union","official":"R√©union Island","native":"La R√©union"},"alpha2":"RE","alpha3":"REU","capital":"Saint-Denis","continent":"Africa","currencies":[{"name":"Euro","code":"EUR"}],"dialingCodes":[262],"emoji":"üá∑üá™","flag":"https://commons.wikimedia.org/wiki/Special:FilePath/Flag_of_R%C3%A9union.svg","geo":{"latitude":-21.15,"longitude":55.5,"area":2511},"languages":{"primaryLanguage":{"code":"fr","name":"French","native_name":"fran√ßais"},"spokenLanguages":[{"code":"fr","name":"French","native_name":"fran√ßais"}]},"locale":{"default":"fr-RE","locales":["fr-RE"]},"numeric":"638","region":"Indian Ocean","tld":[".re"]},{"name":{"common":"Saint Barth√©lemy","official":"Collectivity of Saint Barth√©lemy","native":"Saint-Barth√©lemy"},"alpha2":"BL","alpha3":"BLM","capital":"Gustavia","continent":"Americas","currencies":[{"name":"Euro","code":"EUR"}],"dialingCodes":[590],"emoji":"üáßüá±","flag":"https://commons.wikimedia.org/wiki/Special:FilePath/Flag_of_Saint_Barth%C3%A9lemy.svg","geo":{"latitude":18.5,"longitude":-63.41666666,"area":21},"languages":{"primaryLanguage":{"code":"fr","name":"French","native_name":"fran√ßais"},"spokenLanguages":[{"code":"fr","name":"French","native_name":"fran√ßais"}]},"locale":{"default":"fr-BL","locales":["fr-BL"]},"numeric":"652","region":"West Indies","tld":[".bl"]},{"name":{"common":"Saint Helena, Ascension and Tristan da Cunha","official":"Saint Helena, Ascension and Tristan da Cunha","native":"Saint Helena"},"alpha2":"SH","alpha3":"SHN","capital":"Jamestown","continent":"Atlantic Ocean","currencies":[{"name":"Pound Sterling","code":"GBP"},{"name":"Saint Helena Pound","code":"SHP"}],"dialingCodes":[290],"emoji":" üá∏üá≠","flag":"https://commons.wikimedia.org/wiki/Special:FilePath/Flag_of_Saint_Helena.svg","geo":{"latitude":-15.95,"longitude":-5.72,"area":394},"languages":{"primaryLanguage":{"code":"en","name":"English","native_name":"English"},"spokenLanguages":[{"code":"en","name":"English","native_name":"English"}]},"locale":{"default":"en-SH","locales":["en-SH"]},"numeric":"654","region":"South Atlantic Ocean","tld":[".sh",".ac"]},{"name":{"common":"Saint Kitts and Nevis","official":"Federation of Saint Christopher and Nevis","native":"Saint Kitts and Nevis"},"alpha2":"KN","alpha3":"KNA","capital":"Basseterre","continent":"Americas","currencies":[{"name":"Eastern Caribbean Dollar","code":"XCD"}],"dialingCodes":[1869],"emoji":"üá∞üá≥","flag":"https://commons.wikimedia.org/wiki/Special:FilePath/Flag_of_Saint_Kitts_and_Nevis.svg","geo":{"latitude":17.33333333,"longitude":-62.75,"area":261},"languages":{"primaryLanguage":{"code":"en","name":"English","native_name":"English"},"spokenLanguages":[{"code":"en","name":"English","native_name":"English"}]},"locale":{"default":"en-KN","locales":["en-KN"]},"numeric":"659","region":"West Indies","tld":[".kn"]},{"name":{"common":"Saint Lucia","official":"Saint Lucia","native":"Saint Lucia"},"alpha2":"LC","alpha3":"LCA","capital":"Castries","continent":"Americas","currencies":[{"name":"Eastern Caribbean Dollar","code":"XCD"}],"dialingCodes":[1758],"emoji":"üá±üá®","flag":"https://commons.wikimedia.org/wiki/Special:FilePath/Flag_of_Saint_Lucia.svg","geo":{"latitude":13.88333333,"longitude":-60.96666666,"area":616},"languages":{"primaryLanguage":{"code":"en","name":"English","native_name":"English"},"spokenLanguages":[{"code":"en","name":"English","native_name":"English"}]},"locale":{"default":"en-LC","locales":["en-LC"]},"numeric":"662","region":"West Indies","tld":[".lc"]},{"name":{"common":"Saint Martin","official":"Saint Martin","native":"Saint-Martin"},"alpha2":"MF","alpha3":"MAF","capital":"Marigot","continent":"Americas","currencies":[{"name":"Euro","code":"EUR"}],"dialingCodes":[590],"emoji":"üá≤üá´","flag":"https://commons.wikimedia.org/wiki/Special:FilePath/Flag_of_Saint_Martin.svg","geo":{"latitude":18.08333333,"longitude":-63.95,"area":53},"languages":{"primaryLanguage":{"code":"en","name":"English","native_name":"English"},"spokenLanguages":[{"code":"en","name":"English","native_name":"English"},{"code":"fr","name":"French","native_name":"fran√ßais"},{"code":"nl","name":"Dutch","native_name":"Nederlands"}]},"locale":{"default":"en-MF","locales":["en-MF","fr-MF","nl-MF"]},"numeric":"663","region":"West Indies","tld":[".fr",".gp"]},{"name":{"common":"Saint Pierre and Miquelon","official":"Saint Pierre and Miquelon","native":"Saint-Pierre-et-Miquelon"},"alpha2":"PM","alpha3":"SPM","capital":"Saint-Pierre","continent":"Americas","currencies":[{"name":"Euro","code":"EUR"}],"dialingCodes":[508],"emoji":"üáµüá≤","flag":"https://commons.wikimedia.org/wiki/Special:FilePath/Flag_of_Saint_Pierre_and_Miquelon.svg","geo":{"latitude":46.83333333,"longitude":-56.33333333,"area":242},"languages":{"primaryLanguage":{"code":"fr","name":"French","native_name":"fran√ßais"},"spokenLanguages":[{"code":"fr","name":"French","native_name":"fran√ßais"}]},"locale":{"default":"fr-PM","locales":["fr-PM"]},"numeric":"666","region":"North America","tld":[".pm"]},{"name":{"common":"Saint Vincent and the Grenadines","official":"Saint Vincent and the Grenadines","native":"Saint Vincent and the Grenadines"},"alpha2":"VC","alpha3":"VCT","capital":"Kingstown","continent":"Americas","currencies":[{"name":"Eastern Caribbean Dollar","code":"XCD"}],"dialingCodes":[1784],"emoji":"üáªüá®","flag":"https://commons.wikimedia.org/wiki/Special:FilePath/Flag_of_Saint_Vincent_and_the_Grenadines.svg","geo":{"latitude":13.25,"longitude":-61.2,"area":389},"languages":{"primaryLanguage":{"code":"en","name":"English","native_name":"English"},"spokenLanguages":[{"code":"en","name":"English","native_name":"English"}]},"locale":{"default":"en-VC","locales":["en-VC"]},"numeric":"670","region":"West Indies","tld":[".vc"]},{"name":{"common":"Samoa","official":"Independent State of Samoa","native":"Samoa"},"alpha2":"WS","alpha3":"WSM","capital":"Apia","continent":"Oceania","currencies":[{"name":"Samoan TƒÅlƒÅ","code":"WST"}],"dialingCodes":[685],"emoji":"üáºüá∏","flag":"https://commons.wikimedia.org/wiki/Special:FilePath/Flag_of_Samoa.svg","geo":{"latitude":-13.58333333,"longitude":-172.33333333,"area":2842},"languages":{"primaryLanguage":{"code":"sm","name":"Samoan","native_name":"gagana fa'a Samoa"},"spokenLanguages":[{"code":"sm","name":"Samoan","native_name":"gagana fa'a Samoa"},{"code":"en","name":"English","native_name":"English"}]},"locale":{"default":"en-WS","locales":["sm-WS","en-WS"]},"numeric":"882","region":"Pacific","tld":[".ws"]},{"name":{"common":"San Marino","official":"Most Serene Republic of San Marino","native":"San Marino"},"alpha2":"SM","alpha3":"SMR","capital":"City of San Marino","continent":"Europe","currencies":[{"name":"Euro","code":"EUR"}],"dialingCodes":[378],"emoji":"üá∏üá≤","flag":"https://commons.wikimedia.org/wiki/Special:FilePath/Flag_of_San_Marino.svg","geo":{"latitude":43.76666666,"longitude":12.41666666,"area":61},"languages":{"primaryLanguage":{"code":"it","name":"Italian","native_name":"Italiano"},"spokenLanguages":[{"code":"it","name":"Italian","native_name":"Italiano"}]},"locale":{"default":"it-SM","locales":["it-SM"]},"numeric":"674","region":"Southern Europe","tld":[".sm"]},{"name":{"common":"S√£o Tom√© and Pr√≠ncipe","official":"Democratic Republic of S√£o Tom√© and Pr√≠ncipe","native":"S√£o Tom√© e Pr√≠ncipe"},"alpha2":"ST","alpha3":"STP","capital":"S√£o Tom√©","continent":"Africa","currencies":[{"name":"S√£o Tom√© And Pr√≠ncipe Dobra","code":"STN"}],"dialingCodes":[239],"emoji":"üá∏üáπ","flag":"https://commons.wikimedia.org/wiki/Special:FilePath/Flag_of_S%C3%A3o_Tom%C3%A9_and_Pr%C3%ADncipe.svg","geo":{"latitude":1,"longitude":7,"area":964},"languages":{"primaryLanguage":{"code":"pt","name":"Portuguese","native_name":"Portugu√™s"},"spokenLanguages":[{"code":"pt","name":"Portuguese","native_name":"Portugu√™s"}]},"locale":{"default":"pt-ST","locales":["pt-ST"]},"numeric":"678","region":"Western Africa","tld":[".st"]},{"name":{"common":"Saudi Arabia","official":"Kingdom of Saudi Arabia","native":"ÿßŸÑÿπÿ±ÿ®Ÿäÿ© ÿßŸÑÿ≥ÿπŸàÿØŸäÿ©"},"alpha2":"SA","alpha3":"SAU","capital":"Riyadh","continent":"Asia","currencies":[{"name":"Saudi Riyal","code":"SAR"}],"dialingCodes":[966],"emoji":"üá∏üá¶","flag":"https://commons.wikimedia.org/wiki/Special:FilePath/Flag_of_Saudi_Arabia.svg","geo":{"latitude":25,"longitude":45,"area":2149690},"languages":{"primaryLanguage":{"code":"ar","name":"Arabic","native_name":"ÿßŸÑÿπÿ±ÿ®Ÿäÿ©"},"spokenLanguages":[{"code":"ar","name":"Arabic","native_name":"ÿßŸÑÿπÿ±ÿ®Ÿäÿ©"}]},"locale":{"default":"ar-SA","locales":["ar-SA"]},"numeric":"682","region":"South West Asia","tld":[".sa",".ÿßŸÑÿ≥ÿπŸàÿØŸäÿ©"]},{"name":{"common":"Senegal","official":"Republic of Senegal","native":"S√©n√©gal"},"alpha2":"SN","alpha3":"SEN","capital":"Dakar","continent":"Africa","currencies":[{"name":"West African CFA Franc","code":"XOF"}],"dialingCodes":[221],"emoji":"üá∏üá≥","flag":"https://commons.wikimedia.org/wiki/Special:FilePath/Flag_of_Senegal.svg","geo":{"latitude":14,"longitude":-14,"area":196722},"languages":{"primaryLanguage":{"code":"fr","name":"French","native_name":"fran√ßais"},"spokenLanguages":[{"code":"fr","name":"French","native_name":"fran√ßais"}]},"locale":{"default":"fr-SN","locales":["fr-SN"]},"numeric":"686","region":"Western Africa","tld":[".sn"]},{"name":{"common":"Serbia","official":"Republic of Serbia","native":"–°—Ä–±–∏—ò–∞"},"alpha2":"RS","alpha3":"SRB","capital":"Belgrade","continent":"Europe","currencies":[{"name":"Serbian Dinar","code":"RSD"}],"dialingCodes":[381],"emoji":"üá∑üá∏","flag":"https://commons.wikimedia.org/wiki/Special:FilePath/Flag_of_Serbia.svg","geo":{"latitude":44,"longitude":21,"area":88361},"languages":{"primaryLanguage":{"code":"sr","name":"Serbian","native_name":"—Å—Ä–ø—Å–∫–∏ —ò–µ–∑–∏–∫"},"spokenLanguages":[{"code":"sr","name":"Serbian","native_name":"—Å—Ä–ø—Å–∫–∏ —ò–µ–∑–∏–∫"}]},"locale":{"default":"sr-RS","locales":["sr-RS"]},"numeric":"688","region":"South East Europe","tld":[".rs",".—Å—Ä–±"]},{"name":{"common":"Seychelles","official":"Republic of Seychelles","native":"Seychelles"},"alpha2":"SC","alpha3":"SYC","capital":"Victoria","continent":"Africa","currencies":[{"name":"Seychellois Rupee","code":"SCR"}],"dialingCodes":[248],"emoji":"üá∏üá®","flag":"https://commons.wikimedia.org/wiki/Special:FilePath/Flag_of_Seychelles.svg","geo":{"latitude":-4.58333333,"longitude":55.66666666,"area":452},"languages":{"primaryLanguage":{"code":"fr","name":"French","native_name":"fran√ßais"},"spokenLanguages":[{"code":"fr","name":"French","native_name":"fran√ßais"},{"code":"en","name":"English","native_name":"English"}]},"locale":{"default":"en-SC","locales":["fr-SC","en-SC"]},"numeric":"690","region":"Indian Ocean","tld":[".sc"]},{"name":{"common":"Sierra Leone","official":"Republic of Sierra Leone","native":"Sierra Leone"},"alpha2":"SL","alpha3":"SLE","capital":"Freetown","continent":"Africa","currencies":[{"name":"Sierra Leonean Leone","code":"SLL"}],"dialingCodes":[232],"emoji":"üá∏üá±","flag":"https://commons.wikimedia.org/wiki/Special:FilePath/Flag_of_Sierra_Leone.svg","geo":{"latitude":8.5,"longitude":-11.5,"area":71740},"languages":{"primaryLanguage":{"code":"en","name":"English","native_name":"English"},"spokenLanguages":[{"code":"en","name":"English","native_name":"English"}]},"locale":{"default":"en-SL","locales":["en-SL"]},"numeric":"694","region":"Western Africa","tld":[".sl"]},{"name":{"common":"Singapore","official":"Republic of Singapore","native":"Singapore"},"alpha2":"SG","alpha3":"SGP","capital":"Singapore","continent":"Asia","currencies":[{"name":"Singapore Dollar","code":"SGD"}],"dialingCodes":[65],"emoji":"üá∏üá¨","flag":"https://commons.wikimedia.org/wiki/Special:FilePath/Flag_of_Singapore.svg","geo":{"latitude":1.36666666,"longitude":103.8,"area":710},"languages":{"primaryLanguage":{"code":"en","name":"English","native_name":"English"},"spokenLanguages":[{"code":"en","name":"English","native_name":"English"},{"code":"ms","name":"Malay","native_name":"bahasa Melayu"},{"code":"ta","name":"Tamil","native_name":"‡Æ§‡ÆÆ‡Æø‡Æ¥‡Øç"},{"code":"zh","name":"Chinese","native_name":"‰∏≠Êñá (Zh≈çngw√©n)"}]},"locale":{"default":"en-SG","locales":["en-SG","ms-SG","ta-SG","zh-SG"]},"numeric":"702","region":"South East Asia","tld":[".sg",".Êñ∞Âä†Âù°",".‡Æö‡Æø‡Æô‡Øç‡Æï‡Æ™‡Øç‡Æ™‡ØÇ‡Æ∞‡Øç"]},{"name":{"common":"Sint Maarten","official":"Sint Maarten","native":"Sint Maarten"},"alpha2":"SX","alpha3":"SXM","capital":"Philipsburg","continent":"Americas","currencies":[{"name":"Netherlands Antillean Guilder","code":"ANG"}],"dialingCodes":[1721],"emoji":"üá∏üáΩ","flag":"https://commons.wikimedia.org/wiki/Special:FilePath/Flag_of_Sint_Maarten.svg","geo":{"latitude":18.033333,"longitude":-63.05,"area":34},"languages":{"primaryLanguage":{"code":"nl","name":"Dutch","native_name":"Nederlands"},"spokenLanguages":[{"code":"nl","name":"Dutch","native_name":"Nederlands"},{"code":"en","name":"English","native_name":"English"}]},"locale":{"default":"en-SX","locales":["nl-SX","en-SX"]},"numeric":"534","region":"West Indies","tld":[".sx"]},{"name":{"common":"Slovakia","official":"Slovak Republic","native":"Slovensko"},"alpha2":"SK","alpha3":"SVK","capital":"Bratislava","continent":"Europe","currencies":[{"name":"Euro","code":"EUR"}],"dialingCodes":[421],"emoji":"üá∏üá∞","flag":"https://commons.wikimedia.org/wiki/Special:FilePath/Flag_of_Slovakia.svg","geo":{"latitude":48.66666666,"longitude":19.5,"area":49037},"languages":{"primaryLanguage":{"code":"sk","name":"Slovak","native_name":"slovenƒçina"},"spokenLanguages":[{"code":"sk","name":"Slovak","native_name":"slovenƒçina"}]},"locale":{"default":"sk-SK","locales":["sk-SK"]},"numeric":"703","region":"Central Europe","tld":[".sk"]},{"name":{"common":"Slovenia","official":"Republic of Slovenia","native":"Slovenija"},"alpha2":"SI","alpha3":"SVN","capital":"Ljubljana","continent":"Europe","currencies":[{"name":"Euro","code":"EUR"}],"dialingCodes":[386],"emoji":"üá∏üáÆ","flag":"https://commons.wikimedia.org/wiki/Special:FilePath/Flag_of_Slovenia.svg","geo":{"latitude":46.11666666,"longitude":14.81666666,"area":20273},"languages":{"primaryLanguage":{"code":"sl","name":"Slovene","native_name":"slovenski jezik"},"spokenLanguages":[{"code":"sl","name":"Slovene","native_name":"slovenski jezik"}]},"locale":{"default":"sl-SI","locales":["sl-SI"]},"numeric":"705","region":"South East Europe","tld":[".si"]},{"name":{"common":"Solomon Islands","official":"Solomon Islands","native":"Solomon Islands"},"alpha2":"SB","alpha3":"SLB","capital":"Honiara","continent":"Oceania","currencies":[{"name":"Solomon Islands Dollar","code":"SBD"}],"dialingCodes":[677],"emoji":"üá∏üáß","flag":"https://commons.wikimedia.org/wiki/Special:FilePath/Flag_of_the_Solomon_Islands.svg","geo":{"latitude":-8,"longitude":159,"area":28896},"languages":{"primaryLanguage":{"code":"en","name":"English","native_name":"English"},"spokenLanguages":[{"code":"en","name":"English","native_name":"English"}]},"locale":{"default":"en-SB","locales":["en-SB"]},"numeric":"090","region":"Pacific","tld":[".sb"]},{"name":{"common":"Somalia","official":"Federal Republic of Somalia","native":"Soomaaliya"},"alpha2":"SO","alpha3":"SOM","capital":"Mogadishu","continent":"Africa","currencies":[{"name":"Somali Shilling","code":"SOS"}],"dialingCodes":[252],"emoji":"üá∏üá¥","flag":"https://commons.wikimedia.org/wiki/Special:FilePath/Flag_of_Somalia.svg","geo":{"latitude":10,"longitude":49,"area":637657},"languages":{"primaryLanguage":{"code":"so","name":"Somali","native_name":"Soomaaliga"},"spokenLanguages":[{"code":"so","name":"Somali","native_name":"Soomaaliga"},{"code":"ar","name":"Arabic","native_name":"ÿßŸÑÿπÿ±ÿ®Ÿäÿ©"}]},"locale":{"default":"ar-SO","locales":["so-SO","ar-SO"]},"numeric":"706","region":"Eastern Africa","tld":[".so"]},{"name":{"common":"South Africa","official":"Republic of South Africa","native":"South Africa"},"alpha2":"ZA","alpha3":"ZAF","capital":"Pretoria","continent":"Africa","currencies":[{"name":"South African Rand","code":"ZAR"}],"dialingCodes":[27],"emoji":"üáøüá¶","flag":"https://commons.wikimedia.org/wiki/Special:FilePath/Flag_of_South_Africa.svg","geo":{"latitude":-29,"longitude":24,"area":1221037},"languages":{"primaryLanguage":{"code":"af","name":"Afrikaans","native_name":"Afrikaans"},"spokenLanguages":[{"code":"af","name":"Afrikaans","native_name":"Afrikaans"},{"code":"en","name":"English","native_name":"English"},{"code":"nr","name":"Southern Ndebele","native_name":"isiNdebele"},{"code":"st","name":"Southern Sotho","native_name":"Sesotho"},{"code":"ss","name":"Swati","native_name":"SiSwati"},{"code":"tn","name":"Tswana","native_name":"Setswana"},{"code":"ts","name":"Tsonga","native_name":"Xitsonga"},{"code":"ve","name":"Venda","native_name":"Tshiven·∏ìa"},{"code":"xh","name":"Xhosa","native_name":"isiXhosa"},{"code":"zu","name":"Zulu","native_name":"isiZulu"}]},"locale":{"default":"af-ZA","locales":["af-ZA","en-ZA","nr-ZA","st-ZA","ss-ZA","tn-ZA","ts-ZA","ve-ZA","xh-ZA","zu-ZA"]},"numeric":"710","region":"Southern Africa","tld":[".za"]},{"name":{"common":"South Georgia","official":"South Georgia and the South Sandwich Islands","native":"South Georgia"},"alpha2":"GS","alpha3":"SGS","capital":"King Edward Point","continent":"Atlantic Ocean","currencies":[{"name":"Saint Helena Pound","code":"SHP"}],"dialingCodes":[500],"emoji":"üá¨üá∏","flag":"https://commons.wikimedia.org/wiki/Special:FilePath/Flag_of_South_Georgia_and_the_South_Sandwich_Islands.svg","geo":{"latitude":-54.5,"longitude":-37,"area":3903},"languages":{"primaryLanguage":{"code":"en","name":"English","native_name":"English"},"spokenLanguages":[{"code":"en","name":"English","native_name":"English"}]},"locale":{"default":"en-GS","locales":["en-GS"]},"numeric":"239","region":"South Atlantic Ocean","tld":[".gs"]},{"name":{"common":"South Sudan","official":"Republic of South Sudan","native":"South Sudan"},"alpha2":"SS","alpha3":"SSD","capital":"Juba","continent":"Africa","currencies":[{"name":"South Sudanese Pound","code":"SSP"}],"dialingCodes":[211],"emoji":"üá∏üá∏","flag":"https://commons.wikimedia.org/wiki/Special:FilePath/Flag_of_South_Sudan.svg","geo":{"latitude":7,"longitude":30,"area":619745},"languages":{"primaryLanguage":{"code":"en","name":"English","native_name":"English"},"spokenLanguages":[{"code":"en","name":"English","native_name":"English"}]},"locale":{"default":"en-SS","locales":["en-SS"]},"numeric":"728","region":"Northern Africa","tld":[".ss"]},{"name":{"common":"Spain","official":"Kingdom of Spain","native":"Espa√±a"},"alpha2":"ES","alpha3":"ESP","capital":"Madrid","continent":"Europe","currencies":[{"name":"Euro","code":"EUR"}],"dialingCodes":[34],"emoji":"üá™üá∏","flag":"https://commons.wikimedia.org/wiki/Special:FilePath/Flag_of_Spain.svg","geo":{"latitude":40,"longitude":-4,"area":505992},"languages":{"primaryLanguage":{"code":"es","name":"Spanish","native_name":"Espa√±ol"},"spokenLanguages":[{"code":"es","name":"Spanish","native_name":"Espa√±ol"}]},"locale":{"default":"es-ES","locales":["es-ES"]},"numeric":"724","region":"South West Europe","tld":[".es"]},{"name":{"common":"Sri Lanka","official":"Democratic Socialist Republic of Sri Lanka","native":"≈õrƒ´ la·πÉkƒÅva"},"alpha2":"LK","alpha3":"LKA","capital":"Colombo","continent":"Asia","currencies":[{"name":"Sri Lankan Rupee","code":"LKR"}],"dialingCodes":[94],"emoji":"üá±üá∞","flag":"https://commons.wikimedia.org/wiki/Special:FilePath/Flag_of_Sri_Lanka.svg","geo":{"latitude":7,"longitude":81,"area":65610},"languages":{"primaryLanguage":{"code":"si","name":"Sinhalese","native_name":"‡∑É‡∑í‡∂Ç‡∑Ñ‡∂Ω"},"spokenLanguages":[{"code":"si","name":"Sinhalese","native_name":"‡∑É‡∑í‡∂Ç‡∑Ñ‡∂Ω"},{"code":"ta","name":"Tamil","native_name":"‡Æ§‡ÆÆ‡Æø‡Æ¥‡Øç"}]},"locale":{"default":"si-LK","locales":["si-LK","ta-LK"]},"numeric":"144","region":"South Asia","tld":[".lk",".‡Æá‡Æ≤‡Æô‡Øç‡Æï‡Øà",".‡∂Ω‡∂Ç‡∂ö‡∑è"]},{"name":{"common":"Sudan","official":"Republic of the Sudan","native":"ÿßŸÑÿ≥ŸàÿØÿßŸÜ"},"alpha2":"SD","alpha3":"SDN","capital":"Khartoum","continent":"Africa","currencies":[{"name":"Sudanese Pound","code":"SDG"}],"dialingCodes":[249],"emoji":"üá∏üá©","flag":"https://commons.wikimedia.org/wiki/Special:FilePath/Flag_of_Sudan.svg","geo":{"latitude":15,"longitude":30,"area":1886068},"languages":{"primaryLanguage":{"code":"ar","name":"Arabic","native_name":"ÿßŸÑÿπÿ±ÿ®Ÿäÿ©"},"spokenLanguages":[{"code":"ar","name":"Arabic","native_name":"ÿßŸÑÿπÿ±ÿ®Ÿäÿ©"},{"code":"en","name":"English","native_name":"English"}]},"locale":{"default":"ar-SD","locales":["ar-SD","en-SD"]},"numeric":"729","region":"Northern Africa","tld":[".sd"]},{"name":{"common":"Suriname","official":"Republic of Suriname","native":"Suriname"},"alpha2":"SR","alpha3":"SUR","capital":"Paramaribo","continent":"Americas","currencies":[{"name":"Surinamese Dollar","code":"SRD"}],"dialingCodes":[597],"emoji":"üá∏üá∑","flag":"https://commons.wikimedia.org/wiki/Special:FilePath/Flag_of_Suriname.svg","geo":{"latitude":4,"longitude":-56,"area":163820},"languages":{"primaryLanguage":{"code":"nl","name":"Dutch","native_name":"Nederlands"},"spokenLanguages":[{"code":"nl","name":"Dutch","native_name":"Nederlands"}]},"locale":{"default":"nl-SR","locales":["nl-SR"]},"numeric":"740","region":"South America","tld":[".sr"]},{"name":{"common":"Svalbard and Jan Mayen","official":"Svalbard og Jan Mayen","native":"Svalbard og Jan Mayen"},"alpha2":"SJ","alpha3":"SJM","capital":"Longyearbyen","continent":"Europe","currencies":[{"name":"Krone","code":"NOK"}],"dialingCodes":[4779],"emoji":"üá∏üáØ","flag":"https://commons.wikimedia.org/wiki/Special:FilePath/Flag_of_Norway.svg","geo":{"latitude":78,"longitude":20,"area":-1},"languages":{"primaryLanguage":{"code":"no","name":"Norwegian","native_name":"Norsk"},"spokenLanguages":[{"code":"no","name":"Norwegian","native_name":"Norsk"}]},"locale":{"default":"no-SJ","locales":["no-SJ"]},"numeric":"744","region":"Northern Europe","tld":[".sj"]},{"name":{"common":"Sweden","official":"Kingdom of Sweden","native":"Sverige"},"alpha2":"SE","alpha3":"SWE","capital":"Stockholm","continent":"Europe","currencies":[{"name":"Swedish Krona","code":"SEK"}],"dialingCodes":[46],"emoji":"üá∏üá™","flag":"https://commons.wikimedia.org/wiki/Special:FilePath/Flag_of_Sweden.svg","geo":{"latitude":62,"longitude":15,"area":450295},"languages":{"primaryLanguage":{"code":"sv","name":"Swedish","native_name":"svenska"},"spokenLanguages":[{"code":"sv","name":"Swedish","native_name":"svenska"}]},"locale":{"default":"sv-SE","locales":["sv-SE"]},"numeric":"752","region":"Northern Europe","tld":[".se"]},{"name":{"common":"Switzerland","official":"Swiss Confederation","native":"Schweiz"},"alpha2":"CH","alpha3":"CHE","capital":"Bern","continent":"Europe","currencies":[{"name":"Swiss Franc","code":"CHF"}],"dialingCodes":[41],"emoji":"üá®üá≠","flag":"https://commons.wikimedia.org/wiki/Special:FilePath/Flag_of_Switzerland.svg","geo":{"latitude":47,"longitude":8,"area":41284},"languages":{"primaryLanguage":{"code":"de","name":"German","native_name":"Deutsch"},"spokenLanguages":[{"code":"de","name":"German","native_name":"Deutsch"},{"code":"fr","name":"French","native_name":"fran√ßais"},{"code":"it","name":"Italian","native_name":"Italiano"},{"code":"rm","name":"Romansh","native_name":"Rumantsch"}]},"locale":{"default":"de-CH","locales":["de-CH","fr-CH","it-CH","rm-CH"]},"numeric":"756","region":"Central Europe","tld":[".ch"]},{"name":{"common":"Syria","official":"Syrian Arab Republic","native":"ÿ≥Ÿàÿ±Ÿäÿß"},"alpha2":"SY","alpha3":"SYR","capital":"Damascus","continent":"Asia","currencies":[{"name":"Syrian Pound","code":"SYP"}],"dialingCodes":[963],"emoji":"üá∏üáæ","flag":"https://commons.wikimedia.org/wiki/Special:FilePath/Flag_of_Syria.svg","geo":{"latitude":35,"longitude":38,"area":185180},"languages":{"primaryLanguage":{"code":"ar","name":"Arabic","native_name":"ÿßŸÑÿπÿ±ÿ®Ÿäÿ©"},"spokenLanguages":[{"code":"ar","name":"Arabic","native_name":"ÿßŸÑÿπÿ±ÿ®Ÿäÿ©"}]},"locale":{"default":"ar-SY","locales":["ar-SY"]},"numeric":"760","region":"South West Asia","tld":[".sy","ÿ≥Ÿàÿ±Ÿäÿß."]},{"name":{"common":"Taiwan","official":"Republic of China (Taiwan)","native":"Ëá∫ÁÅ£"},"alpha2":"TW","alpha3":"TWN","capital":"Taipei","continent":"Asia","currencies":[{"name":"New Taiwan Dollar","code":"TWD"}],"dialingCodes":[886],"emoji":"üáπüáº","flag":"https://commons.wikimedia.org/wiki/Special:FilePath/Flag_of_Taiwan.svg","geo":{"latitude":23.5,"longitude":121,"area":36193},"languages":{"primaryLanguage":{"code":"zh","name":"Chinese","native_name":"‰∏≠Êñá (Zh≈çngw√©n)"},"spokenLanguages":[{"code":"zh","name":"Chinese","native_name":"‰∏≠Êñá (Zh≈çngw√©n)"}]},"locale":{"default":"zh-TW","locales":["zh-TW"]},"numeric":"158","region":"East Asia","tld":[".tw",".Âè∞ÁÅ£",".Âè∞ Êπæ"]},{"name":{"common":"Tajikistan","official":"Republic of Tajikistan","native":"–¢–æ“∑–∏–∫–∏—Å—Ç–æ–Ω"},"alpha2":"TJ","alpha3":"TJK","capital":"Dushanbe","continent":"Asia","currencies":[{"name":"Tajikistani Somoni","code":"TJS"}],"dialingCodes":[992],"emoji":"üáπüáØ","flag":"https://commons.wikimedia.org/wiki/Special:FilePath/Flag_of_Tajikistan.svg","geo":{"latitude":39,"longitude":71,"area":143100},"languages":{"primaryLanguage":{"code":"tg","name":"Tajik","native_name":"—Ç–æ“∑–∏–∫”£"},"spokenLanguages":[{"code":"tg","name":"Tajik","native_name":"—Ç–æ“∑–∏–∫”£"},{"code":"ru","name":"Russian","native_name":"–†—É—Å—Å–∫–∏–π"}]},"locale":{"default":"ru-TJ","locales":["tg-TJ","ru-TJ"]},"numeric":"762","region":"Central Asia","tld":[".tj"]},{"name":{"common":"Tanzania","official":"United Republic of Tanzania","native":"Tanzania"},"alpha2":"TZ","alpha3":"TZA","capital":"Dodoma","continent":"Africa","currencies":[{"name":"Tanzanian Shilling","code":"TZS"}],"dialingCodes":[255],"emoji":"üáπüáø","flag":"https://commons.wikimedia.org/wiki/Special:FilePath/Flag_of_Tanzania.svg","geo":{"latitude":-6,"longitude":35,"area":945087},"languages":{"primaryLanguage":{"code":"sw","name":"Swahili","native_name":"Kiswahili"},"spokenLanguages":[{"code":"sw","name":"Swahili","native_name":"Kiswahili"},{"code":"en","name":"English","native_name":"English"}]},"locale":{"default":"en-TZ","locales":["sw-TZ","en-TZ"]},"numeric":"834","region":"Eastern Africa","tld":[".tz"]},{"name":{"common":"Thailand","official":"Kingdom of Thailand","native":"‡∏õ‡∏£‡∏∞‡πÄ‡∏ó‡∏®‡πÑ‡∏ó‡∏¢"},"alpha2":"TH","alpha3":"THA","capital":"Bangkok","continent":"Asia","currencies":[{"name":"Thai Baht","code":"THB"}],"dialingCodes":[66],"emoji":"üáπüá≠","flag":"https://commons.wikimedia.org/wiki/Special:FilePath/Flag_of_Thailand.svg","geo":{"latitude":15,"longitude":100,"area":513120},"languages":{"primaryLanguage":{"code":"th","name":"Thai","native_name":"‡πÑ‡∏ó‡∏¢"},"spokenLanguages":[{"code":"th","name":"Thai","native_name":"‡πÑ‡∏ó‡∏¢"}]},"locale":{"default":"th-TH","locales":["th-TH"]},"numeric":"764","region":"South East Asia","tld":[".th",".‡πÑ‡∏ó‡∏¢"]},{"name":{"common":"Timor-Leste","official":"Democratic Republic of Timor-Leste","native":"Timor-Leste"},"alpha2":"TL","alpha3":"TLS","capital":"Dili","continent":"Asia","currencies":[{"name":"United States Dollar","code":"USD"}],"dialingCodes":[670],"emoji":"üáπüá±","flag":"https://commons.wikimedia.org/wiki/Special:FilePath/Flag_of_East_Timor.svg","geo":{"latitude":-8.83333333,"longitude":125.91666666,"area":14874},"languages":{"primaryLanguage":{"code":"pt","name":"Portuguese","native_name":"Portugu√™s"},"spokenLanguages":[{"code":"pt","name":"Portuguese","native_name":"Portugu√™s"}]},"locale":{"default":"pt-TL","locales":["pt-TL"]},"numeric":"626","region":"South East Asia","tld":[".tl"]},{"name":{"common":"Togo","official":"Togolese Republic","native":"Togo"},"alpha2":"TG","alpha3":"TGO","capital":"Lom√©","continent":"Africa","currencies":[{"name":"West African CFA Franc","code":"XOF"}],"dialingCodes":[228],"emoji":"üáπüá¨","flag":"https://commons.wikimedia.org/wiki/Special:FilePath/Flag_of_Togo.svg","geo":{"latitude":8,"longitude":1.16666666,"area":56785},"languages":{"primaryLanguage":{"code":"fr","name":"French","native_name":"fran√ßais"},"spokenLanguages":[{"code":"fr","name":"French","native_name":"fran√ßais"}]},"locale":{"default":"fr-TG","locales":["fr-TG"]},"numeric":"768","region":"Western Africa","tld":[".tg"]},{"name":{"common":"Tokelau","official":"Tokelau","native":"Tokelau"},"alpha2":"TK","alpha3":"TKL","capital":"Fakaofo","continent":"Oceania","currencies":[{"name":"New Zealand Dollar","code":"NZD"}],"dialingCodes":[690],"emoji":"üáπüá∞","flag":"https://commons.wikimedia.org/wiki/Special:FilePath/Flag_of_Tokelau.svg","geo":{"latitude":-9,"longitude":-172,"area":12},"languages":{"primaryLanguage":{"code":"en","name":"English","native_name":"English"},"spokenLanguages":[{"code":"en","name":"English","native_name":"English"}]},"locale":{"default":"en-TK","locales":["en-TK"]},"numeric":"772","region":"Pacific","tld":[".tk"]},{"name":{"common":"Tonga","official":"Kingdom of Tonga","native":"Tonga"},"alpha2":"TO","alpha3":"TON","capital":"Nuku'alofa","continent":"Oceania","currencies":[{"name":"Tongan Pa ªanga","code":"TOP"}],"dialingCodes":[676],"emoji":"üáπüá¥","flag":"https://commons.wikimedia.org/wiki/Special:FilePath/Flag_of_Tonga.svg","geo":{"latitude":-20,"longitude":-175,"area":747},"languages":{"primaryLanguage":{"code":"en","name":"English","native_name":"English"},"spokenLanguages":[{"code":"en","name":"English","native_name":"English"},{"code":"to","name":"Tonga","native_name":"faka Tonga"}]},"locale":{"default":"en-TO","locales":["en-TO","to-TO"]},"numeric":"776","region":"Pacific","tld":[".to"]},{"name":{"common":"Trinidad and Tobago","official":"Republic of Trinidad and Tobago","native":"Trinidad and Tobago"},"alpha2":"TT","alpha3":"TTO","capital":"Port of Spain","continent":"Americas","currencies":[{"name":"Trinidad And Tobago Dollar","code":"TTD"}],"dialingCodes":[1868],"emoji":"üáπüáπ","flag":"https://commons.wikimedia.org/wiki/Special:FilePath/Flag_of_Trinidad_and_Tobago.svg","geo":{"latitude":11,"longitude":-61,"area":5130},"languages":{"primaryLanguage":{"code":"en","name":"English","native_name":"English"},"spokenLanguages":[{"code":"en","name":"English","native_name":"English"}]},"locale":{"default":"en-TT","locales":["en-TT"]},"numeric":"780","region":"West Indies","tld":[".tt"]},{"name":{"common":"Tunisia","official":"Tunisian Republic","native":"ÿ™ŸàŸÜÿ≥"},"alpha2":"TN","alpha3":"TUN","capital":"Tunis","continent":"Africa","currencies":[{"name":"Tunisian Dinar","code":"TND"}],"dialingCodes":[216],"emoji":"üáπüá≥","flag":"https://commons.wikimedia.org/wiki/Special:FilePath/Flag_of_Tunisia.svg","geo":{"latitude":34,"longitude":9,"area":163610},"languages":{"primaryLanguage":{"code":"ar","name":"Arabic","native_name":"ÿßŸÑÿπÿ±ÿ®Ÿäÿ©"},"spokenLanguages":[{"code":"ar","name":"Arabic","native_name":"ÿßŸÑÿπÿ±ÿ®Ÿäÿ©"}]},"locale":{"default":"ar-TN","locales":["ar-TN"]},"numeric":"788","region":"Northern Africa","tld":[".tn"]},{"name":{"common":"T√ºrkiye","official":"Republic of T√ºrkiye","native":"T√ºrkiye"},"alpha2":"TR","alpha3":"TUR","capital":"Ankara","continent":"Asia","currencies":[{"name":"Turkish Lira","code":"TRY"}],"dialingCodes":[90],"emoji":"üáπüá∑","flag":"https://commons.wikimedia.org/wiki/Special:FilePath/Flag_of_Turkey.svg","geo":{"latitude":39,"longitude":35,"area":783562},"languages":{"primaryLanguage":{"code":"tr","name":"Turkish","native_name":"T√ºrk√ße"},"spokenLanguages":[{"code":"tr","name":"Turkish","native_name":"T√ºrk√ße"}]},"locale":{"default":"tr-TR","locales":["tr-TR"]},"numeric":"792","region":"South West Asia","tld":[".tr"]},{"name":{"common":"Turkmenistan","official":"Turkmenistan","native":"T√ºrkmenistan"},"alpha2":"TM","alpha3":"TKM","capital":"Ashgabat","continent":"Asia","currencies":[{"name":"Turkmenistan Manat","code":"TMT"}],"dialingCodes":[993],"emoji":"üáπüá≤","flag":"https://commons.wikimedia.org/wiki/Special:FilePath/Flag_of_Turkmenistan.svg","geo":{"latitude":40,"longitude":60,"area":488100},"languages":{"primaryLanguage":{"code":"tk","name":"Turkmen","native_name":"T√ºrkmen"},"spokenLanguages":[{"code":"tk","name":"Turkmen","native_name":"T√ºrkmen"},{"code":"ru","name":"Russian","native_name":"–†—É—Å—Å–∫–∏–π"}]},"locale":{"default":"ru-TM","locales":["tk-TM","ru-TM"]},"numeric":"795","region":"Central Asia","tld":[".tm"]},{"name":{"common":"Turks and Caicos Islands","official":"Turks and Caicos Islands","native":"Turks and Caicos Islands"},"alpha2":"TC","alpha3":"TCA","capital":"Cockburn Town","continent":"Americas","currencies":[{"name":"United States Dollar","code":"USD"}],"dialingCodes":[1649],"emoji":"üáπüá®","flag":"https://commons.wikimedia.org/wiki/Special:FilePath/Flag_of_the_Turks_and_Caicos_Islands.svg","geo":{"latitude":21.75,"longitude":-71.58333333,"area":948},"languages":{"primaryLanguage":{"code":"en","name":"English","native_name":"English"},"spokenLanguages":[{"code":"en","name":"English","native_name":"English"}]},"locale":{"default":"en-TC","locales":["en-TC"]},"numeric":"796","region":"West Indies","tld":[".tc"]},{"name":{"common":"Tuvalu","official":"Tuvalu","native":"Tuvalu"},"alpha2":"TV","alpha3":"TUV","capital":"Funafuti","continent":"Oceania","currencies":[{"name":"Australian Dollar","code":"AUD"},{"name":"Tuvaluan Dollar","code":"TVD"}],"dialingCodes":[688],"emoji":"üáπüáª","flag":"https://commons.wikimedia.org/wiki/Special:FilePath/Flag_of_Tuvalu.svg","geo":{"latitude":-8,"longitude":178,"area":26},"languages":{"primaryLanguage":{"code":"en","name":"English","native_name":"English"},"spokenLanguages":[{"code":"en","name":"English","native_name":"English"}]},"locale":{"default":"en-TV","locales":["en-TV"]},"numeric":"798","region":"Pacific","tld":[".tv"]},{"name":{"common":"Uganda","official":"Republic of Uganda","native":"Uganda"},"alpha2":"UG","alpha3":"UGA","capital":"Kampala","continent":"Africa","currencies":[{"name":"Ugandan Shilling","code":"UGX"}],"dialingCodes":[256],"emoji":"üá∫üá¨","flag":"https://commons.wikimedia.org/wiki/Special:FilePath/Flag_of_Uganda.svg","geo":{"latitude":1,"longitude":32,"area":241550},"languages":{"primaryLanguage":{"code":"en","name":"English","native_name":"English"},"spokenLanguages":[{"code":"en","name":"English","native_name":"English"},{"code":"sw","name":"Swahili","native_name":"Kiswahili"}]},"locale":{"default":"en-UG","locales":["en-UG","sw-UG"]},"numeric":"800","region":"Eastern Africa","tld":[".ug"]},{"name":{"common":"Ukraine","official":"Ukraine","native":"–£–∫—Ä–∞—ó–Ω–∞"},"alpha2":"UA","alpha3":"UKR","capital":"Kyiv","continent":"Europe","currencies":[{"name":"Ukrainian Hryvnia","code":"UAH"}],"dialingCodes":[380],"emoji":"üá∫üá¶","flag":"https://commons.wikimedia.org/wiki/Special:FilePath/Flag_of_Ukraine.svg","geo":{"latitude":49,"longitude":32,"area":603500},"languages":{"primaryLanguage":{"code":"uk","name":"Ukrainian","native_name":"–£–∫—Ä–∞—ó–Ω—Å—å–∫–∞"},"spokenLanguages":[{"code":"uk","name":"Ukrainian","native_name":"–£–∫—Ä–∞—ó–Ω—Å—å–∫–∞"}]},"locale":{"default":"uk-UA","locales":["uk-UA"]},"numeric":"804","region":"Eastern Europe","tld":[".ua",".—É–∫—Ä"]},{"name":{"common":"United Arab Emirates","official":"United Arab Emirates","native":"ÿØŸàŸÑÿ© ÿßŸÑÿ•ŸÖÿßÿ±ÿßÿ™ ÿßŸÑÿπÿ±ÿ®Ÿäÿ© ÿßŸÑŸÖÿ™ÿ≠ÿØÿ©"},"alpha2":"AE","alpha3":"ARE","capital":"Abu Dhabi","continent":"Asia","currencies":[{"name":"United Arab Emirates Dirham","code":"AED"}],"dialingCodes":[971],"emoji":"üá¶üá™","flag":"https://commons.wikimedia.org/wiki/Special:FilePath/Flag_of_the_United_Arab_Emirates.svg","geo":{"latitude":24,"longitude":54,"area":83600},"languages":{"primaryLanguage":{"code":"ar","name":"Arabic","native_name":"ÿßŸÑÿπÿ±ÿ®Ÿäÿ©"},"spokenLanguages":[{"code":"ar","name":"Arabic","native_name":"ÿßŸÑÿπÿ±ÿ®Ÿäÿ©"}]},"locale":{"default":"ar-AE","locales":["ar-AE"]},"numeric":"784","region":"South West Asia","tld":[".ae","ÿßŸÖÿßÿ±ÿßÿ™."]},{"name":{"common":"United Kingdom","official":"United Kingdom of Great Britain and Northern Ireland","native":"United Kingdom"},"alpha2":"GB","alpha3":"GBR","capital":"London","continent":"Europe","currencies":[{"name":"British Pound","code":"GBP"}],"dialingCodes":[44],"emoji":"üá¨üáß","flag":"https://commons.wikimedia.org/wiki/Special:FilePath/Flag_of_the_United_Kingdom.svg","geo":{"latitude":54,"longitude":-2,"area":242900},"languages":{"primaryLanguage":{"code":"en","name":"English","native_name":"English"},"spokenLanguages":[{"code":"en","name":"English","native_name":"English"}]},"locale":{"default":"en-GB","locales":["en-GB"]},"numeric":"826","region":"Western Europe","tld":[".uk"]},{"name":{"common":"United States Minor Outlying Islands","official":"United States Minor Outlying Islands","native":"United States Minor Outlying Islands"},"alpha2":"UM","alpha3":"UMI","capital":"","continent":"Americas","currencies":[{"name":"United States Dollar","code":"USD"}],"dialingCodes":[1],"emoji":"üá∫üá≤","flag":"https://commons.wikimedia.org/wiki/Special:FilePath/Flag_of_the_United_States.svg","geo":{"latitude":19.3,"longitude":166.633333,"area":34.2},"languages":{"primaryLanguage":{"code":"en","name":"English","native_name":"English"},"spokenLanguages":[{"code":"en","name":"English","native_name":"English"}]},"locale":{"default":"en-UM","locales":["en-UM"]},"numeric":"581","region":"North America","tld":[".us"]},{"name":{"common":"United States","official":"United States of America","native":"United States"},"alpha2":"US","alpha3":"USA","capital":"Washington D.C.","continent":"Americas","currencies":[{"name":"United States Dollar","code":"USD"}],"dialingCodes":[1],"emoji":"üá∫üá∏","flag":"https://commons.wikimedia.org/wiki/Special:FilePath/Flag_of_the_United_States.svg","geo":{"latitude":38,"longitude":-97,"area":9372610},"languages":{"primaryLanguage":{"code":"en","name":"English","native_name":"English"},"spokenLanguages":[{"code":"en","name":"English","native_name":"English"}]},"locale":{"default":"en-US","locales":["en-US"]},"numeric":"840","region":"North America","tld":[".us"]},{"name":{"common":"Uruguay","official":"Oriental Republic of Uruguay","native":"Uruguay"},"alpha2":"UY","alpha3":"URY","capital":"Montevideo","continent":"Americas","currencies":[{"name":"Uruguayan Peso","code":"UYU"}],"dialingCodes":[598],"emoji":"üá∫üáæ","flag":"https://commons.wikimedia.org/wiki/Special:FilePath/Flag_of_Uruguay.svg","geo":{"latitude":-33,"longitude":-56,"area":181034},"languages":{"primaryLanguage":{"code":"es","name":"Spanish","native_name":"Espa√±ol"},"spokenLanguages":[{"code":"es","name":"Spanish","native_name":"Espa√±ol"}]},"locale":{"default":"es-UY","locales":["es-UY"]},"numeric":"858","region":"South America","tld":[".uy"]},{"name":{"common":"Uzbekistan","official":"Republic of Uzbekistan","native":"O'zbekiston"},"alpha2":"UZ","alpha3":"UZB","capital":"Tashkent","continent":"Asia","currencies":[{"name":"Uzbekistani So ªm","code":"UZS"}],"dialingCodes":[998],"emoji":"üá∫üáø","flag":"https://commons.wikimedia.org/wiki/Special:FilePath/Flag_of_Uzbekistan.svg","geo":{"latitude":41,"longitude":64,"area":447400},"languages":{"primaryLanguage":{"code":"uz","name":"Uzbek","native_name":"O ªzbek"},"spokenLanguages":[{"code":"uz","name":"Uzbek","native_name":"O ªzbek"},{"code":"ru","name":"Russian","native_name":"–†—É—Å—Å–∫–∏–π"}]},"locale":{"default":"ru-UZ","locales":["uz-UZ","ru-UZ"]},"numeric":"860","region":"Central Asia","tld":[".uz"]},{"name":{"common":"Vanuatu","official":"Republic of Vanuatu","native":"Vanuatu"},"alpha2":"VU","alpha3":"VUT","capital":"Port Vila","continent":"Oceania","currencies":[{"name":"Vanuatu Vatu","code":"VUV"}],"dialingCodes":[678],"emoji":"üáªüá∫","flag":"https://commons.wikimedia.org/wiki/Special:FilePath/Flag_of_Vanuatu.svg","geo":{"latitude":-16,"longitude":167,"area":12189},"languages":{"primaryLanguage":{"code":"bi","name":"Bislama","native_name":"Bislama"},"spokenLanguages":[{"code":"bi","name":"Bislama","native_name":"Bislama"},{"code":"en","name":"English","native_name":"English"},{"code":"fr","name":"French","native_name":"fran√ßais"}]},"locale":{"default":"bi-VU","locales":["bi-VU","en-VU","fr-VU"]},"numeric":"548","region":"Pacific","tld":[".vu"]},{"name":{"common":"Venezuela","official":"Bolivarian Republic of Venezuela","native":"Venezuela"},"alpha2":"VE","alpha3":"VEN","capital":"Caracas","continent":"Americas","currencies":[{"name":"Venezuelan Bol√≠var Soberano","code":"VES"}],"dialingCodes":[58],"emoji":"üáªüá™","flag":"https://commons.wikimedia.org/wiki/Special:FilePath/Flag_of_Venezuela.svg","geo":{"latitude":8,"longitude":-66,"area":916445},"languages":{"primaryLanguage":{"code":"es","name":"Spanish","native_name":"Espa√±ol"},"spokenLanguages":[{"code":"es","name":"Spanish","native_name":"Espa√±ol"}]},"locale":{"default":"es-VE","locales":["es-VE"]},"numeric":"862","region":"South America","tld":[".ve"]},{"name":{"common":"Vietnam","official":"Socialist Republic of Vietnam","native":"Vi·ªát Nam"},"alpha2":"VN","alpha3":"VNM","capital":"Hanoi","continent":"Asia","currencies":[{"name":"Vietnamese ƒê·ªìng","code":"VND"}],"dialingCodes":[84],"emoji":"üáªüá≥","flag":"https://commons.wikimedia.org/wiki/Special:FilePath/Flag_of_Vietnam.svg","geo":{"latitude":16.16666666,"longitude":107.83333333,"area":331212},"languages":{"primaryLanguage":{"code":"vi","name":"Vietnamese","native_name":"Ti·∫øng Vi·ªát"},"spokenLanguages":[{"code":"vi","name":"Vietnamese","native_name":"Ti·∫øng Vi·ªát"}]},"locale":{"default":"vi-VN","locales":["vi-VN"]},"numeric":"704","region":"South East Asia","tld":[".vn"]},{"name":{"common":"British Virgin Islands","official":"Virgin Islands","native":"British Virgin Islands"},"alpha2":"VG","alpha3":"VGB","capital":"Road Town","continent":"Americas","currencies":[{"name":"United States Dollar","code":"USD"}],"dialingCodes":[1284],"emoji":"üáªüá¨","flag":"https://commons.wikimedia.org/wiki/Special:FilePath/Flag_of_the_British_Virgin_Islands.svg","geo":{"latitude":18.431383,"longitude":-64.62305,"area":151},"languages":{"primaryLanguage":{"code":"en","name":"English","native_name":"English"},"spokenLanguages":[{"code":"en","name":"English","native_name":"English"}]},"locale":{"default":"en-VG","locales":["en-VG"]},"numeric":"092","region":"West Indies","tld":[".vg"]},{"name":{"common":"United States Virgin Islands","official":"Virgin Islands of the United States","native":"United States Virgin Islands"},"alpha2":"VI","alpha3":"VIR","capital":"Charlotte Amalie","continent":"Americas","currencies":[{"name":"United States Dollar","code":"USD"}],"dialingCodes":[1340],"emoji":"üáªüáÆ","flag":"https://commons.wikimedia.org/wiki/Special:FilePath/Flag_of_the_United_States_Virgin_Islands.svg","geo":{"latitude":18.35,"longitude":-64.933333,"area":347},"languages":{"primaryLanguage":{"code":"en","name":"English","native_name":"English"},"spokenLanguages":[{"code":"en","name":"English","native_name":"English"}]},"locale":{"default":"en-VI","locales":["en-VI"]},"numeric":"850","region":"West Indies","tld":[".vi"]},{"name":{"common":"Wallis and Futuna","official":"Territory of the Wallis and Futuna Islands","native":"Wallis et Futuna"},"alpha2":"WF","alpha3":"WLF","capital":"Mata-Utu","continent":"Oceania","currencies":[{"name":"CFP Franc","code":"XPF"}],"dialingCodes":[681],"emoji":"üáºüá´","flag":"https://commons.wikimedia.org/wiki/Special:FilePath/Flag_of_Wallis_and_Futuna.svg","geo":{"latitude":-13.3,"longitude":-176.2,"area":142},"languages":{"primaryLanguage":{"code":"fr","name":"French","native_name":"fran√ßais"},"spokenLanguages":[{"code":"fr","name":"French","native_name":"fran√ßais"}]},"locale":{"default":"fr-WF","locales":["fr-WF"]},"numeric":"876","region":"Pacific","tld":[".wf"]},{"name":{"common":"Western Sahara","official":"Sahrawi Arab Democratic Republic","native":"ÿßŸÑÿµÿ≠ÿ±ÿßÿ° ÿßŸÑÿ∫ÿ±ÿ®Ÿäÿ©"},"alpha2":"EH","alpha3":"ESH","capital":"El Aai√∫n","continent":"Africa","currencies":[{"name":"Algerian Dinar","code":"DZD"},{"name":"Moroccan Dirham","code":"MAD"},{"name":"Mauritanian Ouguiya","code":"MRU"}],"dialingCodes":[212],"emoji":"üá™üá≠","flag":"https://commons.wikimedia.org/wiki/Special:FilePath/Flag_of_Sahrawi_Arab_Democratic_Republic.svg","geo":{"latitude":24.5,"longitude":-13,"area":266000},"languages":{"primaryLanguage":{"code":"es","name":"Spanish","native_name":"Espa√±ol"},"spokenLanguages":[{"code":"es","name":"Spanish","native_name":"Espa√±ol"}]},"locale":{"default":"es-EH","locales":["es-EH"]},"numeric":"732","region":"Northern Africa","tld":[".eh"]},{"name":{"common":"Yemen","official":"Republic of Yemen","native":"ÿßŸÑŸäŸéŸÖŸéŸÜ"},"alpha2":"YE","alpha3":"YEM","capital":"Sana'a","continent":"Asia","currencies":[{"name":"Yemeni Rial","code":"YER"}],"dialingCodes":[967],"emoji":"üáæüá™","flag":"https://commons.wikimedia.org/wiki/Special:FilePath/Flag_of_Yemen.svg","geo":{"latitude":15,"longitude":48,"area":527968},"languages":{"primaryLanguage":{"code":"ar","name":"Arabic","native_name":"ÿßŸÑÿπÿ±ÿ®Ÿäÿ©"},"spokenLanguages":[{"code":"ar","name":"Arabic","native_name":"ÿßŸÑÿπÿ±ÿ®Ÿäÿ©"}]},"locale":{"default":"ar-YE","locales":["ar-YE"]},"numeric":"887","region":"South West Asia","tld":[".ye"]},{"name":{"common":"Zambia","official":"Republic of Zambia","native":"Zambia"},"alpha2":"ZM","alpha3":"ZMB","capital":"Lusaka","continent":"Africa","currencies":[{"name":"Zambian Kwacha","code":"ZMW"}],"dialingCodes":[260],"emoji":"üáøüá≤","flag":"https://commons.wikimedia.org/wiki/Special:FilePath/Flag_of_Zambia.svg","geo":{"latitude":-15,"longitude":30,"area":752612},"languages":{"primaryLanguage":{"code":"en","name":"English","native_name":"English"},"spokenLanguages":[{"code":"en","name":"English","native_name":"English"}]},"locale":{"default":"en-ZM","locales":["en-ZM"]},"numeric":"894","region":"Southern Africa","tld":[".zm"]},{"name":{"common":"Zimbabwe","official":"Republic of Zimbabwe","native":"Zimbabwe"},"alpha2":"ZW","alpha3":"ZWE","capital":"Harare","continent":"Africa","currencies":[{"name":"Botswana Pula","code":"BWP"},{"name":"Chinese Yuan","code":"CNY"},{"name":"Euro","code":"EUR"},{"name":"British Pound","code":"GBP"},{"name":"Indian Rupee","code":"INR"},{"name":"Japanese Yen","code":"JPY"},{"name":"United States Dollar","code":"USD"},{"name":"South African Rand","code":"ZAR"},{"name":"Zimbabwean Bonds","code":"ZWB"}],"dialingCodes":[263],"emoji":"üáøüáº","flag":"https://commons.wikimedia.org/wiki/Special:FilePath/Flag_of_Zimbabwe.svg","geo":{"latitude":-20,"longitude":30,"area":390757},"languages":{"primaryLanguage":{"code":"en","name":"English","native_name":"English"},"spokenLanguages":[{"code":"en","name":"English","native_name":"English"},{"code":"sn","name":"Shona","native_name":"chiShona"},{"code":"nd","name":"Northern Ndebele","native_name":"isiNdebele"}]},"locale":{"default":"en-ZW","locales":["en-ZW","sn-ZW","nd-ZW"]},"numeric":"716","region":"Southern Africa","tld":[".zw"]},{"name":{"common":"√Öland Islands","official":"√Öland Islands","native":"√Öland"},"alpha2":"AX","alpha3":"ALA","capital":"Mariehamn","continent":"Europe","currencies":[{"name":"Euro","code":"EUR"}],"dialingCodes":[358],"emoji":"üá¶üáΩ","flag":"https://commons.wikimedia.org/wiki/Special:FilePath/Flag_of_%C3%85land.svg","geo":{"latitude":60.116667,"longitude":19.9,"area":1580},"languages":{"primaryLanguage":{"code":"sv","name":"Swedish","native_name":"svenska"},"spokenLanguages":[{"code":"sv","name":"Swedish","native_name":"svenska"}]},"locale":{"default":"sv-AX","locales":["sv-AX"]},"numeric":"248","region":"Northern Europe","tld":[".ax"]},{"name":{"common":"Kosovo","official":"Republic of Kosovo","native":"Republika e Kosov√´s"},"alpha2":"XK","alpha3":"XKX","capital":"Pristina","continent":"Europe","currencies":[{"name":"Euro","code":"EUR"}],"dialingCodes":[377,381,383,386],"emoji":"üáΩüá∞","flag":"https://commons.wikimedia.org/wiki/Special:FilePath/Flag_of_Kosovo.svg","geo":{"latitude":42.666667,"longitude":21.166667,"area":10908},"languages":{"primaryLanguage":{"code":"sq","name":"Albanian","native_name":"Shqip"},"spokenLanguages":[{"code":"sq","name":"Albanian","native_name":"Shqip"},{"code":"sr","name":"Serbian","native_name":"—Å—Ä–ø—Å–∫–∏ —ò–µ–∑–∏–∫"}]},"locale":{"default":"sq-XK","locales":["sq-XK","sr-XK"]},"numeric":"383","region":"South East Europe","tld":[".xk"]}]
